OBJECTNUMMER;Adres;Postcode;STADSDEEL_CODE;GEBIED22_CODE;Gebouwnaam;Bruto_vloeroppervlak;Leegstand_bvo;Leegstand_perc;Huidige_functie;Toekomstige_functie;Transformatiefase;Transformatiewijze;Startbouw;Aantal_woningen;Website;COORDS;LNG;LAT;
1;"Binnen Bantammerstraat 15";"1011CH";"A";"DX02";"Tandwielenfabriek";1569;0;0;"Bedrijf";"Wonen";"4 - Gerealiseerd";"C - Verbouw andere functie";2014;12;"";"POINT(4.902381 52.37378)";"4,902381";"52,37378";
2;"Montelbaanstraat 6";"1011EG";"A";"DX02";"Walenburg";1513;0;0;"Wonen";"Wonen";"3 - In uitvoering";"C - Verbouw andere functie";2015;17;"";"POINT(4.903642 52.372599)";"4,903642";"52,372599";
780;"Leidsestraat 106 - 108";"";"A";"DX02";"";0;0;0;"Kantoor";"Wonen";"2 - In onderzoek - voorbereiding";"C - Verbouw andere functie";2017;13;"";"POINT(4.883235 52.364560)";"4,883235";"52,364560";
4;"Raamgracht 4,6,8 / Kloveniersburgwal 73";"1011KK";"A";"DX02";" ";4100;0;0;"Kantoor";"Wonen";"3 - In uitvoering";"C - Verbouw andere functie";2016;6;"";"POINT(4.898211 52.369749)";"4,898211";"52,369749";
6;"Muiderstraat 10";"";"A";"DX02";"";162;0;0;"Commercieel - Wonen";"Commercieel - Wonen";"3 - In uitvoering";"C - Verbouw andere functie";2015;3;"";"POINT(4.905993 52.367491)";"4,905993";"52,367491";
9;"Nieuwe Doelenstraat 16";"1012CP";"A";"DX01";"";2775;0;0;"Onderwijs";"Onderwijs";"2 - In onderzoek - voorbereiding";"X - Leegstand zonder transformatie";0;0;"";"POINT(4.895011 52.367924)";"4,895011";"52,367924";
14;"Warmoesstraat 48";"";"A";"DX01";"politiebureau";2000;0;0;"Kantoor";"Commercieel - Wonen";"2 - In onderzoek - voorbereiding";"C - Verbouw andere functie";0;0;"";"POINT(4.898231 52.375514)";"4,898231";"52,375514";
16;"Dam 3-7";"1012JS";"A";"DX01";"Royal dam center";4300;0;0;"Kantoor";"Kantoor";"3 - In uitvoering";"C - Verbouw andere functie";2016;16;"";"POINT(4.893973 52.373192)";"4,893973";"52,373192";
17;"Dam 31";"1012JS";"A";"DX01";"Industria";3600;0;0;"Kantoor";"Wonen - Commercieel";"2 - In onderzoek - voorbereiding";"C - Verbouw andere functie";0;0;"";"POINT(4.893306 52.372494)";"4,893306";"52,372494";
18;"Beursstraat 33";"1012JV";"A";"DX01";"";2000;0;0;"Kantoor";"Wonen - Commercieel";"2 - In onderzoek - voorbereiding";"C - Verbouw andere functie";0;0;"";"POINT(4.896351 52.374618)";"4,896351";"52,374618";
21;"Damrak 79";"1012LM";"A";"DX01";"";9281;0;0;"Kantoor";"Commercieel";"3 - In uitvoering";"C - Verbouw andere functie";2015;0;"";"POINT(4.894372 52.374332)";"4,894372";"52,374332";
22;"Nieuwendijk 16";"1012MK";"A";"DX01";"";623;0;0;"Kantoor";"Commercieel";"3 - In uitvoering";"C - Verbouw andere functie";2015;0;"";"POINT(4.894986 52.37854)";"4,894986";"52,37854";
23;"Gravenstraat 4";"1012NM";"A";"DX01";"";6084;0;0;"Kantoor";"Commercieel";"3 - In uitvoering";"C - Verbouw andere functie";2015;0;"";"POINT(4.893007 52.374299)";"4,893007";"52,374299";
24;"Oude Braak 19A";"1012PS";"A";"DX01";"";0;0;0;"Kantoor";"Wonen";"3 - In uitvoering";"C - Verbouw andere functie";2015;8;"";"POINT(4.895579 52.376736)";"4,895579";"52,376736";
25;"Nieuwezijds Voorburgwal 271";"1012RL";"A";"DX01";"";3300;0;0;"Kantoor";"Commercieel";"2 - In onderzoek - voorbereiding";"C - Verbouw andere functie";0;0;"";"POINT(4.890999 52.371289)";"4,890999";"52,371289";
27;"Nieuwezijds Voorburgwal 104";"1012SG";"A";"DX01";"";1700;1700;100;"Kantoor";"Kantoor";"1 - Leegstand zonder transformatie";"X - Leegstand zonder transformatie";0;0;"";"POINT(4.892180 52.375543)";"4,892180";"52,375543";
28;"Nieuwezijds Voorburgwal 156";"1012SJ";"A";"DX01";"";0;0;0;"Kantoor - Wonen";"Wonen";"3 - In uitvoering";"C - Verbouw andere functie";2016;3;"";"POINT(4.891172 52.374611)";"4,891172";"52,374611";
29;"Nieuwezijds Voorburgwal 162";"1012SJ";"A";"DX01";"";4100;0;0;"Kantoor";"Onbekend";"2 - In onderzoek - voorbereiding";"E - Transformatiewijze nader te bepalen";0;0;"";"POINT(4.890994 52.374407)";"4,890994";"52,374407";
30;"Spuistraat 134";"1012VB";"A";"DX01";"PC Hoofthuis";17801;0;0;"Onderwijs";"Onbekend";"2 - In onderzoek - voorbereiding";"E - Transformatiewijze nader te bepalen";0;0;"";"POINT(4.889837 52.374097)";"4,889837";"52,374097";
31;"Spuistraat 175";"1012VN";"A";"DX01";"Voormalig PTT Kantoor";8350;0;0;"Kantoor";"Hotel";"4 - Gerealiseerd";"C - Verbouw andere functie";2015;0;"";"POINT(4.889758 52.372800)";"4,889758";"52,372800";
32;"Spuistraat 199";"1012VN";"A";"DX01";"Tabak II";768;0;0;"Kantoor - Wonen";"Wonen";"3 - In uitvoering";"C - Verbouw andere functie";2015;42;"";"POINT(4.88957 52.371732)";"4,88957";"52,371732";
34;"Singel 421";"1012WP";"A";"DX01";"";1449;0;0;"Onderwijs";"Onderwijs";"2 - In onderzoek - voorbereiding";"X - Leegstand zonder transformatie";0;0;"";"POINT(4.889343 52.367981)";"4,889343";"52,367981";
35;"Westerdoksdijk 411";"1013AD";"A";"DX01";"";1700;0;0;"Kantoor";"Kantoor";"4 - Gerealiseerd";"D - Verbouw zelfde functie";0;0;"";"POINT(4.892991 52.384949)";"4,892991";"52,384949";
36;"Grote Bickersstraat 2";"1013KS";"A";"DX01";"";895;0;0;"Bedrijf";"Wonen";"2 - In onderzoek - voorbereiding";"C - Verbouw andere functie";0;8;"";"POINT(4.889028 52.383396)";"4,889028";"52,383396";
37;"Prinseneiland 23";"1013LL";"A";"DX01";"";909;0;0;"Bedrijf - Hotel - Wonen";"Wonen";"4 - Gerealiseerd";"C - Verbouw andere functie";2015;12;"";"POINT(4.887610 52.386228)";"4,887610";"52,386228";
38;"Prinseneiland 29";"1013LL";"A";"DX01";"";366;0;0;"Bedrijf - Wonen";"Wonen";"4 - Gerealiseerd";"C - Verbouw andere functie";2016;4;"";"POINT(4.887745 52.386440)";"4,887745";"52,386440";
42;"Spaarndammerstraat 460A";"1013SZ";"E";"DX03";"";925;0;0;"Onbekend";"Onbekend";"2 - In onderzoek - voorbereiding";"E - Transformatiewijze nader te bepalen";0;0;"";"POINT(4.880199 52.388670)";"4,880199";"52,388670";
43;"Transformatorweg 30";"1014AK";"E";"DX04";"";2147;0;0;"Bedrijf";"Wonen - Hotel";"2 - In onderzoek - voorbereiding";"C - Verbouw andere functie";0;0;"";"POINT(4.851642 52.392328)";"4,851642";"52,392328";
45;"Transformatorweg 74-112";"1014AK";"E";"DX04";"De west";11800;6600;55;"Kantoor";"Kantoor";"2 - In onderzoek - voorbereiding";"E - Transformatiewijze nader te bepalen";0;0;"";"POINT(4.847833 52.392679)";"4,847833";"52,392679";
48;"Contactweg 145-153";"1014BJ";"B";"Dxxx";"Dynamic center";2200;1800;81;"Kantoor";"Kantoor";"1 - Leegstand zonder transformatie";"X - Leegstand zonder transformatie";0;0;"";"POINT(4.85248 52.39839)";"4,85248";"52,39839";
49;"Haarlemmerweg 506";"1014BL";"E";"DX04";"ING kantoren";65000;0;0;"Kantoor";"Wonen";"2 - In onderzoek - voorbereiding";"C - Verbouw andere functie";2016;84;"";"POINT(4.854670 52.385662)";"4,854670";"52,385662";
50;"Haarlemmerweg 512";"1014BL";"E";"DX04";"ING kantoren";19619;12500;64;"Kantoor";"Wonen";"2 - In onderzoek - voorbereiding";"C - Verbouw andere functie";2019;300;"";"POINT(4.852972 52.385584)";"4,852972";"52,385584";
51;"Haarlemmerweg 520";"1014BL";"E";"DX04";"ING kantoren";65000;0;0;"Kantoor";"Wonen";"2 - In onderzoek - voorbereiding";"B - Sloop - Nieuwbouw";2019;300;"";"POINT(4.851065 52.385432)";"4,851065";"52,385432";
53;"Zekeringstraat 32-34";"1014BS";"B";"Dxxx";"Alpha towers";4900;3250;66;"Kantoor";"Kantoor";"1 - Leegstand zonder transformatie";"X - Leegstand zonder transformatie";0;0;"http://www.rabobankpensioenfonds.nl";"POINT(4.852059 52.396761)";"4,852059";"52,396761";
54;"Zekeringstraat 41-43";"1014BV";"B";"Dxxx";"Omega park";3000;300;11;"Kantoor";"Kantoor";"1 - Leegstand zonder transformatie";"X - Leegstand zonder transformatie";0;0;"";"POINT(4.850101 52.395871)";"4,850101";"52,395871";
57;"Herengracht 54";"1015BN";"A";"DX01";"Sardinia";1900;1900;100;"Kantoor";"Kantoor";"1 - Leegstand zonder transformatie";"X - Leegstand zonder transformatie";0;0;"";"POINT(4.890179 52.377684)";"4,890179";"52,377684";
58;"Keizersgracht 121";"1015CJ";"A";"DX01";"De sterre";1600;1600;100;"Kantoor";"Kantoor";"1 - Leegstand zonder transformatie";"X - Leegstand zonder transformatie";0;0;"";"POINT(4.887519 52.376532)";"4,887519";"52,376532";
59;"Keizersgracht 18";"";"A";"DX01";"";2804;0;0;"Wonen";"Kantoor - Wonen";"3 - In uitvoering";"C - Verbouw andere functie";2015;8;"";"POINT(4.889055 52.379242)";"4,889055";"52,379242";
60;"Leliegracht 34";"1015DG";"A";"DX01";"";250;0;0;"Commercieel - Kantoor - Wonen";"Wonen";"2 - In onderzoek - voorbereiding";"C - Verbouw andere functie";2017;2;"";"POINT(4.886499 52.375375)";"4,886499";"52,375375";
63;"Singel 238";"";"A";"DX01";"";3200;0;0;"Kantoor";"Wonen";"2 - In onderzoek - voorbereiding";"C - Verbouw andere functie";0;0;"";"POINT(4.888434 52.373462)";"4,888434";"52,373462";
64;"Herengracht 203";"1016BE";"A";"DX01";"";638;0;0;"Kantoor - Wonen";"Wonen";"3 - In uitvoering";"C - Verbouw andere functie";2016;4;"";"POINT(4.887603 52.373816)";"4,887603";"52,373816";
65;"Herengracht 209";"1016BE";"A";"DX01";"";602;0;0;"Kantoor";"Wonen";"3 - In uitvoering";"C - Verbouw andere functie";2016;3;"";"POINT(4.887591 52.373573)";"4,887591";"52,373573";
68;"Herengracht 370";"1016CH";"A";"DX01";"";1000;1000;100;"Kantoor";"Kantoor";"1 - Leegstand zonder transformatie";"X - Leegstand zonder transformatie";0;0;"";"POINT(4.886362 52.368411)";"4,886362";"52,368411";
69;"Keizersgracht 395-397";"";"A";"DX01";"";1300;1300;100;"Maatschappelijk";"Kantoor";"4 - Gerealiseerd";"C - Verbouw andere functie";0;0;"";"POINT(4.884857 52.367731)";"4,884857";"52,367731";
70;"Huidenstraat 23";"1016ER";"A";"DX01";"callcenter";0;0;0;"Kantoor";"Kantoor";"1 - Leegstand zonder transformatie";"X - Leegstand zonder transformatie";0;0;"";"POINT(4.88533 52.368757)";"4,88533";"52,368757";
73;"Marnixstraat 148";"1016TE";"A";"DX01";"";1400;1400;100;"Kantoor";"Commercieel";"3 - In uitvoering";"C - Verbouw andere functie";0;0;"";"POINT(4.876019 52.373650)";"4,876019";"52,373650";
75;"Herengracht 527";"1017BV";"A";"DX02";"";1500;0;0;"Kantoor";"Kantoor";"4 - Gerealiseerd";"D - Verbouw zelfde functie";0;0;"";"POINT(4.893498 52.365320)";"4,893498";"52,365320";
76;"Herengracht 410-412";"1017BX";"A";"DX02";"";3400;3400;100;"Kantoor";"Wonen";"2 - In onderzoek - voorbereiding";"C - Verbouw andere functie";2018;28;"";"POINT(4.8871210 52.3671090)";"4,8871210";"52,3671090";
77;"Herengracht 464 / Nieuwe Spiegelstraat 2B";"1017CA";"A";"DX02";"";1000;1000;100;"Kantoor";"Kantoor - Wonen";"2 - In onderzoek - voorbereiding";"C - Verbouw andere functie";0;7;"";"POINT(4.890253 52.365334)";"4,890253";"52,365334";
78;"Herengracht 472";"1017CA";"A";"DX02";"";1300;0;0;"Kantoor";"Kantoor";"1 - Leegstand zonder transformatie";"X - Leegstand zonder transformatie";0;0;"";"POINT(4.891288 52.365142)";"4,891288";"52,365142";
79;"Herengracht 574";"1017CJ";"A";"DX02";"";0;0;0;"Kantoor";"Wonen";"3 - In uitvoering";"C - Verbouw andere functie";2016;2;"";"POINT(4.898889 52.365091)";"4,898889";"52,365091";
80;"Herengracht 582";"1017CJ";"A";"DX02";"";1900;0;0;"Kantoor";"Kantoor";"4 - Gerealiseerd";"D - Verbouw zelfde functie";0;0;"";"POINT(4.899528 52.365227)";"4,899528";"52,365227";
81;"Keizersgracht 461";"1017DK";"A";"DX02";"";0;0;0;"Wonen";"Wonen";"3 - In uitvoering";"C - Verbouw andere functie";2015;3;"";"POINT(4.886903 52.366023)";"4,886903";"52,366023";
82;"Keizersgracht 790";"1017EC";"A";"DX02";"";445;0;0;"Onderwijs - Wonen";"Wonen";"3 - In uitvoering";"C - Verbouw andere functie";2016;3;"";"POINT(4.899476 52.363763)";"4,899476";"52,363763";
83;"Keizersgracht 604";"1017EP";"A";"DX02";"";1200;1200;100;"Kantoor";"Kantoor - Wonen";"2 - In onderzoek - voorbereiding";"C - Verbouw andere functie";0;1;"";"POINT(4.889858 52.363939)";"4,889858";"52,363939";
887;"Jan Rebelstraat 20";"1069CC";"F";"DX07";"";0;0;0;"Kantoor";"Wonen";"3 - In uitvoering";"C - Verbouw andere functie";2017;41;"";"POINT(4.7859353 52.3617017)";"4,7859353";"52,3617017";
888;"Blasiusstraat 15A";"1091CJ";"M";"DX13";"";0;0;0;"Kantoor";"Wonen";"3 - In uitvoering";"C - Verbouw andere functie";2017;3;"";"POINT(4.9080965 52.3564745)";"4,9080965";"52,3564745";
85;"Prinsengracht 767 / Kerkstraat 126";"1017JZ";"A";"DX02";"";1600;0;0;"Kantoor";"Kantoor - Wonen";"3 - In uitvoering";"C - Verbouw andere functie";2016;10;"";"POINT(4.886662 52.363940)";"4,886662";"52,363940";
87;"Prinsengracht 432";"1017KE";"A";"DX02";"Paleis van Justitie";12624;0;0;"Onbekend";"Hotel";"2 - In onderzoek - voorbereiding";"C - Verbouw andere functie";2018;0;"";"POINT(4.882854 52.365745)";"4,882854";"52,365745";
88;"Leidsegracht 17";"1017NA";"A";"DX02";"";441;0;0;"Kantoor - Wonen";"Wonen";"2 - In onderzoek - voorbereiding";"C - Verbouw andere functie";2017;4;"";"POINT(4.885815 52.367032)";"4,885815";"52,367032";
89;"Eerste Weteringplantsoen 6";"1017SK";"A";"DX02";"";0;0;0;"Kantoor";"Wonen";"3 - In uitvoering";"C - Verbouw andere functie";2016;3;"";"POINT(4.889381 52.359273)";"4,889381";"52,359273";
90;"Utrechtsestraat 79";"1017VJ";"A";"DX02";"";0;0;0;"Hotel";"Hotel - Wonen";"3 - In uitvoering";"C - Verbouw andere functie";2016;3;"";"POINT(4.898670 52.363210)";"4,898670";"52,363210";
91;"Frederiksplein 47";"1017XL";"A";"DX02";"";1153;0;0;"Kantoor";"Wonen";"3 - In uitvoering";"C - Verbouw andere functie";2015;8;"";"POINT(4.901191 52.360438)";"4,901191";"52,360438";
92;"Tweede Weteringplantsoen 1-7 / Weteringschans 66";"1017ZD";"A";"DX02";"";1700;1400;82;"Kantoor";"Kantoor";"1 - Leegstand zonder transformatie";"X - Leegstand zonder transformatie";0;0;"";"POINT(4.893114 52.35938)";"4,893114";"52,35938";
93;"Huidekoperstraat 26-28 / Pieter Pauwstraat 7-15";"1017ZM";"A";"DX02";"";3400;3400;100;"Kantoor";"Religie";"2 - In onderzoek - voorbereiding";"C - Verbouw andere functie";0;0;"";"POINT(4.897710 52.358786)";"4,897710";"52,358786";
94;"Nicolaas Witsenkade 27";"";"A";"DX02";"";593;0;0;"Maatschappelijk - Onbekend - Wonen";"Wonen";"3 - In uitvoering";"D - Verbouw zelfde functie";2015;5;"";"POINT(4.895841 52.358322)";"4,895841";"52,358322";
95;"Nieuwe Vaart 5-9";"1018AA";"A";"DX02";"";6800;0;0;"Kantoor";"Kantoor";"3 - In uitvoering";"D - Verbouw zelfde functie";2016;0;"";"POINT(4.914165 52.370380)";"4,914165";"52,370380";
96;"Zeeburgerpad 20";"1018AJ";"A";"DX02";"";812;0;0;"Bedrijf";"Wonen";"2 - In onderzoek - voorbereiding";"C - Verbouw andere functie";0;0;"";"POINT(4.930788 52.366908)";"4,930788";"52,366908";
97;"Zeeburgerpad 22";"1018AJ";"A";"DX02";"";748;0;0;"Kantoor";"Wonen";"2 - In onderzoek - voorbereiding";"C - Verbouw andere functie";0;0;"";"POINT(4.931111 52.366909)";"4,931111";"52,366909";
859;"Weesperplein 8";"";"A";"X";"";3000;1500;50;"Kantoor";"Onderwijs";"3 - In uitvoering";"C - Verbouw andere functie";0;0;"";"POINT(4.907246 52.361482)";"4,907246";"52,361482";
860;"Orlyplein 10 / Hanedastraat 2-50";"";"F";"DX06";"Cristal Tower";24700;17100;69;"Kantoor";"Kantoor";"1 - Leegstand zonder transformatie";"X - Leegstand zonder transformatie";0;0;"";"POINT(4.837044 52.391058)";"4,837044";"52,391058";
104;"Amstel 91-93";"";"A";"DX02";"";0;0;0;"Onbekend - Wonen";"Wonen";"3 - In uitvoering";"D - Verbouw zelfde functie";2016;0;"";"POINT(4.903375 52.363416)";"4,903375";"52,363416";
105;"Sarphatistraat 28";"1018GL";"A";"DX02";"";392;0;0;"Bedrijf - Wonen";"Wonen";"3 - In uitvoering";"C - Verbouw andere functie";2015;4;"";"POINT(4.906342 52.360621)";"4,906342";"52,360621";
107;"Kattenburgerstraat 5";"1018JA";"A";"DX02";"";1844;0;0;"Kantoor - Bedrijf";"Onbekend";"9 - Fase nader te bepalen";"C - Verbouw andere functie";0;0;"";"POINT(4.916279 52.371796)";"4,916279";"52,371796";
108;"Plantage Muidergracht 153";"1018TT";"A";"DX02";"";248;0;0;"Commercieel - Wonen";"Wonen";"2 - In onderzoek - voorbereiding";"C - Verbouw andere functie";2017;3;"";"POINT(4.917312 52.363892)";"4,917312";"52,363892";
110;"Weesperplein 4";"1018XA";"A";"DX02";"Diamantbeurs";6891;0;0;"Onderwijs";"Commercieel";"2 - In onderzoek - voorbereiding";"C - Verbouw andere functie";2017;0;"";"POINT(4.906983 52.361907)";"4,906983";"52,361907";
848;"Van Diemenstraat 20-200";"";"E";"";"Y-tech";12075;1742;14;"Kantoor";"Kantoor";"1 - Leegstand zonder transformatie";"X - Leegstand zonder transformatie";0;0;"";"POINT(4.888900 52.390176)";"4,888900";"52,390176";
112;"Zeeburgerpad 55";"1019AC";"M";"DX14";"Boven Brouwerij `t IJ";0;0;0;"Bedrijf";"Wonen";"2 - In onderzoek - voorbereiding";"E - Transformatiewijze nader te bepalen";0;60;"";"POINT(4.939910 52.366999)";"4,939910";"52,366999";
113;"Cruquiusweg 102";"1019AJ";"M";"DX14";"";4239;0;0;"Bedrijf";"Bedrijf";"2 - In onderzoek - voorbereiding";"E - Transformatiewijze nader te bepalen";0;0;"";"POINT(4.953393 52.367965)";"4,953393";"52,367965";
114;"Cruquiusweg 20";"";"M";"DX14";"";1000;0;0;"Bedrijf";"Broedplaats";"4 - Gerealiseerd";"A - Tijdelijke functie";0;0;"";"POINT(4.935109 52.368436)";"4,935109";"52,368436";
115;"Cruquiusweg 71";"1019AT";"M";"DX14";"";5624;0;0;"Bedrijf";"Onbekend";"9 - Fase nader te bepalen";"C - Verbouw andere functie";0;202;"";"POINT(4.952102 52.368875)";"4,952102";"52,368875";
849;"Burgemeester Roellstraat 70";"";"F";"";"";1306;1306;100;"Kantoor";"Kantoor";"1 - Leegstand zonder transformatie";"X - Leegstand zonder transformatie";0;0;"";"POINT(4.818438 52.376234)";"4,818438";"52,376234";
120;"Piet Heinkade 97";"1019GM";"M";"DX14";"";31900;0;0;"Kantoor";"Kantoor";"4 - Gerealiseerd";"D - Verbouw zelfde functie";0;0;"";"POINT(4.918234 52.377179)";"4,918234";"52,377179";
123;"Motorkade 1";"1021JR";"N";"DX18";"leeg kavel gesloopt";0;0;0;"Onbekend";"Hotel";"2 - In onderzoek - voorbereiding";"B - Sloop - Nieuwbouw";2017;0;"";"POINT(4.919741 52.384166)";"4,919741";"52,384166";
124;"Boorstraat 2";"1021JZ";"N";"DX18";"";2200;2200;100;"Kantoor";"Kantoor";"1 - Leegstand zonder transformatie";"X - Leegstand zonder transformatie";0;0;"";"POINT(4.922379 52.382417)";"4,922379";"52,382417";
125;"Aambeeldstraat 9";"1021KB";"N";"DX18";"";7920;0;0;"Bedrijf";"Onbekend";"9 - Fase nader te bepalen";"E - Transformatiewijze nader te bepalen";0;0;"";"POINT(4.927190 52.384494)";"4,927190";"52,384494";
126;"Beitelkade 15 / Hamerstraat 20";"1021KG";"N";"DX18";"";0;0;0;"Bedrijf - Maatschappelijk - Wonen";"Wonen";"4 - Gerealiseerd";"C - Verbouw andere functie";2015;13;"";"POINT(4.923028 52.384936)";"4,923028";"52,384936";
131;"Hilversumstraat 316-340";"1024KG";"N";"DX19";"Noordkaap";6300;0;0;"Kantoor";"Wonen";"2 - In onderzoek - voorbereiding";"C - Verbouw andere functie";2017;71;"";"POINT(4.9637380 52.3911890)";"4,9637380";"52,3911890";
134;"Kampina 7";"";"N";"DX19";"";426;0;0;"Wonen";"Wonen";"3 - In uitvoering";"C - Verbouw andere functie";2015;8;"";"POINT(4.940531 52.403059)";"4,940531";"52,403059";
136;"Amerbos 590";"1025ZZ";"N";"DX19";"Korthagenhuis";0;0;0;"Maatschappelijk";"Wonen";"2 - In onderzoek - voorbereiding";"C - Verbouw andere functie";2017;30;"";"POINT(4.939876 52.404843)";"4,939876";"52,404843";
137;"G.J. Scheurleerweg 12";"1027AB";"N";"DX19";"";35830;0;0;"Bedrijf";"Onbekend";"9 - Fase nader te bepalen";"E - Transformatiewijze nader te bepalen";0;0;"";"POINT(4.935086 52.409554)";"4,935086";"52,409554";
138;"Durgerdammergouw 2";"1028BT";"N";"DX19";"Elders Rust";105;0;0;"Bedrijf";"Wonen";"3 - In uitvoering";"C - Verbouw andere functie";2016;2;"";"POINT(4.995680 52.390570)";"4,995680";"52,390570";
140;"Hagedoornplein 2";"1031BV";"N";"DX18";"Sint Ritakerk";2600;2600;100;"Kantoor";"Kantoor";"1 - Leegstand zonder transformatie";"X - Leegstand zonder transformatie";0;0;"";"POINT(4.913947 52.38809)";"4,913947";"52,38809";
141;"Overhoeksplein 1";"";"N";"DX18";"";11600;0;0;"Kantoor";"Kantoor";"2 - In onderzoek - voorbereiding";"D - Verbouw zelfde functie";2016;0;"";"POINT(4.902272 52.383801)";"4,902272";"52,383801";
142;"Badhuiskade 3";"1031KV";"N";"DX18";"ClinkNOORD";0;0;0;"Bedrijf - Kantoor";"Hotel";"4 - Gerealiseerd";"C - Verbouw andere functie";2015;0;"";"POINT(4.903663 52.384184)";"4,903663";"52,384184";
847;"Van Diemenstraat 206-380";"";"E";"";"Y-point";7950;1582;20;"Kantoor";"Kantoor";"1 - Leegstand zonder transformatie";"X - Leegstand zonder transformatie";0;0;"";"POINT(4.888041 52.390314)";"4,888041";"52,390314";
146;"Strekkerweg 79";"1033DA";"N";"DX17";"";1400;0;0;"Kantoor";"Wonen";"3 - In uitvoering";"C - Verbouw andere functie";2017;15;"";"POINT(4.894288 52.404777)";"4,894288";"52,404777";
147;"Toetsenbordweg 26";"1033MZ";"N";"DX18";"";2300;0;0;"Kantoor";"Kantoor";"4 - Gerealiseerd";"D - Verbouw zelfde functie";0;0;"";"POINT(4.872366 52.413019)";"4,872366";"52,413019";
148;"tt. Vasumweg 58";"1033SC";"N";"DX18";"The curve";4800;3800;79;"Kantoor";"Hotel";"9 - Fase nader te bepalen";"E - Transformatiewijze nader te bepalen";0;0;"";"POINT(4.892149 52.405159)";"4,892149";"52,405159";
844;"Klaprozenweg 101-123";"";"N";"DX18";"";8300;3300;40;"Kantoor";"Kantoor";"1 - Leegstand zonder transformatie";"X - Leegstand zonder transformatie";0;0;"";"POINT(4.891550 52.406248)";"4,891550";"52,406248";
845;"Jan Evertsenstraat 717-781";"";"F";"";"Vliegbasis de Huygens";5040;1145;23;"Kantoor";"Kantoor";"1 - Leegstand zonder transformatie";"X - Leegstand zonder transformatie";0;0;"";"POINT(4.835819 52.369753)";"4,835819";"52,369753";
160;"Gyroscoopweg 144-146";"1042AZ";"B";"Dxxx";"";2800;500;33;"Bedrijf - Kantoor";"Bedrijf - Kantoor";"1 - Leegstand zonder transformatie";"X - Leegstand zonder transformatie";0;0;"";"POINT(4.843011 52.401348)";"4,843011";"52,401348";
161;"Rhôneweg 54";"1043AH";"F";"DX06";"";1000;0;0;"Kantoor";"Onbekend";"9 - Fase nader te bepalen";"E - Transformatiewijze nader te bepalen";0;0;"";"POINT(4.820494 52.390368)";"4,820494";"52,390368";
164;"Basisweg 61-61A";"1043AN";"F";"DX06";"";2200;270;12;"Bedrijf - Kantoor";"Bedrijf - Kantoor";"1 - Leegstand zonder transformatie";"X - Leegstand zonder transformatie";0;0;"";"POINT(4.825080 52.391288)";"4,825080";"52,391288";
167;"Naritaweg 1-45";"1043BP";"F";"DX06";"Orly Center";3700;900;25;"Kantoor";"Commercieel - Hotel";"4 - Gerealiseerd";"C - Verbouw andere functie";2015;0;"http://www.orlycentre.nl";"POINT(4.835363 52.387344)";"4,835363";"52,387344";
168;"Naritaweg 51";"1043BP";"F";"DX06";"ID hotel";12000;0;0;"Kantoor";"Hotel";"4 - Gerealiseerd";"C - Verbouw andere functie";2015;0;"";"POINT(4.834441 52.387513)";"4,834441";"52,387513";
170;"Naritaweg 139";"1043BS";"F";"DX06";"Call Center Court 3";2700;0;0;"Kantoor";"Wonen";"3 - In uitvoering";"C - Verbouw andere functie";2017;73;"";"POINT(4.833445 52.387296)";"4,833445";"52,387296";
171;"Naritaweg 151-161 / Barajasweg 60-70";"1043BW";"F";"DX06";"Call Center Court 2";3000;0;0;"Kantoor";"Wonen";"3 - In uitvoering";"C - Verbouw andere functie";2017;64;"";"POINT(4.833240 52.386852)";"4,833240";"52,386852";
174;"Naritaweg 12";"1043BZ";"F";"DX06";"Grafisch centrum";3100;600;20;"Kantoor";"Kantoor";"1 - Leegstand zonder transformatie";"X - Leegstand zonder transformatie";0;0;"";"POINT(4.831567 52.388290)";"4,831567";"52,388290";
176;"Naritaweg 126-132";"1043CA";"F";"DX06";"";2100;2100;100;"Kantoor";"Kantoor";"1 - Leegstand zonder transformatie";"X - Leegstand zonder transformatie";0;0;"";"POINT(4.822668 52.388015)";"4,822668";"52,388015";
177;"Naritaweg 223-233";"1043CB";"F";"DX06";"Call center 5b center court";3400;3400;100;"Kantoor";"Kantoor";"1 - Leegstand zonder transformatie";"X - Leegstand zonder transformatie";0;0;"";"POINT(4.8312060 52.3877310)";"4,8312060";"52,3877310";
178;"Heathrowstraat 3";"1043CE";"F";"DX06";"Hotel heathrow";2800;0;0;"Kantoor";"Hotel";"4 - Gerealiseerd";"C - Verbouw andere functie";2014;0;"";"POINT(4.833467 52.385513)";"4,833467";"52,385513";
179;"Heathrowstraat 5";"1043CE";"F";"DX06";"Hotel heathrow";2800;0;0;"Kantoor";"Hotel";"4 - Gerealiseerd";"C - Verbouw andere functie";2014;0;"";"POINT(4.832644 52.385509)";"4,832644";"52,385509";
180;"Barajasweg 60 / Naritaweg 151-161";"1043CP";"F";"DX06";"Call Center Court 1";3000;0;0;"Kantoor";"Wonen";"3 - In uitvoering";"C - Verbouw andere functie";2017;0;"";"POINT(4.8335250 52.3863770)";"4,8335250";"52,3863770";
181;"La Guardiaweg 3-5";"1043DE";"F";"DX06";"The Ven";36608;0;0;"Kantoor";"Hotel";"3 - In uitvoering";"C - Verbouw andere functie";2015;0;"";"POINT(4.842351 52.390109)";"4,842351";"52,390109";
183;"Orlyplein 2";"";"F";"DX06";"Spark";12600;12600;100;"Kantoor";"Kantoor";"1 - Leegstand zonder transformatie";"X - Leegstand zonder transformatie";0;0;"";"POINT(4.836755 52.390400)";"4,836755";"52,390400";
184;"Orlyplein 2-74";"1043DP";"F";"DX06";"Spark";14000;14200;100;"Kantoor";"Kantoor";"3 - In uitvoering";"D - Verbouw zelfde functie";0;0;"";"POINT(4.836750 52.390398)";"4,836750";"52,390398";
185;"Orlyplein 1";"1043DR";"F";"DX06";"";15200;0;0;"Kantoor";"Hotel";"4 - Gerealiseerd";"C - Verbouw andere functie";2017;0;"";"POINT(4.837453 52.390572)";"4,837453";"52,390572";
186;"Orlyplein 73";"1043DS";"F";"DX06";"Busitel I";15200;5000;30;"Kantoor";"Kantoor";"1 - Leegstand zonder transformatie";"X - Leegstand zonder transformatie";2016;0;"";"POINT(4.837479 52.390061)";"4,837479";"52,390061";
187;"Orlyplein 69-97";"1043DS";"F";"DX06";"Busitel 1";7300;0;0;"Kantoor";"Hotel";"3 - In uitvoering";"C - Verbouw andere functie";2016;0;"http://www.degroenegroep.nl";"POINT(4.837479 52.390124)";"4,837479";"52,390124";
188;"Orlyplein 141";"1043DV";"F";"DX06";"";600;0;0;"Kantoor";"Commercieel";"4 - Gerealiseerd";"C - Verbouw andere functie";2015;0;"";"POINT(4.837514 52.388435)";"4,837514";"52,388435";
191;"Arlandaweg 10";"1043EW";"F";"DX06";"Telegate";4800;0;0;"Kantoor";"Hotel";"4 - Gerealiseerd";"C - Verbouw andere functie";2015;0;"";"POINT(4.834444 52.385650)";"4,834444";"52,385650";
195;"Kingsfordweg 43-117";"1043GP";"F";"DX06";"Q-port";15400;3600;23;"Kantoor";"Commercieel";"2 - In onderzoek - voorbereiding";"C - Verbouw andere functie";2016;0;"http://www.deka-immobilien.de";"POINT(4.842824 52.386689)";"4,842824";"52,386689";
196;"Kingsfordweg 151";"1043GR";"F";"DX06";"Regus";13000;1600;12;"Kantoor";"Kantoor";"4 - Gerealiseerd";"D - Verbouw zelfde functie";0;0;"";"POINT(4.843038 52.385591)";"4,843038";"52,385591";
197;"Carrascoplein 11-19";"1043GW";"F";"DX06";"Telespy B";3000;0;0;"Kantoor";"Hotel";"4 - Gerealiseerd";"C - Verbouw andere functie";2016;0;"http://www.alterdomus.com/OfficesDesks/Europe/TheNetherlands";"POINT(4.839470 52.386653)";"4,839470";"52,386653";
198;"Arlandaweg 100-110";"1043HP";"F";"DX06";"GVB";8700;1900;22;"Kantoor";"Maatschappelijk";"3 - In uitvoering";"C - Verbouw andere functie";2016;0;"";"POINT(4.840773 52.385797)";"4,840773";"52,385797";
199;"Arlandaweg 94-98";"1043HP";"F";"DX06";"Solar eclips";4400;0;0;"Kantoor";"Onderwijs";"4 - Gerealiseerd";"C - Verbouw andere functie";2015;0;"http://www.nsi.nl";"POINT(4.839913 52.385696)";"4,839913";"52,385696";
201;"Radarweg 60";"1043NT";"F";"DX06";"Radarport";16977;3600;20;"Kantoor";"Kantoor";"1 - Leegstand zonder transformatie";"X - Leegstand zonder transformatie";0;0;"";"POINT(4.835410 52.391085)";"4,835410";"52,391085";
202;"Radarweg 29";"1043NX";"F";"DX06";"Millennium tower";43100;14400;33;"Kantoor";"Kantoor";"1 - Leegstand zonder transformatie";"X - Leegstand zonder transformatie";0;0;"";"POINT(4.836956 52.39316)";"4,836956";"52,39316";
204;"Corsicaweg 10";"1044AB";"B";"Dxxx";"Westhavengebouw";4900;500;10;"Kantoor";"Kantoor";"1 - Leegstand zonder transformatie";"X - Leegstand zonder transformatie";0;0;"";"POINT(4.811395 52.402143)";"4,811395";"52,402143";
211;"Donker Curtiusstraat 1";"";"E";"DX03";"ABC gebouw";6400;3340;52;"Bedrijf - Maatschappelijk";"Wonen";"2 - In onderzoek - voorbereiding";"C - Verbouw andere functie";2017;178;"";"POINT(4.871887 52.379195)";"4,871887";"52,379195";
218;"Zocherstraat 23 / Frederikstraat 32";"1054LR";"E";"DX05";"";2700;0;0;"Onderwijs";"Wonen";"3 - In uitvoering";"C - Verbouw andere functie";2016;12;"";"POINT(4.858004 52.357396)";"4,858004";"52,357396";
221;"Pieter Langendijkstraat 1";"1054XW";"E";"DX05";"";0;0;0;"Wonen";"Wonen";"4 - Gerealiseerd";"C - Verbouw andere functie";2015;5;"";"POINT(4.860554 52.361846)";"4,860554";"52,361846";
222;"Bos en Lommerplantsoen 1";"1055AA";"E";"DX04";"De studio";2200;1100;50;"Kantoor";"Wonen";"4 - Gerealiseerd";"C - Verbouw andere functie";2014;651;"";"POINT(4.844497 52.375992)";"4,844497";"52,375992";
728;"Prins Hendrikkade 182 - 187";"1011TD";"A";"DX02";"";0;0;0;"Kantoor";"Wonen";"2 - In onderzoek - voorbereiding";"C - Verbouw andere functie";2017;0;"";"POINT(4.911173 52.371205)";"4,911173";"52,371205";
226;"Haarlemmerweg 645";"1055PS";"E";"DX04";"ING kantoren";384;0;0;"Kantoor";"Wonen";"2 - In onderzoek - voorbereiding";"B - Sloop - Nieuwbouw";0;20;"";"POINT(4.848459 52.384710)";"4,848459";"52,384710";
227;"Willem de Zwijgerlaan 334";"1055RD";"E";"DX04";"Tetterode complex";23000;0;0;"Commercieel";"Commercieel";"2 - In onderzoek - voorbereiding";"D - Verbouw zelfde functie";0;0;"";"POINT(4.860872 52.380820)";"4,860872";"52,380820";
229;"Hoofdweg 495";"1055SC";"E";"DX04";"De Boeg";6344;0;0;"Maatschappelijk";"Wonen";"2 - In onderzoek - voorbereiding";"C - Verbouw andere functie";2017;67;"";"POINT(4.846634 52.376153)";"4,846634";"52,376153";
231;"Erik de Roodestraat 14";"1056AM";"E";"DX04";"Sint Jozefkerk";1755;0;0;"Religie";"Maatschappelijk";"4 - Gerealiseerd";"C - Verbouw andere functie";0;0;"";"POINT(4.845619 52.373058)";"4,845619";"52,373058";
632;"Admiraal de Ruijterweg 21";"";"E";"";"";0;0;0;"Kantoor";"Hotel - Wonen";"2 - In onderzoek - voorbereiding";"E - Transformatiewijze nader te bepalen";0;0;"";"POINT(4.863331 52.370456)";"4,863331";"52,370456";
232;"Orteliuskade 5";"1057AA";"E";"DX05";"Augistinusschool";4494;0;0;"Onderwijs";"Wonen";"3 - In uitvoering";"C - Verbouw andere functie";2015;31;"";"POINT(4.850648 52.365181)";"4,850648";"52,365181";
234;"Postjesweg 124";"1057EH";"E";"DX05";"Het Broederhuis";2477;0;0;"Religie";"Wonen";"4 - Gerealiseerd";"C - Verbouw andere functie";2015;32;"";"POINT(4.850917 52.364425)";"4,850917";"52,364425";
235;"Chasséstraat 64";"1057JJ";"E";"DX05";"Chassékerk";3453;0;0;"Religie";"Commercieel";"4 - Gerealiseerd";"C - Verbouw andere functie";2014;0;"";"POINT(4.861573 52.370029)";"4,861573";"52,370029";
236;"Van Spilbergenstraat 166";"1057RR";"E";"DX05";"";0;0;0;"Bedrijf - Wonen";"Wonen";"4 - Gerealiseerd";"C - Verbouw andere functie";2015;13;"";"POINT(4.850853 52.368885)";"4,850853";"52,368885";
237;"Filips van Almondestraat 15";"1057ZR";"E";"DX05";"";2900;0;0;"Bedrijf";"Wonen";"2 - In onderzoek - voorbereiding";"C - Verbouw andere functie";2017;53;"";"POINT(4.858177 52.369958)";"4,858177";"52,369958";
238;"Nachtwachtlaan 20";"";"F";"DX09";"Ringpark";22187;1390;6;"Kantoor";"Wonen";"2 - In onderzoek - voorbereiding";"B - Sloop - Nieuwbouw";0;500;"";"POINT(4.844226 52.359272)";"4,844226";"52,359272";
240;"Surinameplein 33-59";"";"K";"DX10";"";11200;0;0;"Broedplaats - Commercieel - Wonen";"Broedplaats - Wonen";"2 - In onderzoek - voorbereiding";"B - Sloop - Nieuwbouw";2020;150;"";"POINT(4.850650 52.357315)";"4,850650";"52,357315";
241;"Surinameplein 118";"";"E";"DX05";"";1155;1155;100;"Broedplaats";"Kantoor";"2 - In onderzoek - voorbereiding";"A - Tijdelijke functie";0;0;"";"POINT(4.849343 52.358603)";"4,849343";"52,358603";
629;"Kalverstraat 203";"";"A";"DX01";"V&D";0;0;0;"Commercieel";"Onbekend";"9 - Fase nader te bepalen";"E - Transformatiewijze nader te bepalen";0;0;"";"POINT(4.892929 52.367621)";"4,892929";"52,367621";
242;"Sloterkade 50";"";"K";"DX10";"";231;0;0;"Onbekend - Wonen";"Wonen";"3 - In uitvoering";"C - Verbouw andere functie";2015;2;"";"POINT(4.853422 52.355523)";"4,853422";"52,355523";
243;"Woestduinstraat 24";"1058TE";"K";"DX10";"";0;0;0;"Onbekend";"Wonen - Onderwijs";"4 - Gerealiseerd";"B - Sloop - Nieuwbouw";2015;21;"";"POINT(4.847644 52.353861)";"4,847644";"52,353861";
244;"Valschermkade 19";"1059CD";"K";"DX10";"Hotel Jansen";4970;0;0;"Bedrijf";"Hotel";"4 - Gerealiseerd";"A - Tijdelijke functie";2015;0;"";"POINT(4.845953 52.34208)";"4,845953";"52,34208";
245;"Helicopterstraat 23";"1059CE";"K";"DX10";"";1624;0;0;"Kantoor";"Onbekend";"9 - Fase nader te bepalen";"E - Transformatiewijze nader te bepalen";0;0;"";"POINT(4.844870 52.340628)";"4,844870";"52,340628";
246;"Anthony Fokkerweg 15";"1059CM";"K";"DX10";"";0;0;0;"Bedrijf";"Commercieel";"2 - In onderzoek - voorbereiding";"C - Verbouw andere functie";0;0;"";"POINT(4.842127 52.343741)";"4,842127";"52,343741";
247;"Anthony Fokkerweg 61";"1059CP";"K";"DX10";"Media Trade";8447;0;0;"Kantoor";"Kantoor";"1 - Leegstand zonder transformatie";"X - Leegstand zonder transformatie";0;0;"";"POINT(4.842845 52.340636)";"4,842845";"52,340636";
248;"Rijswijkstraat 2";"1059GK";"F";"DX09";"";1175;1175;100;"Kantoor";"Wonen";"2 - In onderzoek - voorbereiding";"E - Transformatiewijze nader te bepalen";2017;44;"";"POINT(4.842957 52.350216)";"4,842957";"52,350216";
249;"Vlaardingenlaan 1";"1059GL";"F";"DX09";"";2070;0;0;"Kantoor";"Onderwijs";"3 - In uitvoering";"A - Tijdelijke functie";2015;0;"";"POINT(4.845018 52.346488)";"4,845018";"52,346488";
250;"Poeldijkstraat 16";"";"F";"DX09";"";0;0;0;"Maatschappelijk";"Wonen";"3 - In uitvoering";"B - Sloop - Nieuwbouw";2017;414;"";"POINT(4.843667 52.349390)";"4,843667";"52,349390";
252;"Jan Tooropstraat 485";"1061AE";"F";"DX09";"";100;0;0;"Commercieel";"Commercieel";"9 - Fase nader te bepalen";"E - Transformatiewijze nader te bepalen";0;0;"";"POINT(4.836599 52.368649)";"4,836599";"52,368649";
253;"Jan Tooropstraat 487";"1061AE";"F";"DX09";"Jatopa";100;100;100;"Kantoor";"Kantoor";"1 - Leegstand zonder transformatie";"X - Leegstand zonder transformatie";0;0;"";"POINT(4.836628 52.368694)";"4,836628";"52,368694";
254;"Jan Tooropstraat 541";"1061AE";"F";"DX09";"Jatopa";100;100;100;"Kantoor";"Kantoor";"1 - Leegstand zonder transformatie";"X - Leegstand zonder transformatie";0;0;"";"POINT(4.836538 52.368837)";"4,836538";"52,368837";
255;"Jan Tooropstraat 577";"1061AE";"F";"DX09";"Jatopa";100;100;100;"Kantoor";"Kantoor";"1 - Leegstand zonder transformatie";"X - Leegstand zonder transformatie";0;0;"";"POINT(4.836609 52.369053)";"4,836609";"52,369053";
256;"Jan Tooropstraat 649";"1061AE";"F";"DX09";"Poort van Toorop";4234;0;0;"Datacenter - Kantoor";"Wonen";"3 - In uitvoering";"B - Sloop - Nieuwbouw";2017;176;"";"POINT(4.837841 52.372320)";"4,837841";"52,372320";
257;"Van de Sande Bakhuijzenstraat 2";"1061AG";"F";"DX09";"";5333;0;0;"Kantoor";"Wonen";"3 - In uitvoering";"B - Sloop - Nieuwbouw";2016;106;"";"POINT(4.837299 52.371830)";"4,837299";"52,371830";
258;"Karel Klinkenbergstraat 30-32";"1061AN";"F";"DX09";"";100;100;100;"Kantoor";"Kantoor";"1 - Leegstand zonder transformatie";"X - Leegstand zonder transformatie";0;0;"";"POINT(4.836028 52.367361)";"4,836028";"52,367361";
727;"Hamerstraat 13 - 15";"1021JT";"N";"DX18";"";0;0;0;"Bedrijf";"Wonen";"3 - In uitvoering";"B - Sloop - Nieuwbouw";2016;120;"";"POINT(4.921988 52.384768)";"4,921988";"52,384768";
261;"Bos en Lommerweg 400";"1061DJ";"E";"DX04";"New kit";2100;1400;67;"Kantoor";"Hotel";"2 - In onderzoek - voorbereiding";"C - Verbouw andere functie";0;0;"";"POINT(4.838789 52.379183)";"4,838789";"52,379183";
264;"Jan Evertsenstraat 713-715";"1061XZ";"F";"DX09";"Jatopa";200;200;100;"Kantoor";"Kantoor";"1 - Leegstand zonder transformatie";"X - Leegstand zonder transformatie";0;0;"";"POINT(4.836367 52.369574)";"4,836367";"52,369574";
265;"Marius Bauerstraat 399";"1062AP";"F";"DX09";"";1500;0;0;"Kantoor";"Commercieel";"4 - Gerealiseerd";"A - Tijdelijke functie";2015;0;"";"POINT(4.835955 52.362588)";"4,835955";"52,362588";
266;"Marius Bauerstraat 30";"1062AR";"F";"DX09";"";3900;2968;76;"Kantoor";"Kantoor - Wonen";"2 - In onderzoek - voorbereiding";"B - Sloop - Nieuwbouw";2018;45;"";"POINT(4.838001 52.362946)";"4,838001";"52,362946";
628;"Emmalaan 7";"";"K";"DX10";"NIFP";351;0;0;"Kantoor";"Onbekend";"9 - Fase nader te bepalen";"E - Transformatiewijze nader te bepalen";0;0;"";"POINT(4.862609 52.355015)";"4,862609";"52,355015";
268;"Delflandlaan 1";"1062EA";"F";"DX09";"Wilhelmina";11500;400;3;"Kantoor";"Kantoor";"1 - Leegstand zonder transformatie";"X - Leegstand zonder transformatie";0;0;"";"POINT(4.840979 52.357498)";"4,840979";"52,357498";
269;"Delflandlaan 4";"";"F";"DX09";"Koningshof";9384;2046;0;"Kantoor";"Hotel - Kantoor";"1 - Leegstand zonder transformatie";"X - Leegstand zonder transformatie";0;0;"http://www.pramericarei.com";"POINT(4.840364 52.357034)";"4,840364";"52,357034";
270;"Rijswijkstraat 141-161 / Delflandplein 24A";"1062ES";"F";"DX09";"";2100;0;0;"Kantoor";"Wonen";"3 - In uitvoering";"C - Verbouw andere functie";2016;20;"";"POINT(4.841053 52.349946)";"4,841053";"52,349946";
271;"Maassluisstraat 2";"1062GD";"F";"DX09";"";6200;0;0;"Kantoor";"Onbekend";"9 - Fase nader te bepalen";"E - Transformatiewijze nader te bepalen";0;0;"";"POINT(4.836213 52.351220)";"4,836213";"52,351220";
272;"Maassluisstraat 98-100";"1062GE";"F";"DX09";"";1280;1280;100;"Kantoor";"Kantoor";"1 - Leegstand zonder transformatie";"X - Leegstand zonder transformatie";0;0;"";"POINT(4.835268 52.350479)";"4,835268";"52,350479";
273;"Maassluisstraat 256-258";"1062GL";"F";"DX09";"";1280;1280;100;"Kantoor";"Kantoor";"1 - Leegstand zonder transformatie";"X - Leegstand zonder transformatie";0;0;"";"POINT(4.835279 52.349607)";"4,835279";"52,349607";
274;"Maassluisstraat 414-416";"1062GS";"F";"DX09";"";1280;1120;88;"Kantoor";"Kantoor";"1 - Leegstand zonder transformatie";"X - Leegstand zonder transformatie";0;0;"";"POINT(4.835261 52.348726)";"4,835261";"52,348726";
275;"Koningin Wilhelminaplein 29";"";"F";"DX09";"Toren 3";10836;10836;100;"Bedrijf - Commercieel - Kantoor";"Wonen";"2 - In onderzoek - voorbereiding";"C - Verbouw andere functie";2017;294;"";"POINT(4.841100 52.353245)";"4,841100";"52,353245";
276;"Koningin Wilhelminaplein 18";"1062HK";"F";"DX09";"";5480;0;0;"Kantoor";"Wonen";"4 - Gerealiseerd";"C - Verbouw andere functie";2016;129;"";"POINT(4.836337 52.355827)";"4,836337";"52,355827";
277;"Koningin Wilhelminaplein 2-4";"1062HK";"F";"DX09";"Berghaus plaza";15600;800;5;"Kantoor";"Kantoor";"2 - In onderzoek - voorbereiding";"E - Transformatiewijze nader te bepalen";0;0;"";"POINT(4.839670 52.355361)";"4,839670";"52,355361";
278;"Vlaardingenlaan 15";"1062HM";"F";"DX09";"Lumen";4560;3420;75;"Kantoor";"Onderwijs";"1 - Leegstand zonder transformatie";"C - Verbouw andere functie";2016;0;"";"POINT(4.837248 52.346657)";"4,837248";"52,346657";
280;"Delflandplein 9A";"1062HP";"F";"DX09";"";900;0;0;"Kantoor";"Onbekend";"9 - Fase nader te bepalen";"E - Transformatiewijze nader te bepalen";0;0;"";"POINT(4.840645 52.348904)";"4,840645";"52,348904";
281;"Postjesweg 175";"1062JN";"F";"DX09";"";4832;622;13;"Kantoor";"Kantoor";"1 - Leegstand zonder transformatie";"X - Leegstand zonder transformatie";0;0;"";"POINT(4.840961 52.363798)";"4,840961";"52,363798";
282;"Koningin Wilhelminaplein 376";"1062KS";"F";"DX09";"Oranjekwartier";200;200;100;"Kantoor";"Kantoor";"1 - Leegstand zonder transformatie";"X - Leegstand zonder transformatie";0;0;"";"POINT(4.840316 52.354124)";"4,840316";"52,354124";
283;"Koningin Wilhelminaplein 480";"1062KS";"F";"DX09";"Oranjekwartier";200;200;100;"Kantoor";"Kantoor";"1 - Leegstand zonder transformatie";"X - Leegstand zonder transformatie";0;0;"";"POINT(4.840343 52.354367)";"4,840343";"52,354367";
284;"Overschiestraat 59";"1062XD";"F";"DX09";"De Coener";2900;1770;61;"Kantoor";"Kantoor";"1 - Leegstand zonder transformatie";"X - Leegstand zonder transformatie";0;0;"";"POINT(4.839866 52.346608)";"4,839866";"52,346608";
285;"Overschiestraat 59A";"1062XD";"F";"DX09";"De Coener";2800;800;28;"Kantoor";"Kantoor";"1 - Leegstand zonder transformatie";"X - Leegstand zonder transformatie";0;0;"";"POINT(4.839849 52.346761)";"4,839849";"52,346761";
286;"Overschiestraat 61";"1062XD";"F";"DX09";"West end";4078;738;18;"Kantoor";"Kantoor";"1 - Leegstand zonder transformatie";"X - Leegstand zonder transformatie";0;0;"";"POINT(4.839797 52.345062)";"4,839797";"52,345062";
287;"Overschiestraat 63";"1062XD";"F";"DX09";"Kwadraat a";4316;1080;25;"Kantoor";"Kantoor";"1 - Leegstand zonder transformatie";"X - Leegstand zonder transformatie";0;0;"";"POINT(4.839804 52.344478)";"4,839804";"52,344478";
288;"Overschiestraat 65";"1062XD";"F";"DX09";"";4300;0;0;"Kantoor";"Kantoor";"4 - Gerealiseerd";"D - Verbouw zelfde functie";0;0;"";"POINT(4.839811 52.343876)";"4,839811";"52,343876";
289;"Overschiestraat 182";"1062XK";"F";"DX09";"";3300;1700;51;"Kantoor";"Kantoor";"1 - Leegstand zonder transformatie";"X - Leegstand zonder transformatie";0;0;"";"POINT(4.836678 52.344517)";"4,836678";"52,344517";
290;"Overschiestraat 184";"1062XK";"F";"DX09";"Autumn";3300;600;18;"Kantoor";"Kantoor";"1 - Leegstand zonder transformatie";"X - Leegstand zonder transformatie";0;0;"";"POINT(4.836672 52.344994)";"4,836672";"52,344994";
291;"Overschiestraat 186";"1062XK";"F";"DX09";"Spring";3300;300;9;"Kantoor";"Kantoor";"1 - Leegstand zonder transformatie";"X - Leegstand zonder transformatie";0;0;"";"POINT(4.835777 52.344972)";"4,835777";"52,344972";
292;"Overschiestraat 188";"1062XK";"F";"DX09";"";4603;0;0;"Kantoor";"Onderwijs";"4 - Gerealiseerd";"A - Tijdelijke functie";2015;0;"";"POINT(4.836206 52.344731)";"4,836206";"52,344731";
293;"Overschiestraat 194";"1062XK";"F";"DX09";"";1000;1000;100;"Kantoor";"Kantoor";"1 - Leegstand zonder transformatie";"X - Leegstand zonder transformatie";0;0;"";"POINT(4.838392 52.343519)";"4,838392";"52,343519";
294;"Harry Koningsbergerstraat 4";"1063AD";"F";"DX06";"";650;0;0;"Maatschappelijk";"Wonen";"4 - Gerealiseerd";"C - Verbouw andere functie";2015;8;"";"POINT(4.836164 52.380052)";"4,836164";"52,380052";
295;"Fritz Conijnstraat 47";"1063CB";"F";"DX06";"";100;0;0;"Kantoor";"Onbekend";"9 - Fase nader te bepalen";"E - Transformatiewijze nader te bepalen";0;0;"";"POINT(4.835413 52.383725)";"4,835413";"52,383725";
296;"Slotermeerlaan 107-109";"1063JN";"F";"DX06";"";300;300;100;"Kantoor";"Kantoor";"1 - Leegstand zonder transformatie";"X - Leegstand zonder transformatie";0;0;"";"POINT(4.820464 52.380059)";"4,820464";"52,380059";
297;"Plein `40-`45 5-10";"1063KP";"F";"DX06";"";5570;1238;22;"Kantoor";"Kantoor";"1 - Leegstand zonder transformatie";"X - Leegstand zonder transformatie";0;0;"http://www.pfc2.nl";"POINT(4.821995 52.379788)";"4,821995";"52,379788";
298;"Antony Moddermanstraat 2";"1063LP";"F";"DX06";"";100;0;0;"Kantoor";"Kantoor";"4 - Gerealiseerd";"D - Verbouw zelfde functie";2015;0;"";"POINT(4.817321 52.383513)";"4,817321";"52,383513";
299;"Johannes Poststraat 15-17";"1063TK";"F";"DX06";"";100;100;100;"Kantoor";"Kantoor";"1 - Leegstand zonder transformatie";"X - Leegstand zonder transformatie";0;0;"";"POINT(4.835725 52.379906)";"4,835725";"52,379906";
300;"De Tourton Bruynsstraat 11";"1063XL";"F";"DX06";"";100;100;100;"Kantoor";"Kantoor";"1 - Leegstand zonder transformatie";"X - Leegstand zonder transformatie";0;0;"";"POINT(4.83003 52.380805)";"4,83003";"52,380805";
301;"Louis Couperusstraat 133";"1064CE";"F";"DX06";"";236;0;0;"Religie";"Wonen";"2 - In onderzoek - voorbereiding";"B - Sloop - Nieuwbouw";0;0;"";"POINT(4.824186 52.376041)";"4,824186";"52,376041";
302;"Burgemeester Hogguerstraat 1183-1187";"1064EK";"F";"DX06";"";1375;1375;100;"Kantoor";"Kantoor";"1 - Leegstand zonder transformatie";"X - Leegstand zonder transformatie";0;0;"";"POINT(4.828038 52.373363)";"4,828038";"52,373363";
303;"Marcellus Emantsstraat 20 / Louis Couperusstraat";"1064EW";"F";"DX06";"";100;0;0;"Kantoor";"Kantoor";"4 - Gerealiseerd";"D - Verbouw zelfde functie";0;0;"";"POINT(4.826336 52.375629)";"4,826336";"52,375629";
304;"Slotermeerlaan 1";"";"F";"DX06";"A.H. Gerhardhuis";11000;0;0;"Maatschappelijk";"Wonen";"4 - Gerealiseerd";"A - Tijdelijke functie";2014;222;"";"POINT(4.818081 52.374583)";"4,818081";"52,374583";
306;"Lodewijk van Deysselstraat 77-85";"1064HM";"F";"DX06";"";400;300;75;"Kantoor";"Kantoor";"1 - Leegstand zonder transformatie";"X - Leegstand zonder transformatie";0;0;"";"POINT(4.812023 52.377493)";"4,812023";"52,377493";
307;"Lodewijk van Deysselstraat 16";"1064HN";"F";"DX06";"";1100;0;0;"Kantoor";"Kantoor";"1 - Leegstand zonder transformatie";"X - Leegstand zonder transformatie";0;0;"";"POINT(4.817839 52.377422)";"4,817839";"52,377422";
311;"Comeniusstraat 217";"1065BM";"F";"DX09";"";100;100;100;"Kantoor";"Kantoor";"1 - Leegstand zonder transformatie";"X - Leegstand zonder transformatie";0;0;"";"POINT(4.830786 52.359131)";"4,830786";"52,359131";
312;"Comeniusstraat 249";"1065BP";"F";"DX09";"";100;100;100;"Kantoor";"Kantoor";"1 - Leegstand zonder transformatie";"X - Leegstand zonder transformatie";0;0;"";"POINT(4.830258 52.359119)";"4,830258";"52,359119";
314;"Van Ollefenstraat 9";"1065GJ";"F";"DX09";"";1200;0;0;"Religie";"Wonen";"4 - Gerealiseerd";"B - Sloop - Nieuwbouw";2015;12;"";"POINT(4.825336 52.354782)";"4,825336";"52,354782";
315;"Johan Huizingalaan 124-128";"1065JE";"F";"DX09";"";1100;200;18;"Kantoor";"Kantoor";"1 - Leegstand zonder transformatie";"X - Leegstand zonder transformatie";0;0;"";"POINT(4.826561 52.360073)";"4,826561";"52,360073";
317;"Tourniairestraat 1";"1065KK";"F";"DX09";"";3000;0;0;"Kantoor";"Wonen";"3 - In uitvoering";"C - Verbouw andere functie";2015;140;"";"POINT(4.824901 52.355535)";"4,824901";"52,355535";
318;"Reinier Engelmanstraat 2";"1065TT";"F";"DX09";"Lewenstein";3720;1395;38;"Kantoor";"Kantoor";"1 - Leegstand zonder transformatie";"X - Leegstand zonder transformatie";0;0;"";"POINT(4.830651 52.355904)";"4,830651";"52,355904";
319;"Ottho Heldringstraat 7U";"1066AZ";"F";"DX09";"Jamboni at work";100;100;100;"Kantoor";"Wonen";"9 - Fase nader te bepalen";"E - Transformatiewijze nader te bepalen";0;0;"";"POINT(4.832606 52.349783)";"4,832606";"52,349783";
320;"Sloterweg 700";"1066CN";"F";"DX08";"";0;0;0;"Onderwijs";"Wonen";"3 - In uitvoering";"B - Sloop - Nieuwbouw";2015;39;"";"POINT(4.821951 52.342794)";"4,821951";"52,342794";
842;"Bos en Lommerplein 270-280";"";"E";"";"Bruggegebouw Noord";8263;3720;45;"Kantoor";"Kantoor";"1 - Leegstand zonder transformatie";"X - Leegstand zonder transformatie";0;0;"";"POINT(4.844166 52.378349)";"4,844166";"52,378349";
322;"John M. Keynesplein 12-46";"";"F";"DX08";"Tiara";10500;10500;100;"Kantoor";"Kantoor";"4 - Gerealiseerd";"D - Verbouw zelfde functie";0;0;"http://www.deka-immobilien.de";"POINT(4.823640 52.341138)";"4,823640";"52,341138";
324;"Anderlechtlaan 175";"1066HM";"F";"DX08";"";3000;0;0;"Kantoor";"Onderwijs";"9 - Fase nader te bepalen";"C - Verbouw andere functie";0;0;"";"POINT(4.812022 52.343502)";"4,812022";"52,343502";
325;"Anderlechtlaan 179";"1066HM";"F";"DX08";"Fabiola";3000;2100;70;"Kantoor";"Kantoor";"1 - Leegstand zonder transformatie";"X - Leegstand zonder transformatie";0;0;"";"POINT(4.812057 52.343106)";"4,812057";"52,343106";
326;"Thomas R. Malthusstraat 1-3";"";"F";"DX08";"Adam Smithbuilding";22914;12397;54;"Kantoor";"Kantoor";"1 - Leegstand zonder transformatie";"D - Verbouw zelfde functie";0;0;"http://www.deka-immobilien.de";"POINT(4.823959 52.339951)";"4,823959";"52,339951";
723;"David Ricardostraat 2-4";"";"F";"";"Dynatos";0;0;0;"Kantoor";"Wonen";"2 - In onderzoek - voorbereiding";"C - Verbouw andere functie";2018;290;"";"POINT(4.826893 52.342104)";"4,826893";"52,342104";
327;"David Ricardostraat 1";"1066JS";"F";"DX08";"Atradius";14271;1300;9;"Kantoor";"Kantoor";"1 - Leegstand zonder transformatie";"X - Leegstand zonder transformatie";0;0;"";"POINT(4.827029 52.341190)";"4,827029";"52,341190";
328;"Johan Huizingalaan 400";"";"F";"DX08";"Flightdeck";18394;12871;47;"Kantoor";"Kantoor";"1 - Leegstand zonder transformatie";"X - Leegstand zonder transformatie";0;0;"";"POINT(4.826430 52.340227)";"4,826430";"52,340227";
329;"Laan van Vlaanderen 141";"1066MP";"F";"DX08";"Citystudio";2100;0;0;"Kantoor";"Wonen";"3 - In uitvoering";"C - Verbouw andere functie";2015;36;"";"POINT(4.81644 52.346848)";"4,81644";"52,346848";
330;"Hageland 132-134";"1066SB";"F";"DX08";"Hageland";1100;600;0;"Kantoor";"Wonen";"3 - In uitvoering";"C - Verbouw andere functie";2016;17;"";"POINT(4.812171 52.345235)";"4,812171";"52,345235";
332;"Johan Huizingalaan 761";"";"F";"DX08";"";16475;0;0;"Onbekend";"Commercieel";"4 - Gerealiseerd";"C - Verbouw andere functie";2014;0;"";"POINT(4.829504 52.343154)";"4,829504";"52,343154";
681;"Derde Hugo de Grootstraat 5";"";"E";"DX03";"";750;0;0;"Commercieel";"Maatschappelijk - Wonen";"2 - In onderzoek - voorbereiding";"C - Verbouw andere functie";0;6;"";"POINT(4.872979 52.373440)";"4,872979";"52,373440";
334;"Willebroekstraat 62";"1066WE";"F";"DX08";"";200;200;100;"Kantoor";"Kantoor";"1 - Leegstand zonder transformatie";"X - Leegstand zonder transformatie";0;0;"";"POINT(4.805392 52.344404)";"4,805392";"52,344404";
335;"Ottho Heldringstraat 31D";"1066XT";"F";"DX09";"Jamboni at work";100;100;100;"Kantoor";"Kantoor";"1 - Leegstand zonder transformatie";"X - Leegstand zonder transformatie";0;0;"";"POINT(4.832649 52.348687)";"4,832649";"52,348687";
337;"Ottho Heldringstraat 41";"1066XT";"F";"DX09";"";3900;0;0;"Kantoor";"Wonen";"3 - In uitvoering";"C - Verbouw andere functie";2016;65;"";"POINT(4.833153 52.347837)";"4,833153";"52,347837";
338;"Dolhaantjestraat 20";"1067AB";"F";"DX06";"Geuzenveld";2800;0;0;"Maatschappelijk";"Wonen";"3 - In uitvoering";"C - Verbouw andere functie";2016;66;"";"POINT(4.807442 52.383760)";"4,807442";"52,383760";
339;"Ruys de Beerenbrouckstraat 23";"1067BL";"F";"DX06";"De Den";2152;0;0;"Maatschappelijk";"Wonen";"2 - In onderzoek - voorbereiding";"C - Verbouw andere functie";2017;25;"";"POINT(4.804177 52.382245)";"4,804177";"52,382245";
340;"Aalbersestraat 244";"";"F";"DX06";"";481;0;0;"Maatschappelijk";"Onbekend";"9 - Fase nader te bepalen";"E - Transformatiewijze nader te bepalen";0;0;"";"POINT(4.798280 52.379466)";"4,798280";"52,379466";
341;"Nicolaas Ruychaverstraat 18";"1067NH";"F";"DX06";"";100;100;100;"Kantoor";"Kantoor";"1 - Leegstand zonder transformatie";"X - Leegstand zonder transformatie";0;0;"";"POINT(4.804983 52.376793)";"4,804983";"52,376793";
348;"Osdorpplein 256";"1068ER";"F";"DX07";"";1480;1480;100;"Kantoor";"Kantoor";"1 - Leegstand zonder transformatie";"X - Leegstand zonder transformatie";0;0;"";"POINT(4.804971 52.359744)";"4,804971";"52,359744";
349;"Osdorpplein 357";"1068EV";"F";"DX07";"";300;300;100;"Kantoor";"Kantoor";"1 - Leegstand zonder transformatie";"X - Leegstand zonder transformatie";0;0;"";"POINT(4.803841 52.359711)";"4,803841";"52,359711";
350;"Osdorpplein 406";"1068EV";"F";"DX07";"";100;100;100;"Kantoor";"Kantoor";"1 - Leegstand zonder transformatie";"X - Leegstand zonder transformatie";0;0;"";"POINT(4.802845 52.359527)";"4,802845";"52,359527";
351;"Osdorper Ban 1-33";"1068LD";"F";"DX07";"T-point";3700;1100;29;"Kantoor";"Kantoor";"1 - Leegstand zonder transformatie";"X - Leegstand zonder transformatie";0;0;"";"POINT(4.804068 52.36257)";"4,804068";"52,36257";
352;"Osdorpplein 113-119";"1068SP";"F";"DX07";"";100;100;100;"Kantoor";"Kantoor";"1 - Leegstand zonder transformatie";"X - Leegstand zonder transformatie";0;0;"";"POINT(4.806855 52.359403)";"4,806855";"52,359403";
356;"Jan Rebelstraat 20";"";"F";"DX07";"";0;0;0;"Kantoor";"Wonen";"3 - In uitvoering";"C - Verbouw andere functie";2015;36;"";"POINT(4.785860 52.361743)";"4,785860";"52,361743";
358;"Keurenplein 11";"1069CD";"F";"DX07";"";2800;0;0;"Kantoor";"Kantoor";"4 - Gerealiseerd";"D - Verbouw zelfde functie";0;0;"";"POINT(4.784260 52.360647)";"4,784260";"52,360647";
359;"Baden Powellweg 281";"1069LH";"F";"DX07";"";600;0;0;"Kantoor";"Kantoor";"4 - Gerealiseerd";"D - Verbouw zelfde functie";0;0;"";"POINT(4.795050 52.348577)";"4,795050";"52,348577";
360;"Baden Powellweg 305";"1069LH";"F";"DX07";"Aeckerstyn";1900;800;42;"Kantoor";"Kantoor";"1 - Leegstand zonder transformatie";"X - Leegstand zonder transformatie";0;0;"";"POINT(4.795339 52.348902)";"4,795339";"52,348902";
361;"Noorderakerweg 90";"1069LW";"F";"DX08";"";700;0;0;"Kantoor";"Kantoor";"4 - Gerealiseerd";"D - Verbouw zelfde functie";0;0;"";"POINT(4.778109 52.351044)";"4,778109";"52,351044";
363;"Van Baerlestraat 70";"1071BA";"K";"DX10";"";420;0;0;"Commercieel - Wonen";"Wonen";"3 - In uitvoering";"C - Verbouw andere functie";2016;2;"";"POINT(4.878759 52.357475)";"4,878759";"52,357475";
364;"Van Baerlestraat 76";"1071BB";"K";"DX10";"";182;0;0;"Commercieel - Wonen";"Wonen";"3 - In uitvoering";"C - Verbouw andere functie";2015;3;"";"POINT(4.878884 52.357271)";"4,878884";"52,357271";
365;"Pieter Cornelisz. Hooftstraat 91";"1071BR";"K";"DX10";"";720;0;0;"Commercieel - Wonen";"Wonen";"2 - In onderzoek - voorbereiding";"C - Verbouw andere functie";2017;3;"";"POINT(4.879964 52.359943)";"4,879964";"52,359943";
366;"Paulus Potterstraat 22-24";"";"K";"DX10";"";1100;0;0;"Kantoor";"Wonen";"3 - In uitvoering";"C - Verbouw andere functie";2016;3;"";"POINT(4.880886 52.358949)";"4,880886";"52,358949";
716;"Koningslaan 32";"1075AD";"K";"DX10";"";1731;0;0;"Kantoor";"Wonen";"3 - In uitvoering";"C - Verbouw andere functie";2016;4;"";"POINT(4.863827 52.355468)";"4,863827";"52,355468";
367;"Honthorststraat 20";"";"K";"DX10";"Villa Alsberg";1200;1200;100;"Kantoor";"Kantoor";"1 - Leegstand zonder transformatie";"X - Leegstand zonder transformatie";0;0;"";"POINT(4.881979 52.358722)";"4,881979";"52,358722";
368;"Johannes Vermeerstraat 31";"1071DL";"K";"DX10";"";914;0;0;"Maatschappelijk";"Wonen";"3 - In uitvoering";"C - Verbouw andere functie";2016;16;"";"POINT(4.884222 52.356876)";"4,884222";"52,356876";
370;"Gabriël Metsustraat 2 / Van Baerlestraat 39-43";"1071EA";"K";"DX10";"";0;0;0;"Bedrijf";"Commercieel";"1 - Leegstand zonder transformatie";"E - Transformatiewijze nader te bepalen";0;0;"";"POINT(4.880699 52.356027)";"4,880699";"52,356027";
371;"Gabriël Metsustraat 8";"1071EA";"K";"DX10";"";0;0;0;"Bedrijf";"Commercieel - Kantoor";"2 - In onderzoek - voorbereiding";"C - Verbouw andere functie";2017;0;"";"POINT(4.881214 52.355922)";"4,881214";"52,355922";
372;"Gabriël Metsustraat 16";"1071EB";"K";"DX10";"";0;0;0;"Onbekend";"Commercieel";"2 - In onderzoek - voorbereiding";"C - Verbouw andere functie";2017;0;"";"POINT(4.881817 52.355807)";"4,881817";"52,355807";
373;"Van Eeghenstraat 70";"";"K";"DX10";"Nationale Postcodeloterij";2300;0;0;"Kantoor";"Kantoor";"1 - Leegstand zonder transformatie";"X - Leegstand zonder transformatie";0;0;"";"POINT(4.872993 52.357641)";"4,872993";"52,357641";
374;"Emmastraat 7";"";"K";"DX10";"";625;0;0;"Kantoor";"Wonen";"2 - In onderzoek - voorbereiding";"C - Verbouw andere functie";0;0;"";"POINT(4.868547 52.355024)";"4,868547";"52,355024";
376;"Frans van Mierisstraat 90-94";"1071RZ";"K";"DX10";"De Gruijterlocatie";5300;5300;100;"Kantoor";"Wonen";"2 - In onderzoek - voorbereiding";"C - Verbouw andere functie";2017;6;"";"POINT(4.878517 52.353805)";"4,878517";"52,353805";
377;"Bartholomeus Ruloffsstraat 5 / Bronckhorststraat 24";"1071WJ";"K";"DX10";"Oude Renaultgarage";2500;0;0;"Bedrijf";"Wonen";"2 - In onderzoek - voorbereiding";"B - Sloop - Nieuwbouw";2017;18;"";"POINT(4.879114 52.352571)";"4,879114";"52,352571";
378;"Ruysdaelstraat 77";"1071XB";"K";"DX10";"";0;0;0;"Onbekend";"Wonen";"3 - In uitvoering";"B - Sloop - Nieuwbouw";2015;12;"";"POINT(4.879928 52.353249)";"4,879928";"52,353249";
379;"Ruysdaelstraat 58-60";"";"K";"DX10";"";1100;1100;100;"Kantoor";"Kantoor";"1 - Leegstand zonder transformatie";"X - Leegstand zonder transformatie";0;0;"";"POINT(4.882870 52.353998)";"4,882870";"52,353998";
380;"Hobbemakade 31 / Pieter de Hoochstraat 11";"1071XK";"K";"DX10";"KPN gebouw";5829;0;0;"Kantoor";"Maatschappelijk - Wonen";"2 - In onderzoek - voorbereiding";"C - Verbouw andere functie";2017;28;"";"POINT(4.886035 52.356634)";"4,886035";"52,356634";
382;"Cornelis Troostplein 23 / Ferdinand Bolstraat 188A";"1072JJ";"K";"DX12";"Voormalig UWV gebouw";0;0;0;"Kantoor";"Onbekend";"2 - In onderzoek - voorbereiding";"X - Leegstand zonder transformatie";0;0;"";"POINT(4.891290 52.350484)";"4,891290";"52,350484";
625;"Fred Roeskestraat 115-123";"";"K";"DX11";"1992";4100;0;0;"Kantoor";"Onbekend";"9 - Fase nader te bepalen";"E - Transformatiewijze nader te bepalen";0;0;"";"POINT(4.858907 52.340767)";"4,858907";"52,340767";
386;"Stadhouderskade 84";"";"K";"DX12";"Stadhoudersstaete";4458;0;0;"Maatschappelijk";"Onbekend";"9 - Fase nader te bepalen";"E - Transformatiewijze nader te bepalen";0;0;"";"POINT(4.893514 52.357755)";"4,893514";"52,357755";
387;"Eerste Sweelinckstraat 10";"1073CM";"K";"DX12";"Badcuyp";0;0;0;"Commercieel";"Commercieel - Wonen";"3 - In uitvoering";"C - Verbouw andere functie";2016;5;"";"POINT(4.897073 52.356662)";"4,897073";"52,356662";
388;"Lutmastraat 175";"1073GX";"K";"DX12";"";0;0;0;"Onderwijs";"Maatschappelijk - Wonen";"2 - In onderzoek - voorbereiding";"C - Verbouw andere functie";2017;15;"";"POINT(4.902104 52.351662)";"4,902104";"52,351662";
389;"Lutmastraat 181-183";"1073GX";"K";"DX12";"";0;0;0;"Maatschappelijk";"Maatschappelijk - Wonen";"2 - In onderzoek - voorbereiding";"C - Verbouw andere functie";2017;36;"";"POINT(4.9024270 52.3516780)";"4,9024270";"52,3516780";
390;"Karel du Jardinstraat 61-67";"1073TB";"K";"DX12";"Oud stadsdeelkantoor";6800;6800;100;"Kantoor";"Wonen";"3 - In uitvoering";"C - Verbouw andere functie";2017;74;"http://www.nsi.nl";"POINT(4.896746 52.351718)";"4,896746";"52,351718";
392;"Van Ostadestraat 268";"1073TV";"K";"DX12";"Afrikahuis";0;0;0;"Religie";"Maatschappelijk - Wonen";"2 - In onderzoek - voorbereiding";"C - Verbouw andere functie";2017;8;"";"POINT(4.897599 52.352926)";"4,897599";"52,352926";
393;"Stadhouderskade 123";"1074AV";"K";"DX12";"";0;0;0;"Commercieel";"Onbekend";"2 - In onderzoek - voorbereiding";"E - Transformatiewijze nader te bepalen";0;0;"";"POINT(4.899547 52.357699)";"4,899547";"52,357699";
394;"Amsteldijk 35";"1074JK";"K";"DX12";"Het Amstelhuis";0;0;0;"Maatschappelijk";"Wonen";"4 - Gerealiseerd";"C - Verbouw andere functie";2015;121;"";"POINT(4.904985 52.355744)";"4,904985";"52,355744";
396;"Koningslaan 39";"1075AB";"K";"DX10";"";696;0;0;"Kantoor - Wonen";"Wonen";"2 - In onderzoek - voorbereiding";"C - Verbouw andere functie";2017;5;"";"POINT(4.861264 52.354747)";"4,861264";"52,354747";
397;"Valeriusplein 9 / Lassusstraat 2";"1075BG";"K";"DX10";"";0;0;0;"Maatschappelijk";"Maatschappelijk - Wonen";"3 - In uitvoering";"C - Verbouw andere functie";2016;30;"";"POINT(4.864924 52.352676)";"4,864924";"52,352676";
398;"Valeriusplein 12";"";"K";"DX10";"";1600;0;0;"Kantoor";"Wonen";"4 - Gerealiseerd";"C - Verbouw andere functie";2014;10;"";"POINT(4.863306 52.352574)";"4,863306";"52,352574";
399;"Koninginneweg 29";"1075CG";"K";"DX10";"Politiebureau";1100;1100;100;"Kantoor";"Maatschappelijk";"2 - In onderzoek - voorbereiding";"C - Verbouw andere functie";0;0;"";"POINT(4.8681750 52.3549750)";"4,8681750";"52,3549750";
401;"Koninginneweg 28";"1075CZ";"K";"DX10";"";1803;0;0;"Hotel";"Wonen";"3 - In uitvoering";"C - Verbouw andere functie";2016;5;"";"POINT(4.867008 52.354386)";"4,867008";"52,354386";
402;"Koninginneweg 184A";"1075EH";"K";"DX10";"";475;0;0;"Kantoor - Wonen";"Wonen";"2 - In onderzoek - voorbereiding";"C - Verbouw andere functie";2017;8;"";"POINT(4.859092 52.352266)";"4,859092";"52,352266";
403;"Brachthuyzerstraat 4-8";"";"K";"DX10";"";1600;1600;100;"Kantoor";"Kantoor";"1 - Leegstand zonder transformatie";"X - Leegstand zonder transformatie";0;0;"";"POINT(4.866536 52.353721)";"4,866536";"52,353721";
404;"Karperweg 5";"1075LA";"K";"DX10";"";335;0;0;"Religie";"Wonen";"3 - In uitvoering";"C - Verbouw andere functie";2017;2;"";"POINT(4.856827 52.348596)";"4,856827";"52,348596";
405;"Havenstraat 6";"1075PR";"K";"DX10";"Huis van Bewaring";10801;0;0;"Maatschappelijk";"Onderwijs";"2 - In onderzoek - voorbereiding";"B - Sloop - Nieuwbouw";2018;0;"";"POINT(4.85625 52.349802)";"4,85625";"52,349802";
406;"Schinkelkade 69";"1075VM";"K";"DX10";"kavel in uitvoering";7000;0;0;"Maatschappelijk";"Maatschappelijk - Wonen";"3 - In uitvoering";"B - Sloop - Nieuwbouw";2016;63;"";"POINT(4.852481 52.349925)";"4,852481";"52,349925";
407;"Locatellikade 1";"1076AZ";"K";"DX11";"Parnassustoren";7000;7000;100;"Kantoor";"Kantoor";"1 - Leegstand zonder transformatie";"X - Leegstand zonder transformatie";0;0;"http://www.pramericarei.com";"POINT(4.867331 52.343505)";"4,867331";"52,343505";
408;"Stadionplein 22-24";"1076CM";"K";"DX10";"Citroengebouwen";15523;0;0;"Bedrijf - Commercieel";"Commercieel";"2 - In onderzoek - voorbereiding";"C - Verbouw andere functie";2017;0;"";"POINT(4.856233 52.344677)";"4,856233";"52,344677";
409;"Stadionplein 26-30";"1076CM";"K";"DX10";"Citroengebouwen";10000;0;0;"Bedrijf - Commercieel";"Commercieel";"2 - In onderzoek - voorbereiding";"C - Verbouw andere functie";2017;0;"";"POINT(4.856606 52.342926)";"4,856606";"52,342926";
410;"IJsbaanpad 12";"1076CV";"K";"DX10";"kavel in uitvoering";0;0;0;"Onbekend";"Hotel";"2 - In onderzoek - voorbereiding";"B - Sloop - Nieuwbouw";2017;0;"";"POINT(4.852883 52.341345)";"4,852883";"52,341345";
411;"IJsbaanpad 1-5 / Amstelveenseweg 404";"1076CV";"K";"DX10";"Garden court";4100;4100;100;"Kantoor";"Kantoor";"2 - In onderzoek - voorbereiding";"E - Transformatiewijze nader te bepalen";0;0;"http://www.hsbctrinkaus-realestate.de";"POINT(4.856798 52.340762)";"4,856798";"52,340762";
412;"IJsbaanpad 2";"1076CV";"K";"DX10";"Noordzone Ijsbaanpad";8368;0;0;"Kantoor";"Wonen";"2 - In onderzoek - voorbereiding";"E - Transformatiewijze nader te bepalen";2019;150;"";"POINT(4.856541 52.341408)";"4,856541";"52,341408";
414;"Peter van Anrooystraat 7";"";"K";"DX11";"";4000;0;0;"Kantoor";"Onbekend";"2 - In onderzoek - voorbereiding";"C - Verbouw andere functie";0;0;"";"POINT(4.866801 52.342371)";"4,866801";"52,342371";
415;"Burgerweeshuispad 201-241";"1076GR";"K";"DX10";"Tripolis";6200;6200;100;"Kantoor";"Kantoor";"2 - In onderzoek - voorbereiding";"E - Transformatiewijze nader te bepalen";0;0;"";"POINT(4.856581 52.339270)";"4,856581";"52,339270";
416;"Burgerweeshuispad 301-341";"1076HR";"K";"DX10";"Tripolis";12000;12000;100;"Kantoor";"Kantoor";"2 - In onderzoek - voorbereiding";"E - Transformatiewijze nader te bepalen";0;0;"";"POINT(4.855848 52.339239)";"4,855848";"52,339239";
417;"Stadionweg 267";"1076NZ";"K";"DX10";"";574;0;0;"Religie";"Maatschappelijk - Wonen";"2 - In onderzoek - voorbereiding";"C - Verbouw andere functie";0;6;"";"POINT(4.859165 52.344905)";"4,859165";"52,344905";
418;"Memlingstraat 2";"1077LR";"K";"DX10";"";0;0;0;"Kantoor";"Wonen";"2 - In onderzoek - voorbereiding";"B - Sloop - Nieuwbouw";0;0;"";"POINT(4.874417 52.349998)";"4,874417";"52,349998";
419;"Prinses Irenestraat 37";"1077WV";"K";"DX11";"";4250;0;0;"Onderwijs";"Onbekend";"9 - Fase nader te bepalen";"E - Transformatiewijze nader te bepalen";0;0;"";"POINT(4.875131 52.341571)";"4,875131";"52,341571";
420;"Prinses Irenestraat 43";"1077WV";"K";"DX11";"";7237;0;0;"Kantoor";"Onbekend";"9 - Fase nader te bepalen";"E - Transformatiewijze nader te bepalen";0;0;"";"POINT(4.873856 52.341440)";"4,873856";"52,341440";
421;"Prinses Irenestraat 59";"1077WV";"K";"DX11";"";13156;0;0;"Kantoor";"Onbekend";"1 - Leegstand zonder transformatie";"X - Leegstand zonder transformatie";0;0;"";"POINT(4.8697190 52.3413500)";"4,8697190";"52,3413500";
422;"Strawinskylaan 1999";"";"K";"DX11";"WTC I";14108;14108;100;"Kantoor";"Kantoor";"1 - Leegstand zonder transformatie";"X - Leegstand zonder transformatie";0;0;"";"POINT(4.8725010 52.3405530)";"4,8725010";"52,3405530";
423;"Strawinskylaan 1-1791";"1077XW";"K";"DX11";"";18390;0;0;"Kantoor";"Commercieel - Hotel - Kantoor";"9 - Fase nader te bepalen";"E - Transformatiewijze nader te bepalen";0;0;"";"POINT(4.874248 52.340471)";"4,874248";"52,340471";
424;"Strawinskylaan 2001-2041";"";"K";"DX11";"Stibbe Toren";16000;16000;100;"Kantoor";"Kantoor";"1 - Leegstand zonder transformatie";"X - Leegstand zonder transformatie";0;0;"";"POINT(4.8712870 52.3402060)";"4,8712870";"52,3402060";
425;"Strawinskylaan 2501-2631";"";"K";"DX11";"Atrium toren A";16000;9300;58;"Kantoor";"Kantoor";"1 - Leegstand zonder transformatie";"X - Leegstand zonder transformatie";0;0;"";"POINT(4.870952 52.340043)";"4,870952";"52,340043";
426;"Scheldeplein 1";"1078GR";"K";"DX12";"Knijn Bowling";0;0;0;"Commercieel";"Wonen";"2 - In onderzoek - voorbereiding";"C - Verbouw andere functie";2017;8;"";"POINT(4.891353 52.344397)";"4,891353";"52,344397";
428;"Dintelstraat 15";"1078VN";"K";"DX12";"Mediacollege";6000;0;0;"Onderwijs";"Commercieel - Wonen";"2 - In onderzoek - voorbereiding";"C - Verbouw andere functie";0;32;"";"POINT(4.893166 52.344601)";"4,893166";"52,344601";
767;"Cruqiusweg 113 -118";"";"M";"DX14";"";0;0;0;"Bedrijf";"Wonen";"2 - In onderzoek - voorbereiding";"C - Verbouw andere functie";0;0;"";"POINT(4.953884 52.371067)";"4,953884";"52,371067";
705;"Akerwateringstraat 241";"1069GD";"F";"DX07";"De Aak";0;0;0;"Maatschappelijk";"Wonen";"3 - In uitvoering";"C - Verbouw andere functie";2016;28;"";"POINT(4.785753 52.354013)";"4,785753";"52,354013";
706;"Jachthavenweg 111";"";"K";"";"Zuiderhof";0;0;0;"Kantoor";"Wonen";"2 - In onderzoek - voorbereiding";"B - Sloop - Nieuwbouw";0;0;"";"POINT(4.854809 52.336349)";"4,854809";"52,336349";
431;"Amsteldijk 194";"1079LK";"K";"DX12";"Amstelstaete";1975;593;30;"Kantoor";"Kantoor";"1 - Leegstand zonder transformatie";"X - Leegstand zonder transformatie";0;0;"";"POINT(4.9134520 52.3422790)";"4,9134520";"52,3422790";
432;"Amsteldijk 216";"1079LK";"K";"DX12";"Fordgarage";5379;0;0;"Bedrijf";"Wonen";"2 - In onderzoek - voorbereiding";"B - Sloop - Nieuwbouw";2018;75;"";"POINT(4.907772 52.339578)";"4,907772";"52,339578";
434;"President Kennedylaan 1";"1079MB";"K";"DX12";"";1017;0;0;"Kantoor";"Wonen";"9 - Fase nader te bepalen";"E - Transformatiewijze nader te bepalen";0;0;"";"POINT(4.913114 52.342313)";"4,913114";"52,342313";
435;"Veluwelaan 20";"1079RA";"K";"DX12";"";0;0;0;"Religie";"Religie";"2 - In onderzoek - voorbereiding";"E - Transformatiewijze nader te bepalen";0;0;"";"POINT(4.896992 52.339138)";"4,896992";"52,339138";
436;"Veluwelaan 22";"1079RA";"K";"DX12";"";1000;1000;100;"Kantoor";"Wonen";"2 - In onderzoek - voorbereiding";"C - Verbouw andere functie";0;0;"";"POINT(4.8968490 52.3388230)";"4,8968490";"52,3388230";
438;"Hunzestraat 87";"";"K";"DX12";"Maranathakerk";0;0;0;"Kantoor";"Maatschappelijk";"3 - In uitvoering";"C - Verbouw andere functie";2016;0;"";"POINT(4.905216 52.342163)";"4,905216";"52,342163";
439;"Buitenveldertselaan 78";"1081AB";"K";"DX11";"";4250;0;0;"Onbekend";"Commercieel - Wonen";"2 - In onderzoek - voorbereiding";"E - Transformatiewijze nader te bepalen";2017;0;"";"POINT(4.868334 52.327528)";"4,868334";"52,327528";
440;"Zwaansvliet 5";"";"K";"DX11";"Zwaansvliet";3200;2793;87;"Kantoor";"Maatschappelijk";"2 - In onderzoek - voorbereiding";"C - Verbouw andere functie";0;0;"";"POINT(4.8659560 52.3255870)";"4,8659560";"52,3255870";
441;"Noordhollandstraat 71";"1081AS";"K";"DX11";"Noordhollandstaete";2758;0;0;"Kantoor";"Kantoor";"4 - Gerealiseerd";"D - Verbouw zelfde functie";0;0;"";"POINT(4.866000 52.323949)";"4,866000";"52,323949";
442;"Van der Boechorststraat 26";"1081BT";"K";"DX11";"Joods-cultureel centrum";0;0;0;"Religie";"Onbekend";"2 - In onderzoek - voorbereiding";"X - Leegstand zonder transformatie";0;0;"";"POINT(4.861583 52.331931)";"4,861583";"52,331931";
443;"De Cuserstraat 93";"1081CN";"K";"DX11";"";2200;1100;50;"Kantoor";"Kantoor";"1 - Leegstand zonder transformatie";"X - Leegstand zonder transformatie";0;0;"";"POINT(4.858267 52.323369)";"4,858267";"52,323369";
444;"Arent Janszoon Ernststraat 1179";"1081HL";"K";"DX11";"Cordaan";1452;0;0;"Maatschappelijk";"Onderwijs";"2 - In onderzoek - voorbereiding";"C - Verbouw andere functie";0;0;"";"POINT(4.865914 52.331725)";"4,865914";"52,331725";
445;"Arent Janszoon Ernststraat 1187";"1081HL";"K";"DX11";"GGZ inGeest";6981;0;0;"Maatschappelijk";"Onderwijs";"2 - In onderzoek - voorbereiding";"C - Verbouw andere functie";0;0;"";"POINT(4.864807 52.331799)";"4,864807";"52,331799";
701;"Zwaansvliet 3";"";"K";"DX11";"";0;0;0;"Kantoor";"Hotel";"2 - In onderzoek - voorbereiding";"C - Verbouw andere functie";0;0;"";"POINT(4.866541 52.325590)";"4,866541";"52,325590";
446;"Amstelveenseweg 754-760";"1081JK";"K";"DX11";"Lakewood estate";4874;2312;47;"Kantoor";"Kantoor";"1 - Leegstand zonder transformatie";"X - Leegstand zonder transformatie";0;0;"";"POINT(4.8568710 52.3322160)";"4,8568710";"52,3322160";
447;"Koenenkade 8";"1081KH";"K";"DX11";"Wellness Spa Zuiver";0;0;0;"Commercieel";"Hotel";"2 - In onderzoek - voorbereiding";"C - Verbouw andere functie";0;0;"";"POINT(4.852352 52.331009)";"4,852352";"52,331009";
449;"Walborg 2A";"1082AM";"K";"DX11";"GGZ inGeest";0;0;0;"Maatschappelijk";"Kantoor - Wonen";"2 - In onderzoek - voorbereiding";"C - Verbouw andere functie";0;25;"";"POINT(4.873682 52.324325)";"4,873682";"52,324325";
450;"Giessenburg 1";"1082CV";"K";"DX11";"Voormalig PTT distributiekantoor";0;0;0;"Bedrijf";"Wonen";"2 - In onderzoek - voorbereiding";"C - Verbouw andere functie";0;25;"";"POINT(4.874709 52.325542)";"4,874709";"52,325542";
452;"Van Leijenberglaan 197-199";"1082GG";"K";"DX11";"";1850;1156;62;"Kantoor";"Kantoor";"1 - Leegstand zonder transformatie";"X - Leegstand zonder transformatie";0;0;"";"POINT(4.8797220 52.3275700)";"4,8797220";"52,3275700";
453;"Backershagen 97";"1082GT";"K";"DX11";"";1900;0;0;"Kantoor";"Kantoor";"1 - Leegstand zonder transformatie";"X - Leegstand zonder transformatie";0;0;"";"POINT(4.875806 52.327526)";"4,875806";"52,327526";
454;"Teilingen 1";"";"K";"DX11";"Htel";0;0;0;"Hotel";"Hotel";"2 - In onderzoek - voorbereiding";"D - Verbouw zelfde functie";0;0;"";"POINT(4.871904 52.327518)";"4,871904";"52,327518";
455;"Loowaard 3";"";"K";"DX11";"EOKS";0;0;0;"Maatschappelijk";"Wonen";"3 - In uitvoering";"C - Verbouw andere functie";2015;32;"";"POINT(4.878769 52.330128)";"4,878769";"52,330128";
456;"Gelderlandplein 75A";"1082LV";"K";"DX11";"Element Hotel";8800;0;0;"Kantoor";"Hotel";"4 - Gerealiseerd";"C - Verbouw andere functie";2015;0;"";"POINT(4.877548 52.331695)";"4,877548";"52,331695";
457;"De Boelelaan 769";"";"K";"DX11";"";0;0;0;"Onbekend";"Wonen";"4 - Gerealiseerd";"C - Verbouw andere functie";0;79;"";"POINT(4.872231 52.334782)";"4,872231";"52,334782";
458;"Van Boshuizenstraat 12 / Van Heenvlietlaan 403";"1083BA";"K";"DX11";"";6836;2798;41;"Kantoor";"Kantoor";"1 - Leegstand zonder transformatie";"X - Leegstand zonder transformatie";0;0;"";"POINT(4.8829630 52.3251120)";"4,8829630";"52,3251120";
460;"Wamberg 35";"1083CW";"K";"DX11";"Edges Offices";0;0;0;"Kantoor";"Wonen";"2 - In onderzoek - voorbereiding";"C - Verbouw andere functie";0;20;"";"POINT(4.886045 52.327489)";"4,886045";"52,327489";
461;"Wamberg 36";"1083CW";"K";"DX11";"Edge offices";1850;1850;100;"Kantoor";"Kantoor";"1 - Leegstand zonder transformatie";"X - Leegstand zonder transformatie";0;0;"http://www.valad.nl";"POINT(4.8860150 52.3276240)";"4,8860150";"52,3276240";
463;"De Klencke 109";"1083HH";"K";"DX11";"";5800;0;0;"Onderwijs";"Wonen";"3 - In uitvoering";"B - Sloop - Nieuwbouw";2016;50;"";"POINT(4.884701 52.333481)";"4,884701";"52,333481";
464;"De Klencke 111";"1083HH";"K";"DX11";"Vreugdehof";16763;0;0;"Maatschappelijk";"Wonen - Maatschappelijk";"2 - In onderzoek - voorbereiding";"B - Sloop - Nieuwbouw";2017;150;"";"POINT(4.884272 52.333854)";"4,884272";"52,333854";
465;"De Boelelaan 32";"";"K";"DX11";"The Boardyard";6448;942;15;"Kantoor";"Kantoor";"1 - Leegstand zonder transformatie";"X - Leegstand zonder transformatie";0;0;"";"POINT(4.8856820 52.3350190)";"4,8856820";"52,3350190";
466;"Tommaso Albinonistraat 5";"";"K";"DX11";"";2300;2300;100;"Kantoor";"Kantoor";"3 - In uitvoering";"D - Verbouw zelfde functie";0;0;"";"POINT(4.886937 52.335564)";"4,886937";"52,335564";
467;"Antonio Vivaldistraat 50";"";"K";"DX11";"";2400;0;0;"Kantoor";"Kantoor";"1 - Leegstand zonder transformatie";"X - Leegstand zonder transformatie";0;0;"";"POINT(4.885350 52.335836)";"4,885350";"52,335836";
469;"Weesperzijde 70 / Grensstraat";"";"M";"DX13";"";891;0;0;"Maatschappelijk";"Wonen";"3 - In uitvoering";"C - Verbouw andere functie";2015;3;"";"POINT(4.909674 52.353768)";"4,909674";"52,353768";
470;"Weesperzijde 99A";"1091EL";"M";"DX13";"";1360;0;0;"Kantoor";"Commercieel - Wonen";"3 - In uitvoering";"C - Verbouw andere functie";2015;22;"";"POINT(4.911545 52.351780)";"4,911545";"52,351780";
475;"Wibautstraat 127";"1091GL";"M";"DX13";"Parooltoren & Trouwgebouw";15000;0;0;"Commercieel";"Hotel";"4 - Gerealiseerd";"C - Verbouw andere functie";2015;0;"";"POINT(4.912809 52.3544)";"4,912809";"52,3544";
836;"Amstelplein 6-8";"";"M";"DX15";"Mondriaantoren";31500;12000;39;"Kantoor";"Kantoor";"1 - Leegstand zonder transformatie";"X - Leegstand zonder transformatie";0;0;"";"POINT(4.917310 52.343998)";"4,917310";"52,343998";
477;"Wibautstraat 82-84";"1091GP";"M";"DX13";"ROC Wibautstraat";0;0;0;"Onderwijs";"Wonen";"3 - In uitvoering";"C - Verbouw andere functie";2016;162;"";"POINT(4.910645 52.355891)";"4,910645";"52,355891";
478;"Kraaipanstraat 56";"1091PM";"M";"DX13";"Spectrum";352;0;0;"Onderwijs - Wonen";"Wonen";"3 - In uitvoering";"C - Verbouw andere functie";2015;17;"";"POINT(4.917579 52.351579)";"4,917579";"52,351579";
479;"Swammerdamstraat 38";"1091RV";"M";"DX13";"";0;0;0;"Kantoor";"Wonen";"3 - In uitvoering";"C - Verbouw andere functie";2016;10;"";"POINT(4.907553 52.357611)";"4,907553";"52,357611";
917;"Apollolaan 58";"1077BC";"K";"DX10";"";0;0;0;"Kantoor";"Wonen";"2 - In onderzoek - voorbereiding";"C - Verbouw andere functie";0;0;"";"POINT(4.8811785 52.3505761)";"4,8811785";"52,3505761";
918;"Titiaanstraat 13";"1077RC";"K";"DX12";"";0;0;0;"Kantoor";"Wonen";"2 - In onderzoek - voorbereiding";"C - Verbouw andere functie";0;0;"";"POINT(4.8700547 52.3495971)";"4,8700547";"52,3495971";
481;"Oosterpark 82";"1092AV";"M";"DX13";"Witsenhuis";446;0;0;"Maatschappelijk";"Onbekend";"9 - Fase nader te bepalen";"E - Transformatiewijze nader te bepalen";0;0;"";"POINT(4.924160 52.359577)";"4,924160";"52,359577";
482;"Oosterpark 89";"1092AW";"M";"DX13";"ING Bank";352;0;0;"Kantoor - Wonen";"Wonen";"4 - Gerealiseerd";"C - Verbouw andere functie";2015;4;"";"POINT(4.924799 52.359749)";"4,924799";"52,359749";
483;"Dapperstraat 44";"1093BW";"M";"DX13";"Kwantum";134;0;0;"Commercieel - Kantoor - Wonen";"Wonen";"3 - In uitvoering";"C - Verbouw andere functie";2015;12;"";"POINT(4.927105 52.362887)";"4,927105";"52,362887";
484;"Batjanstraat 84";"1094RC";"M";"DX14";"Batjanschool";0;0;0;"Onderwijs";"Wonen";"4 - Gerealiseerd";"C - Verbouw andere functie";2015;13;"";"POINT(4.938901 52.359283)";"4,938901";"52,359283";
486;"Duivendrechtsekade 40";"1096AH";"M";"DX15";"";3000;0;0;"Kantoor";"Wonen";"2 - In onderzoek - voorbereiding";"C - Verbouw andere functie";0;0;"";"POINT(4.928793 52.337324)";"4,928793";"52,337324";
487;"Duivendrechtsekade 42-48";"1096AH";"M";"DX15";"Kroonhof";2800;2800;100;"Kantoor";"Kantoor";"1 - Leegstand zonder transformatie";"X - Leegstand zonder transformatie";0;0;"http://www.breevast.nl";"POINT(4.928822 52.337360)";"4,928822";"52,337360";
488;"H.J.E. Wenckebachweg 48";"1096AN";"M";"DX15";"Bijlmerbajes";84860;0;0;"Maatschappelijk";"Wonen";"2 - In onderzoek - voorbereiding";"E - Transformatiewijze nader te bepalen";0;0;"";"POINT(4.925025 52.337094)";"4,925025";"52,337094";
489;"H.J.E. Wenckebachweg 6V";"1096AN";"M";"DX15";"";374;0;0;"Bedrijf";"Wonen";"2 - In onderzoek - voorbereiding";"C - Verbouw andere functie";2017;33;"";"POINT(4.926658 52.337123)";"4,926658";"52,337123";
843;"Klaprozenweg 75";"";"N";"DX18";"";7700;2000;26;"Kantoor";"Kantoor";"1 - Leegstand zonder transformatie";"X - Leegstand zonder transformatie";0;0;"";"POINT(4.892322 52.405698)";"4,892322";"52,405698";
496;"Joan Muyskenweg 4-4A";"1096CJ";"M";"DX15";"Waterline";4300;4300;100;"Kantoor";"Wonen";"2 - In onderzoek - voorbereiding";"C - Verbouw andere functie";0;170;"http://www.deltalloydvastgoed.nl";"POINT(4.912930 52.337044)";"4,912930";"52,337044";
497;"Nobelweg 2 / James Wattstraat 71";"1097AR";"M";"DX15";"";2300;0;0;"Kantoor";"Kantoor";"9 - Fase nader te bepalen";"D - Verbouw zelfde functie";0;0;"";"POINT(4.923814 52.350498)";"4,923814";"52,350498";
718;"Hogehilweg 10";"";"T";"";"";4240;350;8;"Kantoor";"Kantoor";"1 - Leegstand zonder transformatie";"X - Leegstand zonder transformatie";0;0;"";"POINT(4.947533 52.306327)";"4,947533";"52,306327";
499;"James Wattstraat 100";"1097DM";"M";"DX15";"";8200;0;0;"Kantoor";"Wonen";"2 - In onderzoek - voorbereiding";"E - Transformatiewijze nader te bepalen";0;0;"";"POINT(4.920005 52.348898)";"4,920005";"52,348898";
500;"Wibautstraat 133";"1097DN";"M";"DX15";"";6000;1600;27;"Kantoor";"Kantoor";"1 - Leegstand zonder transformatie";"X - Leegstand zonder transformatie";0;0;"";"POINT(4.917481 52.349826)";"4,917481";"52,349826";
501;"Mr. Treublaan 7";"1097DP";"M";"DX15";"Amstelpoort";22500;22500;100;"Kantoor";"Kantoor";"3 - In uitvoering";"D - Verbouw zelfde functie";2016;0;"";"POINT(4.915254 52.347993)";"4,915254";"52,347993";
502;"Weesperzijde 190";"";"M";"DX15";"Leeuwenburg";71420;0;0;"Onderwijs";"Kantoor - Wonen";"2 - In onderzoek - voorbereiding";"C - Verbouw andere functie";2018;0;"";"POINT(4.916170 52.346037)";"4,916170";"52,346037";
503;"Hugo de Vrieslaan 65";"";"M";"DX15";"";5334;0;0;"Maatschappelijk";"Wonen";"2 - In onderzoek - voorbereiding";"C - Verbouw andere functie";0;0;"";"POINT(4.933106 52.348890)";"4,933106";"52,348890";
505;"Fizeaustraat 2";"1097SC";"M";"DX15";"";5100;0;0;"Kantoor";"Hotel";"4 - Gerealiseerd";"C - Verbouw andere functie";0;0;"";"POINT(4.925555 52.345328)";"4,925555";"52,345328";
506;"Zaaiersweg 11 - 15";"1097SM";"M";"DX15";"";1091;0;0;"Onderwijs";"Wonen";"4 - Gerealiseerd";"C - Verbouw andere functie";2016;7;"";"POINT(4.944803 52.343929)";"4,944803";"52,343929";
507;"Burgemeester Stramanweg 101";"1101AA";"T";"DX20";"";6600;2850;43;"Kantoor";"Kantoor";"1 - Leegstand zonder transformatie";"X - Leegstand zonder transformatie";0;0;"";"POINT(4.929912 52.308388)";"4,929912";"52,308388";
508;"Burgemeester Stramanweg 102";"1101AA";"T";"DX20";"London";3250;320;10;"Bedrijf";"Kantoor";"4 - Gerealiseerd";"C - Verbouw andere functie";0;0;"";"POINT(4.930136 52.308962)";"4,930136";"52,308962";
509;"Burgemeester Stramanweg 105-105A";"1101AA";"T";"DX20";"Parijs";3250;2100;65;"Kantoor";"Kantoor";"1 - Leegstand zonder transformatie";"X - Leegstand zonder transformatie";0;0;"http://www.stramanweg.nl";"POINT(4.931454 52.309111)";"4,931454";"52,309111";
511;"Kuiperbergweg 33";"1101AE";"T";"DX20";"";2000;2000;100;"Kantoor";"Kantoor";"1 - Leegstand zonder transformatie";"X - Leegstand zonder transformatie";0;0;"";"POINT(4.940506 52.300358)";"4,940506";"52,300358";
512;"Kuiperbergweg 50";"1101AG";"T";"DX20";"";3500;880;25;"Kantoor";"Kantoor";"1 - Leegstand zonder transformatie";"X - Leegstand zonder transformatie";0;0;"";"POINT(4.941378 52.299678)";"4,941378";"52,299678";
513;"Lemelerbergweg 28";"1101AH";"T";"DX20";"";3137;0;0;"Bedrijf";"Datacenter";"4 - Gerealiseerd";"C - Verbouw andere functie";2015;0;"";"POINT(4.939311 52.304020)";"4,939311";"52,304020";
514;"Lemelerbergweg 20";"1101AJ";"T";"DX20";"";0;0;0;"Bedrijf";"Datacenter";"4 - Gerealiseerd";"C - Verbouw andere functie";0;0;"";"POINT(4.941149 52.305016)";"4,941149";"52,305016";
823;"Haaksbergweg 75";"";"";"";"Magriettoren ";11350;1400;13;"Kantoor";"Kantoor";"1 - Leegstand zonder transformatie";"X - Leegstand zonder transformatie";0;0;"";"POINT(4.940977 52.311043)";"4,940977";"52,311043";
824;"Bijlmerplein 395";"";"";"";"";14300;14300;100;"Kantoor";"Kantoor";"1 - Leegstand zonder transformatie";"X - Leegstand zonder transformatie";0;0;"";"POINT(4.953785 52.315351)";"4,953785";"52,315351";
818;"De Entree 99-197";"";"T";"DX20";"Oval Tower";26350;2100;8;"Kantoor";"Kantoor";"1 - Leegstand zonder transformatie";"X - Leegstand zonder transformatie";0;0;"";"POINT(4.940076 52.312289)";"4,940076";"52,312289";
817;"Arena Boulevard 51";"";"T";"DX20";"Rainbow Offices";4300;1700;41;"Kantoor";"Kantoor";"1 - Leegstand zonder transformatie";"X - Leegstand zonder transformatie";0;0;"";"POINT(4.941696 52.313063)";"4,941696";"52,313063";
518;"Hettenheuvelweg 37-39";"1101BM";"T";"DX20";"";2800;1900;67;"Kantoor";"Kantoor";"1 - Leegstand zonder transformatie";"X - Leegstand zonder transformatie";0;0;"";"POINT(4.943971 52.305799)";"4,943971";"52,305799";
662;"Hettenheuvelweg 41";"";"T";"DX20";"";2800;0;0;"Kantoor";"Commercieel";"4 - Gerealiseerd";"C - Verbouw andere functie";2016;0;"";"POINT(4.943612 52.306347)";"4,943612";"52,306347";
827;"Meibergdreef 55-61";"";"T";"DX20";"";4200;2100;50;"Kantoor";"Kantoor";"1 - Leegstand zonder transformatie";"X - Leegstand zonder transformatie";0;0;"";"POINT(4.957843 52.292043)";"4,957843";"52,292043";
522;"Hettenheuvelweg 16";"1101BN";"T";"DX20";"";3200;1450;45;"Kantoor";"Wonen";"2 - In onderzoek - voorbereiding";"E - Transformatiewijze nader te bepalen";0;46;"";"POINT(4.945292 52.303681)";"4,945292";"52,303681";
812;"Hullenbergweg 109-135";"";"";"";"Tricity";5900;5900;100;"Kantoor";"Kantoor";"1 - Leegstand zonder transformatie";"X - Leegstand zonder transformatie";0;0;"";"POINT(4.950108 52.304280)";"4,950108";"52,304280";
526;"Hogehilweg 13";"1101CA";"T";"DX20";"Virginia";2400;600;25;"Kantoor";"Kantoor";"1 - Leegstand zonder transformatie";"X - Leegstand zonder transformatie";0;0;"";"POINT(4.947199 52.307025)";"4,947199";"52,307025";
527;"Hogehilweg 3";"1101CA";"T";"DX20";"Jupiter";4600;580;13;"Kantoor";"Kantoor";"1 - Leegstand zonder transformatie";"X - Leegstand zonder transformatie";0;0;"http://www.stenarealty.com";"POINT(4.946117 52.306697)";"4,946117";"52,306697";
531;"Hogehilweg 4";"1101CC";"T";"DX20";"";3800;1000;27;"Kantoor";"Kantoor";"1 - Leegstand zonder transformatie";"X - Leegstand zonder transformatie";0;0;"";"POINT(4.946696 52.305944)";"4,946696";"52,305944";
814;"Hettenheuvelweg 8-10";"";"";"";"";2600;750;29;"Kantoor";"Kantoor";"1 - Leegstand zonder transformatie";"X - Leegstand zonder transformatie";0;0;"";"POINT(4.947103 52.303624)";"4,947103";"52,303624";
534;"Hogehilweg 18";"1101CD";"T";"DX20";"Prismatrium";3100;2200;70;"Kantoor";"Kantoor";"1 - Leegstand zonder transformatie";"X - Leegstand zonder transformatie";0;0;"http://www.prismatrium.nl";"POINT(4.949097 52.306295)";"4,949097";"52,306295";
535;"Hogehilweg 20";"1101CD";"T";"DX20";"";1800;370;20;"Kantoor";"Commercieel - Kantoor";"4 - Gerealiseerd";"C - Verbouw andere functie";2016;0;"";"POINT(4.948328 52.306984)";"4,948328";"52,306984";
536;"Hogehilweg 22";"1101CD";"T";"DX20";"";12100;0;0;"Kantoor";"Hotel";"4 - Gerealiseerd";"C - Verbouw andere functie";2015;0;"";"POINT(4.94953 52.307078)";"4,94953";"52,307078";
538;"Karspeldreef 4";"1101CJ";"T";"DX20";"";7200;7200;100;"Kantoor";"Wonen";"2 - In onderzoek - voorbereiding";"B - Sloop - Nieuwbouw";0;225;"";"POINT(4.948207 52.304912)";"4,948207";"52,304912";
539;"Karspeldreef 8";"1101CJ";"T";"DX20";"";6500;700;11;"Kantoor";"Kantoor";"1 - Leegstand zonder transformatie";"X - Leegstand zonder transformatie";0;0;"";"POINT(4.949179 52.305423)";"4,949179";"52,305423";
540;"Karspeldreef 14";"1101CK";"T";"DX20";"";4600;0;0;"Kantoor";"Commercieel - Kantoor - Wonen";"2 - In onderzoek - voorbereiding";"C - Verbouw andere functie";0;0;"";"POINT(4.950802 52.305932)";"4,950802";"52,305932";
542;"Hullenbergweg 81-93";"1101CL";"T";"DX20";"";5900;1600;29;"Kantoor";"Kantoor";"1 - Leegstand zonder transformatie";"X - Leegstand zonder transformatie";0;0;"";"POINT(4.949297 52.303914)";"4,949297";"52,303914";
543;"Hullenbergweg 95-107";"1101CL";"T";"DX20";"Tricity";9400;5400;57;"Kantoor";"Kantoor";"1 - Leegstand zonder transformatie";"X - Leegstand zonder transformatie";0;0;"http://www.mayfieldproperty.com";"POINT(4.949293 52.304345)";"4,949293";"52,304345";
826;"Reigersbos 100";"";"T";"DX20";"";1500;900;63;"Kantoor";"Kantoor";"1 - Leegstand zonder transformatie";"X - Leegstand zonder transformatie";0;0;"";"POINT(4.975717 52.295642)";"4,975717";"52,295642";
546;"Herikerbergweg 74";"1101CM";"T";"DX20";"Jupiter";11800;0;0;"Kantoor";"Kantoor";"1 - Leegstand zonder transformatie";"X - Leegstand zonder transformatie";0;0;"";"POINT(4.942976 52.308501)";"4,942976";"52,308501";
547;"Herikerbergweg 1";"1101CN";"T";"DX20";"Apollo";13400;3200;24;"Kantoor";"Kantoor";"1 - Leegstand zonder transformatie";"X - Leegstand zonder transformatie";0;0;"";"POINT(4.943601 52.307577)";"4,943601";"52,307577";
548;"Herikerbergweg 145-179";"1101CN";"T";"DX20";"Mercurius";12500;8300;67;"Kantoor";"Kantoor";"1 - Leegstand zonder transformatie";"X - Leegstand zonder transformatie";0;0;"http://www.sebassetmanagement.de";"POINT(4.942485 52.307780)";"4,942485";"52,307780";
549;"Herikerbergweg 181";"1101CN";"T";"DX20";"Vesta";11800;7660;64;"Kantoor";"Kantoor";"1 - Leegstand zonder transformatie";"X - Leegstand zonder transformatie";0;0;"";"POINT(4.942652 52.307133)";"4,942652";"52,307133";
550;"Hullenbergweg 353";"1101CP";"T";"DX20";"Crown South";4500;0;0;"Broedplaats";"Hotel";"3 - In uitvoering";"C - Verbouw andere functie";2016;0;"";"POINT(4.950964 52.304351)";"4,950964";"52,304351";
552;"Hullenbergweg 385-411";"1101CS";"T";"DX20";"";3800;0;0;"Kantoor";"Hotel";"3 - In uitvoering";"C - Verbouw andere functie";2016;0;"";"POINT(4.950304 52.305317)";"4,950304";"52,305317";
554;"Herikerbergweg 250";"1101CT";"T";"DX20";"Dali";6200;600;10;"Kantoor";"Kantoor";"1 - Leegstand zonder transformatie";"X - Leegstand zonder transformatie";0;0;"";"POINT(4.941090 52.307918)";"4,941090";"52,307918";
555;"Herikerbergweg 292";"1101CT";"T";"DX20";"Diana";12100;7900;65;"Kantoor";"Kantoor";"1 - Leegstand zonder transformatie";"X - Leegstand zonder transformatie";0;0;"";"POINT(4.941877 52.306924)";"4,941877";"52,306924";
556;"Hessenbergweg 85-107";"1101CX";"T";"DX20";"";2900;1500;51;"Kantoor";"Kantoor";"1 - Leegstand zonder transformatie";"X - Leegstand zonder transformatie";0;0;"";"POINT(4.945212 52.304824)";"4,945212";"52,304824";
558;"Arena boulevard 129";"1101DM";"T";"DX20";"Easy Hotel";2722;0;0;"Kantoor";"Hotel";"4 - Gerealiseerd";"C - Verbouw andere functie";2015;0;"";"POINT(4.944880 52.313172)";"4,944880";"52,313172";
560;"Laarderhoogtweg 12";"1101EA";"T";"DX20";"";15600;0;0;"Kantoor";"Maatschappelijk";"4 - Gerealiseerd";"C - Verbouw andere functie";2016;0;"";"POINT(4.945322 52.302641)";"4,945322";"52,302641";
561;"Laarderhoogtweg 18";"1101EA";"T";"DX20";"";8400;1400;17;"Kantoor";"Kantoor";"1 - Leegstand zonder transformatie";"X - Leegstand zonder transformatie";0;0;"";"POINT(4.944137 52.302331)";"4,944137";"52,302331";
562;"Laarderhoogtweg 20";"1101EA";"T";"DX20";"";4100;0;0;"Bedrijf";"Kantoor";"4 - Gerealiseerd";"C - Verbouw andere functie";2015;0;"";"POINT(4.943335 52.301860)";"4,943335";"52,301860";
564;"Laarderhoogtweg 51";"1101EB";"T";"DX20";"";0;0;0;"Bedrijf";"Commercieel";"2 - In onderzoek - voorbereiding";"C - Verbouw andere functie";2017;0;"";"POINT(4.943884 52.301278)";"4,943884";"52,301278";
821;"Haaksbergweg 4-6";"";"";"";"Sharing Towers";16800;16800;100;"Kantoor";"Kantoor";"1 - Leegstand zonder transformatie";"X - Leegstand zonder transformatie";0;0;"";"POINT(4.943601 52.310279)";"4,943601";"52,310279";
815;"Burg. Stramanweg";"";"T";"DX20";"Rome";3800;1100;29;"Kantoor";"Kantoor";"1 - Leegstand zonder transformatie";"X - Leegstand zonder transformatie";0;0;"";"POINT(4.931869 52.309561)";"4,931869";"52,309561";
816;"Laarderhoogtweg 25";"";"T";"DX20";"";12350;9700;78;"Kantoor";"Kantoor";"1 - Leegstand zonder transformatie";"X - Leegstand zonder transformatie";0;0;"";"POINT(4.946889 52.301393)";"4,946889";"52,301393";
569;"Daalwijk 1";"1102AA";"T";"DX20";"";1000;0;0;"Kantoor";"Wonen";"2 - In onderzoek - voorbereiding";"C - Verbouw andere functie";0;37;"";"POINT(4.950303 52.320886)";"4,950303";"52,320886";
570;"Florijn 35";"1102BA";"T";"DX20";"";1250;0;0;"Broedplaats";"Commercieel";"2 - In onderzoek - voorbereiding";"C - Verbouw andere functie";0;0;"";"POINT(4.956819 52.320487)";"4,956819";"52,320487";
571;"Karspeldreef 15-19";"1102BB";"T";"DX20";"voormalig DAS gebouw";15100;15100;100;"Kantoor";"Wonen";"2 - In onderzoek - voorbereiding";"C - Verbouw andere functie";2017;250;"";"POINT(4.952547 52.307849)";"4,952547";"52,307849";
572;"Flierbosdreef 2-12";"1102BC";"T";"DX20";"";16700;0;0;"Kantoor";"Hotel - Wonen";"2 - In onderzoek - voorbereiding";"C - Verbouw andere functie";2017;141;"";"POINT(4.954966 52.316012)";"4,954966";"52,316012";
573;"Hoogoorddreef 2";"1102CP";"T";"DX20";"";3620;0;0;"Commercieel";"Wonen";"2 - In onderzoek - voorbereiding";"C - Verbouw andere functie";2017;175;"";"POINT(4.955830 52.314081)";"4,955830";"52,314081";
574;"Foppingadreef 26";"1102CX";"T";"DX20";"";10000;0;0;"Commercieel - Wonen";"Wonen";"4 - Gerealiseerd";"A - Tijdelijke functie";2015;356;"";"POINT(4.952393 52.308113)";"4,952393";"52,308113";
722;"Reinier Engelmanstraat 1";"";"F";"";"";5304;0;0;"Kantoor";"Wonen";"2 - In onderzoek - voorbereiding";"B - Sloop - Nieuwbouw";2018;140;"";"POINT(4.830047 52.355742)";"4,830047";"52,355742";
577;"Bijlmerplein 718-719A";"1102MA";"T";"DX20";"";3200;3200;100;"Kantoor";"Kantoor";"1 - Leegstand zonder transformatie";"X - Leegstand zonder transformatie";0;0;"";"POINT(4.955104 52.314334)";"4,955104";"52,314334";
578;"Bijlmerplein 888";"1102MG";"T";"DX20";"Zandkasteel";61208;0;0;"Kantoor";"Commercieel - Maatschappelijk - Wonen";"2 - In onderzoek - voorbereiding";"C - Verbouw andere functie";2019;450;"";"POINT(4.952281 52.313631)";"4,952281";"52,313631";
579;"Geelbekstraat 1";"1102SM";"T";"DX20";"";457;0;0;"Wonen";"Wonen";"4 - Gerealiseerd";"C - Verbouw andere functie";2015;7;"";"POINT(4.961399 52.317053)";"4,961399";"52,317053";
582;"Bijlmerdreef 1169";"1103TT";"T";"DX21";"";1600;0;0;"Kantoor";"Commercieel";"2 - In onderzoek - voorbereiding";"C - Verbouw andere functie";0;0;"";"POINT(4.973567 52.322201)";"4,973567";"52,322201";
584;"Kempering 100B";"1104KE";"T";"DX21";"";1500;1500;100;"Kantoor";"Kantoor";"1 - Leegstand zonder transformatie";"X - Leegstand zonder transformatie";0;0;"";"POINT(4.979216 52.315677)";"4,979216";"52,315677";
587;"Paalbergweg 9-11";"1105AG";"T";"DX20";"Holendrecht centre";33400;33400;100;"Kantoor";"Wonen";"2 - In onderzoek - voorbereiding";"C - Verbouw andere functie";2017;1400;"http://www.lsi.eu";"POINT(4.956607 52.298476)";"4,956607";"52,298476";
820;"De Entree 230-260";"";"T";"DX20";"";14500;3000;20;"Kantoor";"Kantoor";"1 - Leegstand zonder transformatie";"X - Leegstand zonder transformatie";0;0;"";"POINT(4.941026 52.310005)";"4,941026";"52,310005";
591;"Paasheuvelweg 1";"1105BE";"T";"DX20";"";4900;600;13;"Kantoor";"Kantoor";"1 - Leegstand zonder transformatie";"X - Leegstand zonder transformatie";0;0;"";"POINT(4.951577 52.300147)";"4,951577";"52,300147";
593;"Paasheuvelweg 17";"1105BE";"T";"DX20";"";2545;2545;100;"Kantoor";"Wonen";"2 - In onderzoek - voorbereiding";"C - Verbouw andere functie";2017;250;"";"POINT(4.953325 52.298284)";"4,953325";"52,298284";
595;"Paasheuvelweg 9";"1105BE";"T";"DX20";"";33000;0;0;"Kantoor";"Wonen";"9 - Fase nader te bepalen";"C - Verbouw andere functie";2017;0;"";"POINT(4.953141 52.299146)";"4,953141";"52,299146";
597;"Paasheuvelweg 20";"1105BJ";"T";"DX20";"";3768;1050;30;"Kantoor";"Kantoor";"1 - Leegstand zonder transformatie";"X - Leegstand zonder transformatie";0;0;"";"POINT(4.951460 52.297091)";"4,951460";"52,297091";
598;"Paasheuvelweg 22B";"1105BJ";"T";"DX20";"Muntberg 2";3100;3100;100;"Kantoor";"Kantoor";"1 - Leegstand zonder transformatie";"X - Leegstand zonder transformatie";0;0;"";"POINT(4.950716 52.296765)";"4,950716";"52,296765";
599;"Paasheuvelweg 26";"1105BJ";"T";"DX20";"";3771;0;0;"Kantoor";"Commercieel - Kantoor";"4 - Gerealiseerd";"C - Verbouw andere functie";2015;0;"";"POINT(4.951414 52.295779)";"4,951414";"52,295779";
600;"La Guardiaweg 66-92";"1043DK";"F";"DX06";"Bright Offices B";10500;6400;62;"Kantoor";"Kantoor";"3 - In uitvoering";"D - Verbouw zelfde functie";2016;0;"http://www.spoorwegpensioenfonds.nl";"POINT(4.839457 52.390466)";"4,839457";"52,390466";
601;"Paasheuvelweg 28";"1105BJ";"T";"DX20";"Paasstate";2900;2900;100;"Kantoor";"Commercieel";"3 - In uitvoering";"C - Verbouw andere functie";2016;0;"";"POINT(4.952377 52.296276)";"4,952377";"52,296276";
602;"Paasheuvelweg 40-40A";"1105BJ";"T";"DX20";"";1550;1550;100;"Kantoor";"Kantoor";"1 - Leegstand zonder transformatie";"X - Leegstand zonder transformatie";0;0;"";"POINT(4.951766 52.297798)";"4,951766";"52,297798";
603;"Paasheuvelweg 25";"1105BP";"T";"DX20";"";33000;16000;50;"Kantoor";"Kantoor";"1 - Leegstand zonder transformatie";"X - Leegstand zonder transformatie";2016;0;"";"POINT(4.954196 52.297649)";"4,954196";"52,297649";
604;"Pietersbergweg 1-15";"1105BM";"T";"DX20";"Trinity buildings A";3000;1500;50;"Kantoor";"Kantoor";"1 - Leegstand zonder transformatie";"X - Leegstand zonder transformatie";0;0;"";"POINT(4.955705 52.299219)";"4,955705";"52,299219";
606;"Paalbergweg 42";"1105BV";"T";"DX20";"";2100;0;0;"Kantoor";"Wonen";"3 - In uitvoering";"C - Verbouw andere functie";2017;35;"";"POINT(4.954581 52.298738)";"4,954581";"52,298738";
608;"Reigersbos 89-107 / Rossumplein 1";"1106AR";"T";"DX22";"";4800;4800;100;"Kantoor";"Kantoor";"1 - Leegstand zonder transformatie";"X - Leegstand zonder transformatie";0;0;"";"POINT(4.976287 52.296137)";"4,976287";"52,296137";
609;"Reigersbos 88";"1106AS";"T";"DX22";"";1500;1500;100;"Kantoor";"Kantoor";"1 - Leegstand zonder transformatie";"X - Leegstand zonder transformatie";0;0;"";"POINT(4.975569 52.296153)";"4,975569";"52,296153";
626;"Derkinderenstraat 2-24";"";"F";"DX09";"Trivium";9408;4400;47;"Kantoor";"Kantoor";"2 - In onderzoek - voorbereiding";"C - Verbouw andere functie";0;0;"";"POINT(4.841012 52.358573)";"4,841012";"52,358573";
726;"Broekergouw 1 / Uilengouw 5-29";"1027EZ";"N";"DX19";"";0;0;0;"Bedrijf";"Wonen";"3 - In uitvoering";"B - Sloop - Nieuwbouw";2016;19;"";"POINT(4.967355 52.411020)";"4,967355";"52,411020";
646;"Sara Burgerhartstraat 25";"";"E";"";"";0;0;0;"Kantoor";"Wonen";"4 - Gerealiseerd";"C - Verbouw andere functie";0;224;"";"POINT(4.846222 52.383355)";"4,846222";"52,383355";
779;"Linnaeusstraat 35F";"";"M";"DX10";"";0;0;0;"Kantoor";"Wonen";"3 - In uitvoering";"C - Verbouw andere functie";2016;89;"";"POINT(4.924494 52.361830)";"4,924494";"52,361830";
648;"Erasmusgracht 24 - 28";"1055BJ";"E";"DX04";"Augustinahof";0;0;0;"Religie";"Wonen";"3 - In uitvoering";"C - Verbouw andere functie";2016;16;"";"POINT(4.853291 52.376927)";"4,853291";"52,376927";
781;"Admiraal Ruijterweg 408";"";"E";"DX04";"parochie boomkerk";1668;0;0;"Religie";"Wonen";"2 - In onderzoek - voorbereiding";"C - Verbouw andere functie";2017;34;"";"POINT(4.850378 52.383249)";"4,850378";"52,383249";
651;"Zandpad 3A";"";"E";"DX05";"";0;0;0;"Maatschappelijk";"Wonen";"2 - In onderzoek - voorbereiding";"E - Transformatiewijze nader te bepalen";0;12;"";"POINT(4.879052 52.361332)";"4,879052";"52,361332";
652;"Tesselschadestraat 31";"";"E";"DX05";"";1000;0;0;"Kantoor";"Wonen";"3 - In uitvoering";"C - Verbouw andere functie";2016;8;"";"POINT(4.878059 52.362319)";"4,878059";"52,362319";
653;"Schaafstraat 21";"";"N";"DX18";"";0;0;0;"Bedrijf";"Wonen";"9 - Fase nader te bepalen";"E - Transformatiewijze nader te bepalen";2018;0;"";"POINT(4.924270 52.385293)";"4,924270";"52,385293";
654;"Hamerstraat 22";"";"N";"DX18";"";0;0;0;"Bedrijf";"Wonen";"9 - Fase nader te bepalen";"E - Transformatiewijze nader te bepalen";2018;0;"";"POINT(4.922358 52.384935)";"4,922358";"52,384935";
655;"Spijkerkade 4";"";"N";"";"";0;0;0;"Bedrijf";"Wonen";"9 - Fase nader te bepalen";"E - Transformatiewijze nader te bepalen";2018;0;"";"POINT(4.920844 52.384758)";"4,920844";"52,384758";
656;"Korte Papaverweg 15";"";"N";"";"";0;0;0;"Bedrijf";"Wonen";"9 - Fase nader te bepalen";"E - Transformatiewijze nader te bepalen";2018;0;"";"POINT(4.911130 52.394101)";"4,911130";"52,394101";
660;"Dam 5c - 5v";"";"A";"A00";"";0;0;0;"Kantoor";"Wonen";"9 - Fase nader te bepalen";"E - Transformatiewijze nader te bepalen";0;0;"";"POINT(4.8941620 52.3730660)";"4,8941620";"52,3730660";
661;"Weesperzijde 150";"";"M";"DX15";"London";6480;0;0;"Commercieel";"Commercieel - Wonen";"2 - In onderzoek - voorbereiding";"C - Verbouw andere functie";0;0;"";"POINT(4.913635 52.348256)";"4,913635";"52,348256";
680;"Daalwijk 17-23";"1102AA";"T";"DX20";"";0;0;0;"Commercieel";"Wonen";"3 - In uitvoering";"C - Verbouw andere functie";2016;37;"";"POINT(4.951259 52.320487)";"4,951259";"52,320487";
665;"Sarphatistraat 82";"";"A";"DX02";"";0;0;0;"Kantoor - Wonen";"Wonen";"3 - In uitvoering";"C - Verbouw andere functie";2016;5;"";"POINT(4.909982 52.361558)";"4,909982";"52,361558";
666;"Oudezijds Voorburgwal 302";"";"A";"";"";0;0;0;"Kantoor - Wonen";"Wonen";"3 - In uitvoering";"C - Verbouw andere functie";2016;4;"";"POINT(4.894219 52.370367)";"4,894219";"52,370367";
668;"Herengracht 418";"";"A";"DX02";"";738;0;0;"Kantoor";"Wonen";"3 - In uitvoering";"C - Verbouw andere functie";2016;3;"";"POINT(4.887385 52.366839)";"4,887385";"52,366839";
669;"Tesselschadestraat 15";"";"E";"DX05";"";0;0;0;"Kantoor";"Wonen";"3 - In uitvoering";"C - Verbouw andere functie";2016;3;"";"POINT(4.878691 52.361969)";"4,878691";"52,361969";
671;"Wenslauerstraat 1";"";"E";"DX05";"";0;0;0;"Onderwijs - Wonen";"Wonen";"3 - In uitvoering";"C - Verbouw andere functie";2017;8;"";"POINT(4.865707 52.367567)";"4,865707";"52,367567";
672;"Tweede van der Helststraat 2A";"";"K";"DX12";"";0;0;0;"Kantoor";"Wonen";"3 - In uitvoering";"C - Verbouw andere functie";2016;3;"";"POINT(4.894549 52.352984)";"4,894549";"52,352984";
673;"Jan Luijkenstraat 2";"";"K";"DX10";"";0;0;0;"Kantoor";"Wonen";"3 - In uitvoering";"C - Verbouw andere functie";2016;4;"";"POINT(4.884383 52.360821)";"4,884383";"52,360821";
675;"Weesperzijde 100";"";"M";"DX13";"";0;0;0;"Kantoor";"Wonen";"3 - In uitvoering";"C - Verbouw andere functie";2016;3;"";"POINT(4.911593 52.351764)";"4,911593";"52,351764";
676;"Metaalbewerkerweg 1";"1032KW";"N";"DX18";"";0;0;0;"Kantoor";"Wonen";"3 - In uitvoering";"C - Verbouw andere functie";2016;3;"";"POINT(4.907770 52.400873)";"4,907770";"52,400873";
678;"Haarlemmerweg 508-510";"";"E";"DX03";"ING";0;0;0;"Kantoor";"Wonen";"2 - In onderzoek - voorbereiding";"C - Verbouw andere functie";2019;215;"";"POINT(4.854434 52.385619)";"4,854434";"52,385619";
790;"Wenslauerstraat 22";"";"E";"DX05";"";0;0;0;"Bedrijf";"Wonen";"2 - In onderzoek - voorbereiding";"B - Sloop - Nieuwbouw";2017;12;"";"POINT(4.865235 52.367501)";"4,865235";"52,367501";
683;"Ingenhouszhof 15";"";"M";"DX15";"";2733;0;0;"Maatschappelijk";"Wonen";"9 - Fase nader te bepalen";"E - Transformatiewijze nader te bepalen";0;124;"";"POINT(4.934659 52.347001)";"4,934659";"52,347001";
684;"Hullenbergweg 1-3";"";"T";"DX20";"Ruby point";5300;5300;100;"Kantoor";"Wonen";"2 - In onderzoek - voorbereiding";"C - Verbouw andere functie";0;0;"";"POINT(4.948633 52.303632)";"4,948633";"52,303632";
685;"Zeeburgerpad 38-43";"";"M";"DX14";"";0;0;0;"Bedrijf";"Wonen";"9 - Fase nader te bepalen";"E - Transformatiewijze nader te bepalen";0;0;"";"POINT(4.936407 52.367020)";"4,936407";"52,367020";
686;"Bos en Lommerplantsoen 1";"";"E";"DX04";"GAK-middenkern";0;0;0;"Kantoor";"Wonen";"2 - In onderzoek - voorbereiding";"C - Verbouw andere functie";2017;120;"";"POINT(4.844419 52.376412)";"4,844419";"52,376412";
687;"Kolksteeg 2";"1012TP";"A";"";"";0;0;0;"Onbekend";"Wonen";"3 - In uitvoering";"C - Verbouw andere functie";2016;6;"";"POINT(4.895515 52.376173)";"4,895515";"52,376173";
688;"Laurierstraat 68";"1016PN";"A";"";"";0;0;0;"Commercieel";"Wonen";"3 - In uitvoering";"C - Verbouw andere functie";2016;4;"";"POINT(4.881277 52.372375)";"4,881277";"52,372375";
689;"Oudezijds Voorburgwal 330 / Gebed Zonder End";"1012GM";"A";"DX01";"";0;0;0;"Hotel";"Wonen";"3 - In uitvoering";"C - Verbouw andere functie";2016;5;"";"POINT(4.893940 52.369455)";"4,893940";"52,369455";
690;"Nieuwezijds Voorburgwal 116";"1012SH";"A";"DX01";"scientologiekerk";0;0;0;"Kantoor";"Wonen";"2 - In onderzoek - voorbereiding";"C - Verbouw andere functie";2017;12;"";"POINT(4.891830 52.375502)";"4,891830";"52,375502";
691;"Kloveniersburgwal 41";"";"A";"";"";0;0;0;"Kantoor";"Wonen";"3 - In uitvoering";"C - Verbouw andere functie";2016;4;"";"POINT(4.899023 52.370824)";"4,899023";"52,370824";
692;"Nieuwezijds voorburgwal 159";"1012 R";"A";"";"";0;0;0;"Kantoor";"Wonen";"2 - In onderzoek - voorbereiding";"C - Verbouw andere functie";2017;2;"";"POINT(4.891025 52.372482)";"4,891025";"52,372482";
693;"Kloveniersburgwal 7";"1011GJ";"A";"DX02";"";0;0;0;"Commercieel";"Wonen";"2 - In onderzoek - voorbereiding";"C - Verbouw andere functie";2017;5;"";"POINT(4.900090 52.371925)";"4,900090";"52,371925";
694;"Kalverstraat 164";"1012XJ";"A";"DX01";"";0;0;0;"Commercieel";"Wonen";"2 - In onderzoek - voorbereiding";"C - Verbouw andere functie";2017;3;"";"POINT(4.891122 52.368537)";"4,891122";"52,368537";
695;"Hoogte kadijk 410";"1018BW";"A";"DX02";"";800;0;0;"Commercieel";"Wonen";"2 - In onderzoek - voorbereiding";"C - Verbouw andere functie";2017;4;"";"POINT(4.922890 52.366382)";"4,922890";"52,366382";
696;"Kloveniersburgwal 23 / Klovenierssteeg";"1011JV";"A";"";"";0;0;0;"Kantoor";"Wonen";"2 - In onderzoek - voorbereiding";"C - Verbouw andere functie";2017;0;"";"POINT(4.899752 52.371561)";"4,899752";"52,371561";
697;"Lange leidsedwarsstraat 35";"1017NG";"A";"";"";0;0;0;"Commercieel";"Wonen";"2 - In onderzoek - voorbereiding";"C - Verbouw andere functie";2017;13;"";"POINT(4.884437 52.364170)";"4,884437";"52,364170";
698;"Oostenburgervoorstraat 63 - 69";"1018MP";"A";"";"";0;0;0;"Bedrijf";"Wonen";"3 - In uitvoering";"B - Sloop - Nieuwbouw";2016;7;"";"POINT(4.923756 52.370034)";"4,923756";"52,370034";
699;"Elandsstraat 44";"1016SG";"A";"";"";0;0;0;"Kantoor";"Wonen";"3 - In uitvoering";"B - Sloop - Nieuwbouw";2016;12;"";"POINT(4.880650 52.370554)";"4,880650";"52,370554";
700;"Lindengracht 83";"1015KD";"A";"";"OBS jan Ligthart";0;0;0;"Onderwijs";"Wonen";"3 - In uitvoering";"B - Sloop - Nieuwbouw";2016;4;"";"POINT(4.885107 52.380086)";"4,885107";"52,380086";
702;"Kalfjeslaan 376";"";"K";"";"AMOS";500;0;0;"Maatschappelijk";"Religie";"2 - In onderzoek - voorbereiding";"E - Transformatiewijze nader te bepalen";0;0;"";"POINT(4.859090 52.322376)";"4,859090";"52,322376";
703;"Tweede constantijn Huygensstraat 48";"1054CV";"E";"DX05";"";0;0;0;"Commercieel";"Wonen";"3 - In uitvoering";"C - Verbouw andere functie";2016;3;"";"POINT(4.873166 52.362750)";"4,873166";"52,362750";
704;"Admiraal de Ruijterweg 226";"1055ML";"E";"DX04";"";837;0;0;"Kantoor";"Wonen";"3 - In uitvoering";"C - Verbouw andere functie";2016;8;"";"POINT(4.857921 52.377532)";"4,857921";"52,377532";
707;"Emmastraat 33-37";"";"K";"";"Emmahof";0;0;0;"Maatschappelijk";"Maatschappelijk";"2 - In onderzoek - voorbereiding";"E - Transformatiewijze nader te bepalen";0;0;"";"POINT(4.870462 52.353095)";"4,870462";"52,353095";
708;"Ruysdaelstraat 32-36";"";"K";"";"";0;0;0;"Commercieel";"Commercieel - Wonen";"2 - In onderzoek - voorbereiding";"B - Sloop - Nieuwbouw";0;0;"";"POINT(4.883916 52.354235)";"4,883916";"52,354235";
709;"Museumplein 4";"";"K";"";"Van Gogh Museum";0;0;0;"Kantoor";"Commercieel";"2 - In onderzoek - voorbereiding";"E - Transformatiewijze nader te bepalen";0;0;"";"POINT(4.881674 52.358553)";"4,881674";"52,358553";
710;"Vossiusstraat 54-55";"";"K";"";"";0;0;0;"Kantoor";"Kantoor - Wonen";"2 - In onderzoek - voorbereiding";"C - Verbouw andere functie";0;1;"";"POINT(4.876728 52.359883)";"4,876728";"52,359883";
711;"Karel du Jardinsstraat 33-35";"";"K";"";"";0;0;0;"Maatschappelijk";"Maatschappelijk - Wonen";"2 - In onderzoek - voorbereiding";"C - Verbouw andere functie";0;4;"";"POINT(4.893798 52.351437)";"4,893798";"52,351437";
712;"Jollenpad 12";"";"K";"";"";0;0;0;"Kantoor";"Kantoor";"2 - In onderzoek - voorbereiding";"D - Verbouw zelfde functie";0;0;"";"POINT(4.848769 52.335470)";"4,848769";"52,335470";
713;"Van Boshuizenstraat 75";"1083AS";"K";"";"";460;0;0;"Commercieel";"Commercieel";"3 - In uitvoering";"C - Verbouw andere functie";2016;0;"";"POINT(4.888525 52.324823)";"4,888525";"52,324823";
714;"Boelelaan 403";"";"K";"";"";0;0;0;"Kantoor";"Kantoor";"2 - In onderzoek - voorbereiding";"D - Verbouw zelfde functie";0;0;"";"POINT(4.875065 52.334795)";"4,875065";"52,334795";
715;"Senecastraat 109 - 123";"1064ZK";"F";"DX06";"";0;0;0;"Bedrijf";"Wonen";"3 - In uitvoering";"C - Verbouw andere functie";2016;17;"";"POINT(4.813107 52.374112)";"4,813107";"52,374112";
717;"Mauritskade 17A";"";"M";"DX13";"";1170;0;0;"Kantoor";"Wonen";"3 - In uitvoering";"C - Verbouw andere functie";2016;23;"";"POINT(4.912349 52.360769)";"4,912349";"52,360769";
719;"Heathrowstraat 10 - 12";"";"F";"";"SITA";4700;0;0;"Kantoor";"Wonen";"2 - In onderzoek - voorbereiding";"C - Verbouw andere functie";0;0;"";"POINT(4.832160 52.385796)";"4,832160";"52,385796";
721;"Amstelveenseweg 1";"";"E";"";"";3412;0;0;"Maatschappelijk";"Hotel";"3 - In uitvoering";"C - Verbouw andere functie";2016;0;"";"POINT(4.855614 52.357479)";"4,855614";"52,357479";
730;"Frederiksplein 1A";"";"A";"";"";0;0;0;"Kantoor";"Kantoor";"1 - Leegstand zonder transformatie";"X - Leegstand zonder transformatie";0;0;"";"POINT(4.899967 52.361377)";"4,899967";"52,361377";
731;"Leidsekade 98";"";"A";"";"";0;0;0;"Commercieel";"Commercieel - Maatschappelijk";"2 - In onderzoek - voorbereiding";"C - Verbouw andere functie";0;0;"";"POINT(4.881878 52.363290)";"4,881878";"52,363290";
733;"Vijzelgracht 2a";"";"A";"DX02";"Franse consulaat (walen weeshuis)";2017;0;0;"Kantoor";"Onbekend";"1 - Leegstand zonder transformatie";"X - Leegstand zonder transformatie";0;0;"";"POINT(4.8911590 52.3618240)";"4,8911590";"52,3618240";
778;"Zocherstraat 23";"";"E";"";"ROC";0;0;0;"Onderwijs";"Wonen";"3 - In uitvoering";"B - Sloop - Nieuwbouw";2016;8;"";"POINT(4.858114 52.357361)";"4,858114";"52,357361";
735;"zeeburgerpad 1 - 8";"";"A";"DX02";"";0;0;0;"Kantoor";"Wonen";"2 - In onderzoek - voorbereiding";"C - Verbouw andere functie";0;0;"";"POINT(4.927816 52.366912)";"4,927816";"52,366912";
736;"Zeeburgerpad 12 - 15";"";"A";"DX02";"";0;0;0;"Kantoor";"Wonen";"2 - In onderzoek - voorbereiding";"C - Verbouw andere functie";0;0;"";"POINT(4.928889 52.366931)";"4,928889";"52,366931";
737;"Zeeburgerpad 16";"";"A";"DX02";"";241;0;0;"Kantoor";"Wonen";"2 - In onderzoek - voorbereiding";"C - Verbouw andere functie";0;0;"";"POINT(4.929822 52.366928)";"4,929822";"52,366928";
738;"Zeeburgerpad 17";"";"A";"DX02";"";241;0;0;"Kantoor";"Wonen";"2 - In onderzoek - voorbereiding";"C - Verbouw andere functie";0;0;"";"POINT(4.929997 52.366928)";"4,929997";"52,366928";
745;"Herengracht 518";"";"A";"";"Museum Geelvinck Hinlopenhuis";638;0;0;"Maatschappelijk";"Onbekend";"1 - Leegstand zonder transformatie";"X - Leegstand zonder transformatie";0;0;"";"POINT(4.894592 52.364660)";"4,894592";"52,364660";
740;"Sarphatistraat 47 - 55";"";"A";"DX02";"";0;0;0;"Kantoor";"Hotel";"2 - In onderzoek - voorbereiding";"C - Verbouw andere functie";0;0;"";"POINT(4.906265 52.361046)";"4,906265";"52,361046";
741;"Sarphatistraat 720 - 730";"";"A";"DX02";"";640;0;0;"Commercieel";"Onbekend";"1 - Leegstand zonder transformatie";"E - Transformatiewijze nader te bepalen";0;0;"";"POINT(4.924791 52.366627)";"4,924791";"52,366627";
742;"Singel 532 -540";"";"A";"";"De Geelvink";5608;0;0;"Commercieel - Kantoor";"Commercieel - Kantoor";"2 - In onderzoek - voorbereiding";"D - Verbouw zelfde functie";0;0;"";"POINT(4.891856 52.366663)";"4,891856";"52,366663";
743;"Singel 548";"";"A";"";"Muntstaete";6000;0;0;"Kantoor";"Onbekend";"1 - Leegstand zonder transformatie";"X - Leegstand zonder transformatie";0;0;"";"POINT(4.892719 52.366632)";"4,892719";"52,366632";
744;"Regulierdwarsstraat 50";"";"A";"";"Munthof";1076;0;0;"Commercieel - Kantoor";"Kantoor";"2 - In onderzoek - voorbereiding";"D - Verbouw zelfde functie";0;0;"";"POINT(4.892129 52.366134)";"4,892129";"52,366134";
732;"Maarten Jansz Kosterstraat 18";"";"A";"DX02";"turnzaal";1022;0;0;"Maatschappelijk";"Onbekend";"1 - Leegstand zonder transformatie";"X - Leegstand zonder transformatie";0;0;"";"POINT(4.902281 52.360671)";"4,902281";"52,360671";
747;"Kleine-Gartmanplantsoen 1-3";"";"A";"";"";370;0;0;"Commercieel";"Commercieel - Hotel";"2 - In onderzoek - voorbereiding";"C - Verbouw andere functie";0;0;"";"POINT(4.883294 52.363880)";"4,883294";"52,363880";
748;"Leidseplein 13-17";"";"A";"";"";1075;0;0;"Wonen";"Hotel";"2 - In onderzoek - voorbereiding";"C - Verbouw andere functie";0;0;"";"POINT(4.883417 52.363998)";"4,883417";"52,363998";
749;"Regulierbreestraat 26";"";"A";"";"Tuchinsky";6293;0;0;"Commercieel";"Commercieel";"2 - In onderzoek - voorbereiding";"D - Verbouw zelfde functie";0;0;"";"POINT(4.894712 52.366510)";"4,894712";"52,366510";
750;"Amstel 98";"";"A";"";"";49;0;0;"Hotel";"Commercieel";"2 - In onderzoek - voorbereiding";"C - Verbouw andere functie";0;0;"";"POINT(4.896822 52.366756)";"4,896822";"52,366756";
751;"Kleine-Gartmanplantsoen 5";"";"A";"";"";673;0;0;"Commercieel";"Commercieel - Hotel";"2 - In onderzoek - voorbereiding";"C - Verbouw andere functie";0;0;"";"POINT(4.883450 52.363679)";"4,883450";"52,363679";
752;"Koningsplein 6-20";"";"A";"";"";9000;0;0;"Commercieel - Kantoor - Wonen";"Commercieel - Kantoor - Wonen";"2 - In onderzoek - voorbereiding";"D - Verbouw zelfde functie";0;0;"";"POINT(4.889149 52.367349)";"4,889149";"52,367349";
753;"Regulierbreestraat 30-32";"";"A";"";"Montecorono Properties bv.";500;0;0;"Commercieel";"Commercieel - Wonen";"3 - In uitvoering";"C - Verbouw andere functie";0;0;"";"POINT(4.894833 52.366477)";"4,894833";"52,366477";
754;"Van Heenvlietlaan 220";"";"K";"";"ING Buitenveste";11;0;0;"Kantoor";"Wonen";"4 - Gerealiseerd";"C - Verbouw andere functie";2014;354;"";"POINT(4.881948 52.326904)";"4,881948";"52,326904";
649;"Willem de Zwijgerlaan 350";"";"E";"";"";0;0;0;"Bedrijf";"Hotel";"1 - Leegstand zonder transformatie";"X - Leegstand zonder transformatie";0;0;"";"POINT(4.857806 52.382806)";"4,857806";"52,382806";
758;"Plantage middenlaan 62";"";"A";"DX02";"";600;0;0;"Bedrijf";"Kantoor";"2 - In onderzoek - voorbereiding";"C - Verbouw andere functie";0;0;"";"POINT(4.916350 52.364629)";"4,916350";"52,364629";
757;"Plantage muidergracht 59 - 61";"";"A";"DX02";"";298;0;0;"Hotel";"Wonen";"2 - In onderzoek - voorbereiding";"C - Verbouw andere functie";0;0;"";"POINT(4.910376 52.365811)";"4,910376";"52,365811";
759;"Hoogte Kadijk 145 b";"";"A";"DX02";"scheepswerf";1304;0;0;"Bedrijf";"Wonen";"2 - In onderzoek - voorbereiding";"C - Verbouw andere functie";2017;90;"";"POINT(4.918990 52.368162)";"4,918990";"52,368162";
760;"Oostenburgervoorstraat 71";"";"A";"DX02";"";881;0;0;"Kantoor";"Wonen";"2 - In onderzoek - voorbereiding";"C - Verbouw andere functie";0;0;"";"POINT(4.924021 52.370209)";"4,924021";"52,370209";
761;"VOC kade 10 - 14";"";"A";"DX02";"";2547;0;0;"Bedrijf";"Kantoor";"2 - In onderzoek - voorbereiding";"C - Verbouw andere functie";0;0;"";"POINT(4.925102 52.371398)";"4,925102";"52,371398";
46;"Condensatorweg 54";"1014AX";"E";"DX04";"";8900;1500;17;"Wonen";"Kantoor";"1 - Leegstand zonder transformatie";"X - Leegstand zonder transformatie";0;0;"";"POINT(4.846284 52.389617)";"4,846284";"52,389617";
766;"Plantage middenlaan 52";"";"A";"";"St jakob";30000;0;0;"Maatschappelijk";"Wonen";"2 - In onderzoek - voorbereiding";"B - Sloop - Nieuwbouw";2017;325;"";"POINT(4.914736 52.365061)";"4,914736";"52,365061";
768;"Cruquiusweg 120";"";"M";"DX18";"";0;0;0;"Bedrijf";"Onbekend";"1 - Leegstand zonder transformatie";"E - Transformatiewijze nader te bepalen";0;0;"";"POINT(4.954402 52.368771)";"4,954402";"52,368771";
769;"Cruquiusweg 142";"";"M";"DX18";"";0;0;0;"Bedrijf";"Onbekend";"9 - Fase nader te bepalen";"E - Transformatiewijze nader te bepalen";0;0;"";"POINT(4.955091 52.369858)";"4,955091";"52,369858";
846;"TT Vasumweg 122-124";"";"N";"DX18";"";1700;1400;83;"Kantoor";"Kantoor";"1 - Leegstand zonder transformatie";"X - Leegstand zonder transformatie";0;0;"";"POINT(4.886099 52.408224)";"4,886099";"52,408224";
771;"Cruquiusweg 150 - 154";"";"M";"DX18";"";0;0;0;"Bedrijf";"Onbekend";"9 - Fase nader te bepalen";"X - Leegstand zonder transformatie";0;0;"";"POINT(4.954735 52.371642)";"4,954735";"52,371642";
772;"Jan Tooropstraat 1";"";"F";"DX09";"";0;0;0;"Kantoor";"Wonen";"2 - In onderzoek - voorbereiding";"E - Transformatiewijze nader te bepalen";0;0;"";"POINT(4.836323 52.359602)";"4,836323";"52,359602";
773;"Papaverweg 35";"";"N";"DX";"";3486;0;0;"Kantoor";"Wonen";"1 - Leegstand zonder transformatie";"X - Leegstand zonder transformatie";0;0;"";"POINT(4.905795 52.395220)";"4,905795";"52,395220";
774;"tweede constantijn Huygensstraat 37 - 39";"";"E";"DX05";"";0;0;0;"Maatschappelijk";"Wonen";"2 - In onderzoek - voorbereiding";"C - Verbouw andere functie";0;120;"";"POINT(4.872724 52.364103)";"4,872724";"52,364103";
775;"H.J.E. Wenkebachweg 90 -108";"";"M";"DX15";"";0;0;0;"Bedrijf - Kantoor";"Hotel";"2 - In onderzoek - voorbereiding";"C - Verbouw andere functie";0;0;"";"POINT(4.927610 52.334808)";"4,927610";"52,334808";
776;"Bos en Lommerweg 156 I";"";"E";"DX04";"";0;0;0;"Kantoor";"Wonen";"2 - In onderzoek - voorbereiding";"C - Verbouw andere functie";0;0;"";"POINT(4.854010 52.380575)";"4,854010";"52,380575";
891;"Keizergracht 612";"1017EP";"A";"DX02";"";252;0;0;"Kantoor";"Wonen";"2 - In onderzoek - voorbereiding";"C - Verbouw andere functie";0;0;"";"POINT(4.8902786 52.3638954)";"4,8902786";"52,3638954";
892;"Keizersgracht 743";"1017 D";"A";"DX02";"";423;0;0;"Kantoor";"Wonen";"2 - In onderzoek - voorbereiding";"C - Verbouw andere functie";0;0;"";"POINT(4.8998299 52.3643641)";"4,8998299";"52,3643641";
782;"1e van swindestraat 74 -76";"";"M";"DX13";"";278;0;0;"Commercieel";"Wonen";"2 - In onderzoek - voorbereiding";"C - Verbouw andere functie";2017;12;"";"POINT(4.928018 52.362626)";"4,928018";"52,362626";
784;"Kalkoenstraat 11";"";"N";"";"";0;0;0;"Kantoor";"Wonen";"3 - In uitvoering";"C - Verbouw andere functie";2016;9;"";"POINT(4.923364 52.389225)";"4,923364";"52,389225";
785;"Kerkstraat 403";"";"A";"DX02";"";0;0;0;"Bedrijf";"Wonen";"2 - In onderzoek - voorbereiding";"B - Sloop - Nieuwbouw";2017;1;"";"POINT(4.899621 52.363148)";"4,899621";"52,363148";
786;"Utrechtsedwarsstraat 74";"";"A";"DX02";"";0;0;0;"Bedrijf";"Wonen";"2 - In onderzoek - voorbereiding";"B - Sloop - Nieuwbouw";2017;2;"";"POINT(4.898951 52.361378)";"4,898951";"52,361378";
787;"Lijnbaansgracht 111 / Rozengracht 204 nevenadres";"";"A";"DX02";"";0;0;0;"Commercieel";"Wonen";"2 - In onderzoek - voorbereiding";"B - Sloop - Nieuwbouw";2017;3;"";"POINT(4.876782 52.372843)";"4,876782";"52,372843";
788;"Fokke simonszstraat 61 - 63";"";"A";"DX02";"";0;0;0;"Maatschappelijk";"Wonen";"2 - In onderzoek - voorbereiding";"B - Sloop - Nieuwbouw";2017;19;"";"POINT(4.894632 52.360302)";"4,894632";"52,360302";
792;"Jacob geelstraat 54";"";"A";"";"comeniuslyceum";0;0;0;"Onderwijs";"Wonen";"2 - In onderzoek - voorbereiding";"B - Sloop - Nieuwbouw";2017;76;"";"POINT(4.830935 52.359579)";"4,830935";"52,359579";
793;"Jan Tooropstraat 5";"";"F";"";"";0;0;0;"Maatschappelijk";"Wonen";"2 - In onderzoek - voorbereiding";"B - Sloop - Nieuwbouw";2017;13;"";"POINT(4.836265 52.359995)";"4,836265";"52,359995";
794;"Hondecoeterstraat 10";"";"K";"";"";0;0;0;"Bedrijf";"Wonen";"2 - In onderzoek - voorbereiding";"B - Sloop - Nieuwbouw";2017;8;"";"POINT(4.878070 52.354495)";"4,878070";"52,354495";
795;"Bessemerstraat 23";"";"M";"";"";0;0;0;"Bedrijf";"Wonen";"2 - In onderzoek - voorbereiding";"B - Sloop - Nieuwbouw";2017;4;"";"POINT(4.923972 52.352037)";"4,923972";"52,352037";
796;"Zeeburgerdijk 112 / Billitonstraat 1";"";"M";"DX15";"modeschool";0;0;0;"Onderwijs";"Wonen";"2 - In onderzoek - voorbereiding";"B - Sloop - Nieuwbouw";2017;26;"";"POINT(4.938156 52.365947)";"4,938156";"52,365947";
799;"Centrale groothandelsmarkt ??";"";"E";"";"Foodcenter";0;0;0;"Bedrijf";"Wonen";"2 - In onderzoek - voorbereiding";"B - Sloop - Nieuwbouw";2018;100;"";"POINT(4.868028 52.376982)";"4,868028";"52,376982";
800;"zeeburgerdijk 209 - 211";"";"M";"DX14";"";0;0;0;"Bedrijf";"Wonen";"2 - In onderzoek - voorbereiding";"B - Sloop - Nieuwbouw";2018;68;"";"POINT(4.942836 52.366325)";"4,942836";"52,366325";
801;"zeeburgerdijk 215 - 265";"";"M";"DX14";"leger des heils";0;0;0;"Maatschappelijk";"Wonen";"1 - Leegstand zonder transformatie";"A - Tijdelijke functie";2018;20;"";"POINT(4.943717 52.366324)";"4,943717";"52,366324";
837;"Burgemeester de Vlugtlaan 190";"";"F";"";"";1150;1150;100;"Kantoor";"";"1 - Leegstand zonder transformatie";"X - Leegstand zonder transformatie";0;0;"";"POINT(4.821844 52.381658)";"4,821844";"52,381658";
838;"James Wattstraat 79";"";"M";"DX15";"Europahuis";12000;5700;48;"Kantoor";"Kantoor - Wonen";"2 - In onderzoek - voorbereiding";"C - Verbouw andere functie";0;0;"";"POINT(4.921086 52.349064)";"4,921086";"52,349064";
839;"Prins Bernadrplein 200";"";"M";"DX15";"Amstelgebouw";20500;2400;12;"Kantoor";"Kantoor";"1 - Leegstand zonder transformatie";"X - Leegstand zonder transformatie";0;0;"";"POINT(4.919745 52.347865)";"4,919745";"52,347865";
840;"Stephensonstraat 19";"";"M";"DX15";"";2100;2100;100;"Kantoor";"Kantoor";"1 - Leegstand zonder transformatie";"X - Leegstand zonder transformatie";0;0;"";"POINT(4.920509 52.350297)";"4,920509";"52,350297";
841;"Veemkade 562 - 568";"";"M";"DX15";"Boston";7200;3400;47;"Kantoor";"Kantoor";"1 - Leegstand zonder transformatie";"X - Leegstand zonder transformatie";0;0;"";"POINT(4.926268 52.375959)";"4,926268";"52,375959";
858;"Herengracht 520";"";"A";"DX01";"";1300;1300;100;"Kantoor";"Kantoor";"1 - Leegstand zonder transformatie";"X - Leegstand zonder transformatie";0;0;"";"POINT(4.894841 52.364622)";"4,894841";"52,364622";
854;"singel 542-548/reguliersdwarsstaat 75";"";"A";"DX01";"Muntstaete";11500;1800;16;"Kantoor";"Kantoor";"1 - Leegstand zonder transformatie";"X - Leegstand zonder transformatie";0;0;"";"POINT(4.892429 52.366564)";"4,892429";"52,366564";
853;"ONBEKEND";"De Rui";"A";"DX01";"";5000;1500;30;"Kantoor";"Kantoor";"1 - Leegstand zonder transformatie";"X - Leegstand zonder transformatie";0;0;"";"POINT(4.894639 52.382344)";"4,894639";"52,382344";
856;"paleisstraat 1-5/dam 16/kalverstraat 2-8";"";"A";"DX01";"De Groote Club";4300;1900;44;"Kantoor";"Kantoor";"1 - Leegstand zonder transformatie";"X - Leegstand zonder transformatie";0;0;"";"POINT(4.891660 52.372622)";"4,891660";"52,372622";
857;"Herengracht 479";"";"A";"DX01";"Gouden Bocht";1400;1400;100;"Kantoor";"Kantoor";"1 - Leegstand zonder transformatie";"X - Leegstand zonder transformatie";0;0;"";"POINT(4.890439 52.365937)";"4,890439";"52,365937";
861;"Amstelveenseweg 88-90";"1075XJ";"";"";"";1617;808;50;"Kantoor";"Kantoor";"1 - Leegstand zonder transformatie";"X - Leegstand zonder transformatie";0;0;"";"POINT(4.8545931 52.3557829)";"4,8545931";"52,3557829";
862;"Buitenveldertselaan 158";"1081AB";"K";"DX12";"";1595;798;50;"Kantoor";"Kantoor";"1 - Leegstand zonder transformatie";"X - Leegstand zonder transformatie";0;0;"";"POINT(4.8679385 52.3259978)";"4,8679385";"52,3259978";
863;"De boelelaan 1065-1067";"1082SB";"K";"DX12";"";1813;906;50;"Kantoor";"Kantoor";"1 - Leegstand zonder transformatie";"X - Leegstand zonder transformatie";0;0;"";"POINT(4.8701593 52.3346900)";"4,8701593";"52,3346900";
864;"Rijnsburgstraat 9-11";"1059AT";"K";"DX12";"De Schinkel";7101;1181;17;"Kantoor";"Kantoor";"1 - Leegstand zonder transformatie";"X - Leegstand zonder transformatie";0;0;"";"POINT(4.8504572 52.3475497)";"4,8504572";"52,3475497";
865;"Apollolaan 151";"1077AR";"K";"DX12";"Minerva";5717;1575;28;"Kantoor";"Kantoor";"1 - Leegstand zonder transformatie";"X - Leegstand zonder transformatie";0;0;"";"POINT(4.8729086 52.3499768)";"4,8729086";"52,3499768";
866;"Apollolaan 153";"1077AS";"K";"DX12";"Apollo";5616;1599;28;"Kantoor";"Kantoor";"1 - Leegstand zonder transformatie";"X - Leegstand zonder transformatie";0;0;"";"POINT(4.8715594 52.3499513)";"4,8715594";"52,3499513";
867;"Burgerweeshuispad 101-131";"1076ER";"K";"DX12";"Tripolis";7600;2735;36;"Kantoor";"Kantoor";"1 - Leegstand zonder transformatie";"X - Leegstand zonder transformatie";0;0;"";"POINT(4.8554769 52.3401886)";"4,8554769";"52,3401886";
868;"nijenburg 2-73/75-152";"1081GE";"K";"DX12";"";3563;1060;30;"Kantoor";"Kantoor";"1 - Leegstand zonder transformatie";"X - Leegstand zonder transformatie";0;0;"";"POINT(4.8658986 52.3285066)";"4,8658986";"52,3285066";
869;"beethovenstraat 500-522";"1082PR";"K";"DX12";"500 Beethoven";5600;1600;29;"Kantoor";"Kantoor";"1 - Leegstand zonder transformatie";"X - Leegstand zonder transformatie";0;0;"";"POINT(4.8774415 52.3357496)";"4,8774415";"52,3357496";
870;"Amstelveenseweg 638-700";"1081JJ";"K";"DX12";"Meerparc";11700;2166;19;"Kantoor";"Kantoor";"1 - Leegstand zonder transformatie";"X - Leegstand zonder transformatie";0;0;"";"POINT(4.8567644 52.3338751)";"4,8567644";"52,3338751";
871;"De Boelelaan 7";"1083HJ";"K";"DX12";"Officia 1";13704;3426;25;"Kantoor";"Kantoor";"1 - Leegstand zonder transformatie";"X - Leegstand zonder transformatie";0;0;"";"POINT(4.8864484 52.3344801)";"4,8864484";"52,3344801";
872;"Claude Debussylaan 12-24";"1082HW";"K";"DX12";"Vinoly";28774;2121;7;"Kantoor";"Kantoor";"1 - Leegstand zonder transformatie";"X - Leegstand zonder transformatie";0;0;"";"POINT(4.8724928 52.3376483)";"4,8724928";"52,3376483";
873;"Strawinskylaan 1-1799";"1077XX";"K";"DX12";"Wtc";70364;5245;7;"Kantoor";"Kantoor";"1 - Leegstand zonder transformatie";"X - Leegstand zonder transformatie";0;0;"";"POINT(4.8740244 52.3403343)";"4,8740244";"52,3403343";
874;"Antonio Vivaldistraat 148";"1083HP";"K";"DX12";"Cross Towers";31082;3885;12;"Kantoor";"Kantoor";"1 - Leegstand zonder transformatie";"X - Leegstand zonder transformatie";0;0;"";"POINT(4.8847747 52.3372336)";"4,8847747";"52,3372336";
875;"Strawinskylaan 3001-3137";"1077ZX";"K";"DX12";"Atrium";35000;5202;15;"Kantoor";"Kantoor";"1 - Leegstand zonder transformatie";"X - Leegstand zonder transformatie";0;0;"";"POINT(4.8697422 52.3399255)";"4,8697422";"52,3399255";
876;"Jan van Goyenkade 9";"1075HP";"K";"DX12";"";1088;1088;100;"Kantoor";"Wonen";"3 - In uitvoering";"C - Verbouw andere functie";2017;1;"";"POINT(4.8682362 52.3519984)";"4,8682362";"52,3519984";
877;"Hoogte Kadijk 400";"1018BW";"A";"";"Energetica";20000;20000;100;"Bedrijf";"Onbekend";"2 - In onderzoek - voorbereiding";"E - Transformatiewijze nader te bepalen";0;0;"";"POINT(4.9216390 52.3668806)";"4,9216390";"52,3668806";
879;"Museumplein 17";"1071DJ";"K";"DX12";"";1140;1140;100;"Kantoor";"Kantoor";"1 - Leegstand zonder transformatie";"X - Leegstand zonder transformatie";0;0;"";"POINT(4.8822816 52.3563845)";"4,8822816";"52,3563845";
880;"Stadhouderskade 55";"1072AB";"K";"DX12";"Willemshuis";4300;2450;57;"Kantoor";"Kantoor";"1 - Leegstand zonder transformatie";"X - Leegstand zonder transformatie";0;0;"";"POINT(4.8883219 52.3587911)";"4,8883219";"52,3587911";
881;"Amstelveenseweg 500";"1081KL";"K";"DX12";"Infinity";20000;9000;45;"Kantoor";"Kantoor";"1 - Leegstand zonder transformatie";"X - Leegstand zonder transformatie";0;0;"";"POINT(4.8552033 52.3371681)";"4,8552033";"52,3371681";
889;"Sophialaan 19";"1075EH";"K";"DX10";"";0;0;0;"Kantoor";"Wonen";"3 - In uitvoering";"C - Verbouw andere functie";2018;5;"";"POINT(4.8593943 52.3524096)";"4,8593943";"52,3524096";
884;"Keizersgracht 397";"1016EK";"A";"DX01";"";0;0;0;"Kantoor";"Wonen";"3 - In uitvoering";"C - Verbouw andere functie";2018;3;"";"POINT(4.8850000 52.3677727)";"4,8850000";"52,3677727";
890;"Jan van Goyenkade 7";"1075HN";"K";"DX12";"";0;0;0;"Kantoor";"Wonen";"3 - In uitvoering";"C - Verbouw andere functie";2017;4;"";"POINT(4.8685393 52.3520714)";"4,8685393";"52,3520714";
893;"Ijburglaan 560";"1087BT";"M";"DX15";"";0;0;0;"Kantoor";"Wonen";"2 - In onderzoek - voorbereiding";"C - Verbouw andere functie";0;0;"";"POINT(4.9893178 52.3579907)";"4,9893178";"52,3579907";
895;"Tweede oosterparkstraat 209";"1092BK";"M";"DX15";"";674;0;0;"Kantoor";"Wonen";"2 - In onderzoek - voorbereiding";"C - Verbouw andere functie";0;4;"";"POINT(4.9218173 52.3586011)";"4,9218173";"52,3586011";
896;"Overamstelstraat 32";"1091TP";"M";"DX13";"";169;0;0;"Kantoor";"Wonen";"2 - In onderzoek - voorbereiding";"C - Verbouw andere functie";0;0;"";"POINT(4.9137841 52.3504958)";"4,9137841";"52,3504958";
897;"Vrolikstraat 40";"1091VG";"M";"DX13";"";0;0;0;"Kantoor";"Wonen";"2 - In onderzoek - voorbereiding";"C - Verbouw andere functie";0;0;"";"POINT(4.9154980 52.3554192)";"4,9154980";"52,3554192";
898;"Nieuwezijds Voorburgwal 292";"1012 R";"A";"DX01";"";658;658;100;"Kantoor";"Wonen";"2 - In onderzoek - voorbereiding";"C - Verbouw andere functie";2017;0;"";"POINT(4.8898776 52.3707742)";"4,8898776";"52,3707742";
899;"Hembrugstraat 11";"1013WV";"E";"DX03";"";59;0;0;"Kantoor";"Wonen";"2 - In onderzoek - voorbereiding";"C - Verbouw andere functie";0;0;"";"POINT(4.8768970 52.3919138)";"4,8768970";"52,3919138";
900;"Barentszstraat 128";"1013NS";"E";"DX03";"";0;0;0;"Kantoor";"Wonen";"2 - In onderzoek - voorbereiding";"C - Verbouw andere functie";0;0;"";"POINT(4.8876527 52.3891191)";"4,8876527";"52,3891191";
901;"Keizersgracht 347";"1016 E";"A";"DX01";"";66;0;0;"Kantoor";"Wonen";"2 - In onderzoek - voorbereiding";"C - Verbouw andere functie";2017;1;"";"POINT(4.8849718 52.3691030)";"4,8849718";"52,3691030";
902;"Nova zemblastraat 2";"1013RK";"E";"DX03";"";130;0;0;"Kantoor";"Wonen";"2 - In onderzoek - voorbereiding";"C - Verbouw andere functie";0;0;"";"POINT(4.8846379 52.3902760)";"4,8846379";"52,3902760";
903;"Witte de withstraat 116-118";"1057ZG";"E";"DX05";"";0;0;0;"Kantoor";"Wonen";"2 - In onderzoek - voorbereiding";"C - Verbouw andere functie";0;0;"";"POINT(4.8594600 52.3693801)";"4,8594600";"52,3693801";
904;"Kortenaerplein 33";"1057NE";"E";"DX05";"";0;0;0;"Kantoor";"Wonen";"2 - In onderzoek - voorbereiding";"C - Verbouw andere functie";0;0;"";"POINT(4.8632835 52.3691334)";"4,8632835";"52,3691334";
905;"Oranje nassaulaan 19";"1075AH";"K";"DX10";"";0;0;0;"Kantoor";"Wonen";"2 - In onderzoek - voorbereiding";"C - Verbouw andere functie";0;0;"";"POINT(4.8632433 52.3546620)";"4,8632433";"52,3546620";
906;"Oranje nassaulaan 29";"1075AJ";"K";"DX10";"";0;0;0;"Kantoor";"Wonen";"2 - In onderzoek - voorbereiding";"C - Verbouw andere functie";0;0;"";"POINT(4.8613852 52.3542545)";"4,8613852";"52,3542545";
907;"Oranje nassaulaan 30";"1075AP";"K";"DX10";"";0;0;0;"Kantoor";"Wonen";"2 - In onderzoek - voorbereiding";"C - Verbouw andere functie";0;0;"";"POINT(4.8592991 52.3540759)";"4,8592991";"52,3540759";
908;"Des presstraat 8";"1075NX";"K";"DX10";"";0;0;0;"Kantoor";"Wonen";"2 - In onderzoek - voorbereiding";"C - Verbouw andere functie";0;0;"";"POINT(4.8596102 52.3507948)";"4,8596102";"52,3507948";
909;"Jacob marisplein 32";"1058JD";"K";"DX12";"";0;0;0;"Kantoor";"Wonen";"2 - In onderzoek - voorbereiding";"C - Verbouw andere functie";0;0;"";"POINT(4.8520826 52.3547578)";"4,8520826";"52,3547578";
911;"Minervaplein 9";"1077TH";"K";"DX10";"";0;0;0;"Kantoor";"Wonen";"2 - In onderzoek - voorbereiding";"C - Verbouw andere functie";0;0;"";"POINT(4.8739305 52.3472697)";"4,8739305";"52,3472697";
912;"Rustenburgerstraat 351";"1072GS";"K";"DX10";"";0;0;0;"Kantoor";"Wonen";"2 - In onderzoek - voorbereiding";"C - Verbouw andere functie";0;0;"";"POINT(4.8931968 52.3515910)";"4,8931968";"52,3515910";
913;"Achillesstraat 89";"1076PX";"K";"DX11";"";0;0;0;"Kantoor";"Wonen";"2 - In onderzoek - voorbereiding";"C - Verbouw andere functie";0;0;"";"POINT(4.8647681 52.3447128)";"4,8647681";"52,3447128";
914;"Achillesstraat 91";"1076PX";"K";"DX11";"";0;0;0;"Kantoor";"Wonen";"2 - In onderzoek - voorbereiding";"C - Verbouw andere functie";0;0;"";"POINT(4.8647922 52.3446669)";"4,8647922";"52,3446669";
919;"Emmastraat 36-38";"1075HW";"K";"DX12";"";0;0;0;"Kantoor";"Wonen";"2 - In onderzoek - voorbereiding";"C - Verbouw andere functie";0;0;"";"POINT(4.8697396 52.3527723)";"4,8697396";"52,3527723";
920;"Jan luijkenstraat 5";"1071CJ";"K";"DX10";"";0;0;0;"Kantoor";"Wonen";"2 - In onderzoek - voorbereiding";"C - Verbouw andere functie";0;0;"";"POINT(4.8825055 52.3599146)";"4,8825055";"52,3599146";
921;"J.J. Viottastraat 46-48";"1071JT";"K";"DX12";"";0;0;0;"Kantoor";"Wonen";"2 - In onderzoek - voorbereiding";"C - Verbouw andere functie";0;0;"";"POINT(4.8711839 52.3529050)";"4,8711839";"52,3529050";
922;"Alexander Boersstraat 10";"1071KX";"K";"DX12";"";0;0;0;"Kantoor";"Wonen";"2 - In onderzoek - voorbereiding";"C - Verbouw andere functie";0;0;"";"POINT(4.8786137 52.3570431)";"4,8786137";"52,3570431";
923;"Prins Hendriklaan 15";"1075AX";"K";"DX10";"";0;0;0;"Kantoor";"Wonen";"2 - In onderzoek - voorbereiding";"C - Verbouw andere functie";0;0;"";"POINT(4.8644248 52.3541754)";"4,8644248";"52,3541754";
924;"Willemsparkweg 58";"1071HJ";"K";"DX10";"";0;0;0;"Kantoor";"Wonen";"2 - In onderzoek - voorbereiding";"C - Verbouw andere functie";0;0;"";"POINT(4.8753789 52.3574813)";"4,8753789";"52,3574813";
925;"Churchill-laan 223";"1078ED";"K";"DX12";"";0;0;0;"Kantoor";"Wonen";"2 - In onderzoek - voorbereiding";"C - Verbouw andere functie";0;0;"";"POINT(4.8863505 52.3471501)";"4,8863505";"52,3471501";

