{"0":{"Postcode":1011,"Huidige_functie":"Bedrijf","Gebouwnaam":1,"Bruto_vloeroppervlak":1,"Leegstand_bvo":1,"Leegstand_perc":1,"Toekomstige_functie":1,"Transformatiefase":1,"Transformatiewijze":1,"Startbouw":1,"Aantal_woningen":1,"COORDS":1,"LNG":1,"LAT":1},"1":{"Postcode":1011,"Huidige_functie":"Kantoor","Gebouwnaam":1,"Bruto_vloeroppervlak":1,"Leegstand_bvo":1,"Leegstand_perc":1,"Toekomstige_functie":1,"Transformatiefase":1,"Transformatiewijze":1,"Startbouw":1,"Aantal_woningen":1,"COORDS":1,"LNG":1,"LAT":1},"2":{"Postcode":1011,"Huidige_functie":"Wonen","Gebouwnaam":1,"Bruto_vloeroppervlak":1,"Leegstand_bvo":1,"Leegstand_perc":1,"Toekomstige_functie":1,"Transformatiefase":1,"Transformatiewijze":1,"Startbouw":1,"Aantal_woningen":1,"COORDS":1,"LNG":1,"LAT":1},"3":{"Postcode":1012,"Huidige_functie":"Kantoor","Gebouwnaam":3,"Bruto_vloeroppervlak":11,"Leegstand_bvo":11,"Leegstand_perc":11,"Toekomstige_functie":11,"Transformatiefase":11,"Transformatiewijze":11,"Startbouw":11,"Aantal_woningen":11,"COORDS":11,"LNG":11,"LAT":11},"4":{"Postcode":1012,"Huidige_functie":"Kantoor - Wonen","Gebouwnaam":1,"Bruto_vloeroppervlak":1,"Leegstand_bvo":1,"Leegstand_perc":1,"Toekomstige_functie":1,"Transformatiefase":1,"Transformatiewijze":1,"Startbouw":1,"Aantal_woningen":1,"COORDS":1,"LNG":1,"LAT":1},"5":{"Postcode":1012,"Huidige_functie":"Onderwijs","Gebouwnaam":1,"Bruto_vloeroppervlak":3,"Leegstand_bvo":3,"Leegstand_perc":3,"Toekomstige_functie":3,"Transformatiefase":3,"Transformatiewijze":3,"Startbouw":3,"Aantal_woningen":3,"COORDS":3,"LNG":3,"LAT":3},"6":{"Postcode":1013,"Huidige_functie":"Bedrijf","Gebouwnaam":0,"Bruto_vloeroppervlak":1,"Leegstand_bvo":1,"Leegstand_perc":1,"Toekomstige_functie":1,"Transformatiefase":1,"Transformatiewijze":1,"Startbouw":1,"Aantal_woningen":1,"COORDS":1,"LNG":1,"LAT":1},"7":{"Postcode":1013,"Huidige_functie":"Bedrijf - Hotel - Wonen","Gebouwnaam":0,"Bruto_vloeroppervlak":1,"Leegstand_bvo":1,"Leegstand_perc":1,"Toekomstige_functie":1,"Transformatiefase":1,"Transformatiewijze":1,"Startbouw":1,"Aantal_woningen":1,"COORDS":1,"LNG":1,"LAT":1},"8":{"Postcode":1013,"Huidige_functie":"Bedrijf - Wonen","Gebouwnaam":0,"Bruto_vloeroppervlak":1,"Leegstand_bvo":1,"Leegstand_perc":1,"Toekomstige_functie":1,"Transformatiefase":1,"Transformatiewijze":1,"Startbouw":1,"Aantal_woningen":1,"COORDS":1,"LNG":1,"LAT":1},"9":{"Postcode":1013,"Huidige_functie":"Kantoor","Gebouwnaam":0,"Bruto_vloeroppervlak":3,"Leegstand_bvo":3,"Leegstand_perc":3,"Toekomstige_functie":3,"Transformatiefase":3,"Transformatiewijze":3,"Startbouw":3,"Aantal_woningen":3,"COORDS":3,"LNG":3,"LAT":3},"10":{"Postcode":1013,"Huidige_functie":"Onbekend","Gebouwnaam":0,"Bruto_vloeroppervlak":1,"Leegstand_bvo":1,"Leegstand_perc":1,"Toekomstige_functie":1,"Transformatiefase":1,"Transformatiewijze":1,"Startbouw":1,"Aantal_woningen":1,"COORDS":1,"LNG":1,"LAT":1},"11":{"Postcode":1014,"Huidige_functie":"Bedrijf","Gebouwnaam":0,"Bruto_vloeroppervlak":1,"Leegstand_bvo":1,"Leegstand_perc":1,"Toekomstige_functie":1,"Transformatiefase":1,"Transformatiewijze":1,"Startbouw":1,"Aantal_woningen":1,"COORDS":1,"LNG":1,"LAT":1},"12":{"Postcode":1014,"Huidige_functie":"Kantoor","Gebouwnaam":7,"Bruto_vloeroppervlak":7,"Leegstand_bvo":7,"Leegstand_perc":7,"Toekomstige_functie":7,"Transformatiefase":7,"Transformatiewijze":7,"Startbouw":7,"Aantal_woningen":7,"COORDS":7,"LNG":7,"LAT":7},"13":{"Postcode":1014,"Huidige_functie":"Wonen","Gebouwnaam":0,"Bruto_vloeroppervlak":1,"Leegstand_bvo":1,"Leegstand_perc":1,"Toekomstige_functie":1,"Transformatiefase":1,"Transformatiewijze":1,"Startbouw":1,"Aantal_woningen":1,"COORDS":1,"LNG":1,"LAT":1},"14":{"Postcode":1015,"Huidige_functie":"Commercieel - Kantoor - Wonen","Gebouwnaam":0,"Bruto_vloeroppervlak":1,"Leegstand_bvo":1,"Leegstand_perc":1,"Toekomstige_functie":1,"Transformatiefase":1,"Transformatiewijze":1,"Startbouw":1,"Aantal_woningen":1,"COORDS":1,"LNG":1,"LAT":1},"15":{"Postcode":1015,"Huidige_functie":"Kantoor","Gebouwnaam":2,"Bruto_vloeroppervlak":2,"Leegstand_bvo":2,"Leegstand_perc":2,"Toekomstige_functie":2,"Transformatiefase":2,"Transformatiewijze":2,"Startbouw":2,"Aantal_woningen":2,"COORDS":2,"LNG":2,"LAT":2},"16":{"Postcode":1016,"Huidige_functie":"Kantoor","Gebouwnaam":0,"Bruto_vloeroppervlak":4,"Leegstand_bvo":4,"Leegstand_perc":4,"Toekomstige_functie":4,"Transformatiefase":4,"Transformatiewijze":4,"Startbouw":4,"Aantal_woningen":4,"COORDS":4,"LNG":4,"LAT":4},"17":{"Postcode":1016,"Huidige_functie":"Kantoor - Wonen","Gebouwnaam":0,"Bruto_vloeroppervlak":1,"Leegstand_bvo":1,"Leegstand_perc":1,"Toekomstige_functie":1,"Transformatiefase":1,"Transformatiewijze":1,"Startbouw":1,"Aantal_woningen":1,"COORDS":1,"LNG":1,"LAT":1},"18":{"Postcode":1017,"Huidige_functie":"Kantoor","Gebouwnaam":0,"Bruto_vloeroppervlak":12,"Leegstand_bvo":12,"Leegstand_perc":12,"Toekomstige_functie":12,"Transformatiefase":12,"Transformatiewijze":12,"Startbouw":12,"Aantal_woningen":12,"COORDS":12,"LNG":12,"LAT":12},"19":{"Postcode":1017,"Huidige_functie":"Kantoor - Wonen","Gebouwnaam":0,"Bruto_vloeroppervlak":1,"Leegstand_bvo":1,"Leegstand_perc":1,"Toekomstige_functie":1,"Transformatiefase":1,"Transformatiewijze":1,"Startbouw":1,"Aantal_woningen":1,"COORDS":1,"LNG":1,"LAT":1},"20":{"Postcode":1017,"Huidige_functie":"Onbekend","Gebouwnaam":1,"Bruto_vloeroppervlak":1,"Leegstand_bvo":1,"Leegstand_perc":1,"Toekomstige_functie":1,"Transformatiefase":1,"Transformatiewijze":1,"Startbouw":1,"Aantal_woningen":1,"COORDS":1,"LNG":1,"LAT":1},"21":{"Postcode":1017,"Huidige_functie":"Onderwijs - Wonen","Gebouwnaam":0,"Bruto_vloeroppervlak":1,"Leegstand_bvo":1,"Leegstand_perc":1,"Toekomstige_functie":1,"Transformatiefase":1,"Transformatiewijze":1,"Startbouw":1,"Aantal_woningen":1,"COORDS":1,"LNG":1,"LAT":1},"22":{"Postcode":1018,"Huidige_functie":"Bedrijf","Gebouwnaam":1,"Bruto_vloeroppervlak":2,"Leegstand_bvo":2,"Leegstand_perc":2,"Toekomstige_functie":2,"Transformatiefase":2,"Transformatiewijze":2,"Startbouw":2,"Aantal_woningen":2,"COORDS":2,"LNG":2,"LAT":2},"23":{"Postcode":1018,"Huidige_functie":"Bedrijf - Wonen","Gebouwnaam":0,"Bruto_vloeroppervlak":1,"Leegstand_bvo":1,"Leegstand_perc":1,"Toekomstige_functie":1,"Transformatiefase":1,"Transformatiewijze":1,"Startbouw":1,"Aantal_woningen":1,"COORDS":1,"LNG":1,"LAT":1},"24":{"Postcode":1018,"Huidige_functie":"Commercieel","Gebouwnaam":0,"Bruto_vloeroppervlak":1,"Leegstand_bvo":1,"Leegstand_perc":1,"Toekomstige_functie":1,"Transformatiefase":1,"Transformatiewijze":1,"Startbouw":1,"Aantal_woningen":1,"COORDS":1,"LNG":1,"LAT":1},"25":{"Postcode":1018,"Huidige_functie":"Commercieel - Wonen","Gebouwnaam":0,"Bruto_vloeroppervlak":1,"Leegstand_bvo":1,"Leegstand_perc":1,"Toekomstige_functie":1,"Transformatiefase":1,"Transformatiewijze":1,"Startbouw":1,"Aantal_woningen":1,"COORDS":1,"LNG":1,"LAT":1},"26":{"Postcode":1018,"Huidige_functie":"Kantoor","Gebouwnaam":0,"Bruto_vloeroppervlak":2,"Leegstand_bvo":2,"Leegstand_perc":2,"Toekomstige_functie":2,"Transformatiefase":2,"Transformatiewijze":2,"Startbouw":2,"Aantal_woningen":2,"COORDS":2,"LNG":2,"LAT":2},"27":{"Postcode":1018,"Huidige_functie":"Kantoor - Bedrijf","Gebouwnaam":0,"Bruto_vloeroppervlak":1,"Leegstand_bvo":1,"Leegstand_perc":1,"Toekomstige_functie":1,"Transformatiefase":1,"Transformatiewijze":1,"Startbouw":1,"Aantal_woningen":1,"COORDS":1,"LNG":1,"LAT":1},"28":{"Postcode":1018,"Huidige_functie":"Onderwijs","Gebouwnaam":1,"Bruto_vloeroppervlak":1,"Leegstand_bvo":1,"Leegstand_perc":1,"Toekomstige_functie":1,"Transformatiefase":1,"Transformatiewijze":1,"Startbouw":1,"Aantal_woningen":1,"COORDS":1,"LNG":1,"LAT":1},"29":{"Postcode":1019,"Huidige_functie":"Bedrijf","Gebouwnaam":0,"Bruto_vloeroppervlak":2,"Leegstand_bvo":2,"Leegstand_perc":2,"Toekomstige_functie":2,"Transformatiefase":2,"Transformatiewijze":2,"Startbouw":2,"Aantal_woningen":2,"COORDS":2,"LNG":2,"LAT":2},"30":{"Postcode":1019,"Huidige_functie":"Kantoor","Gebouwnaam":0,"Bruto_vloeroppervlak":1,"Leegstand_bvo":1,"Leegstand_perc":1,"Toekomstige_functie":1,"Transformatiefase":1,"Transformatiewijze":1,"Startbouw":1,"Aantal_woningen":1,"COORDS":1,"LNG":1,"LAT":1},"31":{"Postcode":1021,"Huidige_functie":"Bedrijf","Gebouwnaam":0,"Bruto_vloeroppervlak":1,"Leegstand_bvo":1,"Leegstand_perc":1,"Toekomstige_functie":1,"Transformatiefase":1,"Transformatiewijze":1,"Startbouw":1,"Aantal_woningen":1,"COORDS":1,"LNG":1,"LAT":1},"32":{"Postcode":1021,"Huidige_functie":"Kantoor","Gebouwnaam":0,"Bruto_vloeroppervlak":1,"Leegstand_bvo":1,"Leegstand_perc":1,"Toekomstige_functie":1,"Transformatiefase":1,"Transformatiewijze":1,"Startbouw":1,"Aantal_woningen":1,"COORDS":1,"LNG":1,"LAT":1},"33":{"Postcode":1024,"Huidige_functie":"Kantoor","Gebouwnaam":1,"Bruto_vloeroppervlak":1,"Leegstand_bvo":1,"Leegstand_perc":1,"Toekomstige_functie":1,"Transformatiefase":1,"Transformatiewijze":1,"Startbouw":1,"Aantal_woningen":1,"COORDS":1,"LNG":1,"LAT":1},"34":{"Postcode":1027,"Huidige_functie":"Bedrijf","Gebouwnaam":0,"Bruto_vloeroppervlak":1,"Leegstand_bvo":1,"Leegstand_perc":1,"Toekomstige_functie":1,"Transformatiefase":1,"Transformatiewijze":1,"Startbouw":1,"Aantal_woningen":1,"COORDS":1,"LNG":1,"LAT":1},"35":{"Postcode":1028,"Huidige_functie":"Bedrijf","Gebouwnaam":1,"Bruto_vloeroppervlak":1,"Leegstand_bvo":1,"Leegstand_perc":1,"Toekomstige_functie":1,"Transformatiefase":1,"Transformatiewijze":1,"Startbouw":1,"Aantal_woningen":1,"COORDS":1,"LNG":1,"LAT":1},"36":{"Postcode":1031,"Huidige_functie":"Kantoor","Gebouwnaam":1,"Bruto_vloeroppervlak":1,"Leegstand_bvo":1,"Leegstand_perc":1,"Toekomstige_functie":1,"Transformatiefase":1,"Transformatiewijze":1,"Startbouw":1,"Aantal_woningen":1,"COORDS":1,"LNG":1,"LAT":1},"37":{"Postcode":1033,"Huidige_functie":"Kantoor","Gebouwnaam":1,"Bruto_vloeroppervlak":3,"Leegstand_bvo":3,"Leegstand_perc":3,"Toekomstige_functie":3,"Transformatiefase":3,"Transformatiewijze":3,"Startbouw":3,"Aantal_woningen":3,"COORDS":3,"LNG":3,"LAT":3},"38":{"Postcode":1042,"Huidige_functie":"Bedrijf - Kantoor","Gebouwnaam":0,"Bruto_vloeroppervlak":1,"Leegstand_bvo":1,"Leegstand_perc":1,"Toekomstige_functie":1,"Transformatiefase":1,"Transformatiewijze":1,"Startbouw":1,"Aantal_woningen":1,"COORDS":1,"LNG":1,"LAT":1},"39":{"Postcode":1043,"Huidige_functie":"Bedrijf - Kantoor","Gebouwnaam":0,"Bruto_vloeroppervlak":1,"Leegstand_bvo":1,"Leegstand_perc":1,"Toekomstige_functie":1,"Transformatiefase":1,"Transformatiewijze":1,"Startbouw":1,"Aantal_woningen":1,"COORDS":1,"LNG":1,"LAT":1},"40":{"Postcode":1043,"Huidige_functie":"Kantoor","Gebouwnaam":22,"Bruto_vloeroppervlak":26,"Leegstand_bvo":26,"Leegstand_perc":26,"Toekomstige_functie":26,"Transformatiefase":26,"Transformatiewijze":26,"Startbouw":26,"Aantal_woningen":26,"COORDS":26,"LNG":26,"LAT":26},"41":{"Postcode":1044,"Huidige_functie":"Kantoor","Gebouwnaam":1,"Bruto_vloeroppervlak":1,"Leegstand_bvo":1,"Leegstand_perc":1,"Toekomstige_functie":1,"Transformatiefase":1,"Transformatiewijze":1,"Startbouw":1,"Aantal_woningen":1,"COORDS":1,"LNG":1,"LAT":1},"42":{"Postcode":1054,"Huidige_functie":"Onderwijs","Gebouwnaam":0,"Bruto_vloeroppervlak":1,"Leegstand_bvo":1,"Leegstand_perc":1,"Toekomstige_functie":1,"Transformatiefase":1,"Transformatiewijze":1,"Startbouw":1,"Aantal_woningen":1,"COORDS":1,"LNG":1,"LAT":1},"43":{"Postcode":1055,"Huidige_functie":"Commercieel","Gebouwnaam":1,"Bruto_vloeroppervlak":1,"Leegstand_bvo":1,"Leegstand_perc":1,"Toekomstige_functie":1,"Transformatiefase":1,"Transformatiewijze":1,"Startbouw":1,"Aantal_woningen":1,"COORDS":1,"LNG":1,"LAT":1},"44":{"Postcode":1055,"Huidige_functie":"Kantoor","Gebouwnaam":2,"Bruto_vloeroppervlak":3,"Leegstand_bvo":3,"Leegstand_perc":3,"Toekomstige_functie":3,"Transformatiefase":3,"Transformatiewijze":3,"Startbouw":3,"Aantal_woningen":3,"COORDS":3,"LNG":3,"LAT":3},"45":{"Postcode":1055,"Huidige_functie":"Maatschappelijk","Gebouwnaam":1,"Bruto_vloeroppervlak":1,"Leegstand_bvo":1,"Leegstand_perc":1,"Toekomstige_functie":1,"Transformatiefase":1,"Transformatiewijze":1,"Startbouw":1,"Aantal_woningen":1,"COORDS":1,"LNG":1,"LAT":1},"46":{"Postcode":1056,"Huidige_functie":"Religie","Gebouwnaam":1,"Bruto_vloeroppervlak":1,"Leegstand_bvo":1,"Leegstand_perc":1,"Toekomstige_functie":1,"Transformatiefase":1,"Transformatiewijze":1,"Startbouw":1,"Aantal_woningen":1,"COORDS":1,"LNG":1,"LAT":1},"47":{"Postcode":1057,"Huidige_functie":"Bedrijf","Gebouwnaam":0,"Bruto_vloeroppervlak":1,"Leegstand_bvo":1,"Leegstand_perc":1,"Toekomstige_functie":1,"Transformatiefase":1,"Transformatiewijze":1,"Startbouw":1,"Aantal_woningen":1,"COORDS":1,"LNG":1,"LAT":1},"48":{"Postcode":1057,"Huidige_functie":"Onderwijs","Gebouwnaam":1,"Bruto_vloeroppervlak":1,"Leegstand_bvo":1,"Leegstand_perc":1,"Toekomstige_functie":1,"Transformatiefase":1,"Transformatiewijze":1,"Startbouw":1,"Aantal_woningen":1,"COORDS":1,"LNG":1,"LAT":1},"49":{"Postcode":1057,"Huidige_functie":"Religie","Gebouwnaam":2,"Bruto_vloeroppervlak":2,"Leegstand_bvo":2,"Leegstand_perc":2,"Toekomstige_functie":2,"Transformatiefase":2,"Transformatiewijze":2,"Startbouw":2,"Aantal_woningen":2,"COORDS":2,"LNG":2,"LAT":2},"50":{"Postcode":1059,"Huidige_functie":"Bedrijf","Gebouwnaam":1,"Bruto_vloeroppervlak":1,"Leegstand_bvo":1,"Leegstand_perc":1,"Toekomstige_functie":1,"Transformatiefase":1,"Transformatiewijze":1,"Startbouw":1,"Aantal_woningen":1,"COORDS":1,"LNG":1,"LAT":1},"51":{"Postcode":1059,"Huidige_functie":"Kantoor","Gebouwnaam":2,"Bruto_vloeroppervlak":5,"Leegstand_bvo":5,"Leegstand_perc":5,"Toekomstige_functie":5,"Transformatiefase":5,"Transformatiewijze":5,"Startbouw":5,"Aantal_woningen":5,"COORDS":5,"LNG":5,"LAT":5},"52":{"Postcode":1061,"Huidige_functie":"Commercieel","Gebouwnaam":0,"Bruto_vloeroppervlak":1,"Leegstand_bvo":1,"Leegstand_perc":1,"Toekomstige_functie":1,"Transformatiefase":1,"Transformatiewijze":1,"Startbouw":1,"Aantal_woningen":1,"COORDS":1,"LNG":1,"LAT":1},"53":{"Postcode":1061,"Huidige_functie":"Datacenter - Kantoor","Gebouwnaam":1,"Bruto_vloeroppervlak":1,"Leegstand_bvo":1,"Leegstand_perc":1,"Toekomstige_functie":1,"Transformatiefase":1,"Transformatiewijze":1,"Startbouw":1,"Aantal_woningen":1,"COORDS":1,"LNG":1,"LAT":1},"54":{"Postcode":1061,"Huidige_functie":"Kantoor","Gebouwnaam":5,"Bruto_vloeroppervlak":7,"Leegstand_bvo":7,"Leegstand_perc":7,"Toekomstige_functie":7,"Transformatiefase":7,"Transformatiewijze":7,"Startbouw":7,"Aantal_woningen":7,"COORDS":7,"LNG":7,"LAT":7},"55":{"Postcode":1062,"Huidige_functie":"Kantoor","Gebouwnaam":11,"Bruto_vloeroppervlak":25,"Leegstand_bvo":25,"Leegstand_perc":25,"Toekomstige_functie":25,"Transformatiefase":25,"Transformatiewijze":25,"Startbouw":25,"Aantal_woningen":25,"COORDS":25,"LNG":25,"LAT":25},"56":{"Postcode":1063,"Huidige_functie":"Kantoor","Gebouwnaam":0,"Bruto_vloeroppervlak":6,"Leegstand_bvo":6,"Leegstand_perc":6,"Toekomstige_functie":6,"Transformatiefase":6,"Transformatiewijze":6,"Startbouw":6,"Aantal_woningen":6,"COORDS":6,"LNG":6,"LAT":6},"57":{"Postcode":1063,"Huidige_functie":"Maatschappelijk","Gebouwnaam":0,"Bruto_vloeroppervlak":1,"Leegstand_bvo":1,"Leegstand_perc":1,"Toekomstige_functie":1,"Transformatiefase":1,"Transformatiewijze":1,"Startbouw":1,"Aantal_woningen":1,"COORDS":1,"LNG":1,"LAT":1},"58":{"Postcode":1064,"Huidige_functie":"Kantoor","Gebouwnaam":0,"Bruto_vloeroppervlak":4,"Leegstand_bvo":4,"Leegstand_perc":4,"Toekomstige_functie":4,"Transformatiefase":4,"Transformatiewijze":4,"Startbouw":4,"Aantal_woningen":4,"COORDS":4,"LNG":4,"LAT":4},"59":{"Postcode":1064,"Huidige_functie":"Religie","Gebouwnaam":0,"Bruto_vloeroppervlak":1,"Leegstand_bvo":1,"Leegstand_perc":1,"Toekomstige_functie":1,"Transformatiefase":1,"Transformatiewijze":1,"Startbouw":1,"Aantal_woningen":1,"COORDS":1,"LNG":1,"LAT":1},"60":{"Postcode":1065,"Huidige_functie":"Kantoor","Gebouwnaam":1,"Bruto_vloeroppervlak":5,"Leegstand_bvo":5,"Leegstand_perc":5,"Toekomstige_functie":5,"Transformatiefase":5,"Transformatiewijze":5,"Startbouw":5,"Aantal_woningen":5,"COORDS":5,"LNG":5,"LAT":5},"61":{"Postcode":1065,"Huidige_functie":"Religie","Gebouwnaam":0,"Bruto_vloeroppervlak":1,"Leegstand_bvo":1,"Leegstand_perc":1,"Toekomstige_functie":1,"Transformatiefase":1,"Transformatiewijze":1,"Startbouw":1,"Aantal_woningen":1,"COORDS":1,"LNG":1,"LAT":1},"62":{"Postcode":1066,"Huidige_functie":"Kantoor","Gebouwnaam":6,"Bruto_vloeroppervlak":9,"Leegstand_bvo":9,"Leegstand_perc":9,"Toekomstige_functie":9,"Transformatiefase":9,"Transformatiewijze":9,"Startbouw":9,"Aantal_woningen":9,"COORDS":9,"LNG":9,"LAT":9},"63":{"Postcode":1067,"Huidige_functie":"Kantoor","Gebouwnaam":0,"Bruto_vloeroppervlak":1,"Leegstand_bvo":1,"Leegstand_perc":1,"Toekomstige_functie":1,"Transformatiefase":1,"Transformatiewijze":1,"Startbouw":1,"Aantal_woningen":1,"COORDS":1,"LNG":1,"LAT":1},"64":{"Postcode":1067,"Huidige_functie":"Maatschappelijk","Gebouwnaam":2,"Bruto_vloeroppervlak":2,"Leegstand_bvo":2,"Leegstand_perc":2,"Toekomstige_functie":2,"Transformatiefase":2,"Transformatiewijze":2,"Startbouw":2,"Aantal_woningen":2,"COORDS":2,"LNG":2,"LAT":2},"65":{"Postcode":1068,"Huidige_functie":"Kantoor","Gebouwnaam":1,"Bruto_vloeroppervlak":5,"Leegstand_bvo":5,"Leegstand_perc":5,"Toekomstige_functie":5,"Transformatiefase":5,"Transformatiewijze":5,"Startbouw":5,"Aantal_woningen":5,"COORDS":5,"LNG":5,"LAT":5},"66":{"Postcode":1069,"Huidige_functie":"Kantoor","Gebouwnaam":1,"Bruto_vloeroppervlak":4,"Leegstand_bvo":4,"Leegstand_perc":4,"Toekomstige_functie":4,"Transformatiefase":4,"Transformatiewijze":4,"Startbouw":4,"Aantal_woningen":4,"COORDS":4,"LNG":4,"LAT":4},"67":{"Postcode":1071,"Huidige_functie":"Bedrijf","Gebouwnaam":1,"Bruto_vloeroppervlak":1,"Leegstand_bvo":1,"Leegstand_perc":1,"Toekomstige_functie":1,"Transformatiefase":1,"Transformatiewijze":1,"Startbouw":1,"Aantal_woningen":1,"COORDS":1,"LNG":1,"LAT":1},"68":{"Postcode":1071,"Huidige_functie":"Commercieel - Wonen","Gebouwnaam":0,"Bruto_vloeroppervlak":3,"Leegstand_bvo":3,"Leegstand_perc":3,"Toekomstige_functie":3,"Transformatiefase":3,"Transformatiewijze":3,"Startbouw":3,"Aantal_woningen":3,"COORDS":3,"LNG":3,"LAT":3},"69":{"Postcode":1071,"Huidige_functie":"Kantoor","Gebouwnaam":2,"Bruto_vloeroppervlak":3,"Leegstand_bvo":3,"Leegstand_perc":3,"Toekomstige_functie":3,"Transformatiefase":3,"Transformatiewijze":3,"Startbouw":3,"Aantal_woningen":3,"COORDS":3,"LNG":3,"LAT":3},"70":{"Postcode":1071,"Huidige_functie":"Maatschappelijk","Gebouwnaam":0,"Bruto_vloeroppervlak":1,"Leegstand_bvo":1,"Leegstand_perc":1,"Toekomstige_functie":1,"Transformatiefase":1,"Transformatiewijze":1,"Startbouw":1,"Aantal_woningen":1,"COORDS":1,"LNG":1,"LAT":1},"71":{"Postcode":1072,"Huidige_functie":"Kantoor","Gebouwnaam":1,"Bruto_vloeroppervlak":1,"Leegstand_bvo":1,"Leegstand_perc":1,"Toekomstige_functie":1,"Transformatiefase":1,"Transformatiewijze":1,"Startbouw":1,"Aantal_woningen":1,"COORDS":1,"LNG":1,"LAT":1},"72":{"Postcode":1073,"Huidige_functie":"Kantoor","Gebouwnaam":1,"Bruto_vloeroppervlak":1,"Leegstand_bvo":1,"Leegstand_perc":1,"Toekomstige_functie":1,"Transformatiefase":1,"Transformatiewijze":1,"Startbouw":1,"Aantal_woningen":1,"COORDS":1,"LNG":1,"LAT":1},"73":{"Postcode":1075,"Huidige_functie":"Hotel","Gebouwnaam":0,"Bruto_vloeroppervlak":1,"Leegstand_bvo":1,"Leegstand_perc":1,"Toekomstige_functie":1,"Transformatiefase":1,"Transformatiewijze":1,"Startbouw":1,"Aantal_woningen":1,"COORDS":1,"LNG":1,"LAT":1},"74":{"Postcode":1075,"Huidige_functie":"Kantoor","Gebouwnaam":1,"Bruto_vloeroppervlak":4,"Leegstand_bvo":4,"Leegstand_perc":4,"Toekomstige_functie":4,"Transformatiefase":4,"Transformatiewijze":4,"Startbouw":4,"Aantal_woningen":4,"COORDS":4,"LNG":4,"LAT":4},"75":{"Postcode":1075,"Huidige_functie":"Kantoor - Wonen","Gebouwnaam":0,"Bruto_vloeroppervlak":2,"Leegstand_bvo":2,"Leegstand_perc":2,"Toekomstige_functie":2,"Transformatiefase":2,"Transformatiewijze":2,"Startbouw":2,"Aantal_woningen":2,"COORDS":2,"LNG":2,"LAT":2},"76":{"Postcode":1075,"Huidige_functie":"Maatschappelijk","Gebouwnaam":2,"Bruto_vloeroppervlak":2,"Leegstand_bvo":2,"Leegstand_perc":2,"Toekomstige_functie":2,"Transformatiefase":2,"Transformatiewijze":2,"Startbouw":2,"Aantal_woningen":2,"COORDS":2,"LNG":2,"LAT":2},"77":{"Postcode":1075,"Huidige_functie":"Religie","Gebouwnaam":0,"Bruto_vloeroppervlak":1,"Leegstand_bvo":1,"Leegstand_perc":1,"Toekomstige_functie":1,"Transformatiefase":1,"Transformatiewijze":1,"Startbouw":1,"Aantal_woningen":1,"COORDS":1,"LNG":1,"LAT":1},"78":{"Postcode":1076,"Huidige_functie":"Bedrijf - Commercieel","Gebouwnaam":2,"Bruto_vloeroppervlak":2,"Leegstand_bvo":2,"Leegstand_perc":2,"Toekomstige_functie":2,"Transformatiefase":2,"Transformatiewijze":2,"Startbouw":2,"Aantal_woningen":2,"COORDS":2,"LNG":2,"LAT":2},"79":{"Postcode":1076,"Huidige_functie":"Kantoor","Gebouwnaam":6,"Bruto_vloeroppervlak":6,"Leegstand_bvo":6,"Leegstand_perc":6,"Toekomstige_functie":6,"Transformatiefase":6,"Transformatiewijze":6,"Startbouw":6,"Aantal_woningen":6,"COORDS":6,"LNG":6,"LAT":6},"80":{"Postcode":1076,"Huidige_functie":"Religie","Gebouwnaam":0,"Bruto_vloeroppervlak":1,"Leegstand_bvo":1,"Leegstand_perc":1,"Toekomstige_functie":1,"Transformatiefase":1,"Transformatiewijze":1,"Startbouw":1,"Aantal_woningen":1,"COORDS":1,"LNG":1,"LAT":1},"81":{"Postcode":1077,"Huidige_functie":"Kantoor","Gebouwnaam":4,"Bruto_vloeroppervlak":7,"Leegstand_bvo":7,"Leegstand_perc":7,"Toekomstige_functie":7,"Transformatiefase":7,"Transformatiewijze":7,"Startbouw":7,"Aantal_woningen":7,"COORDS":7,"LNG":7,"LAT":7},"82":{"Postcode":1077,"Huidige_functie":"Onderwijs","Gebouwnaam":0,"Bruto_vloeroppervlak":1,"Leegstand_bvo":1,"Leegstand_perc":1,"Toekomstige_functie":1,"Transformatiefase":1,"Transformatiewijze":1,"Startbouw":1,"Aantal_woningen":1,"COORDS":1,"LNG":1,"LAT":1},"83":{"Postcode":1078,"Huidige_functie":"Onderwijs","Gebouwnaam":1,"Bruto_vloeroppervlak":1,"Leegstand_bvo":1,"Leegstand_perc":1,"Toekomstige_functie":1,"Transformatiefase":1,"Transformatiewijze":1,"Startbouw":1,"Aantal_woningen":1,"COORDS":1,"LNG":1,"LAT":1},"84":{"Postcode":1079,"Huidige_functie":"Bedrijf","Gebouwnaam":1,"Bruto_vloeroppervlak":1,"Leegstand_bvo":1,"Leegstand_perc":1,"Toekomstige_functie":1,"Transformatiefase":1,"Transformatiewijze":1,"Startbouw":1,"Aantal_woningen":1,"COORDS":1,"LNG":1,"LAT":1},"85":{"Postcode":1079,"Huidige_functie":"Kantoor","Gebouwnaam":1,"Bruto_vloeroppervlak":3,"Leegstand_bvo":3,"Leegstand_perc":3,"Toekomstige_functie":3,"Transformatiefase":3,"Transformatiewijze":3,"Startbouw":3,"Aantal_woningen":3,"COORDS":3,"LNG":3,"LAT":3},"86":{"Postcode":1081,"Huidige_functie":"Kantoor","Gebouwnaam":4,"Bruto_vloeroppervlak":7,"Leegstand_bvo":7,"Leegstand_perc":7,"Toekomstige_functie":7,"Transformatiefase":7,"Transformatiewijze":7,"Startbouw":7,"Aantal_woningen":7,"COORDS":7,"LNG":7,"LAT":7},"87":{"Postcode":1081,"Huidige_functie":"Maatschappelijk","Gebouwnaam":2,"Bruto_vloeroppervlak":2,"Leegstand_bvo":2,"Leegstand_perc":2,"Toekomstige_functie":2,"Transformatiefase":2,"Transformatiewijze":2,"Startbouw":2,"Aantal_woningen":2,"COORDS":2,"LNG":2,"LAT":2},"88":{"Postcode":1081,"Huidige_functie":"Onbekend","Gebouwnaam":0,"Bruto_vloeroppervlak":1,"Leegstand_bvo":1,"Leegstand_perc":1,"Toekomstige_functie":1,"Transformatiefase":1,"Transformatiewijze":1,"Startbouw":1,"Aantal_woningen":1,"COORDS":1,"LNG":1,"LAT":1},"89":{"Postcode":1082,"Huidige_functie":"Kantoor","Gebouwnaam":3,"Bruto_vloeroppervlak":6,"Leegstand_bvo":6,"Leegstand_perc":6,"Toekomstige_functie":6,"Transformatiefase":6,"Transformatiewijze":6,"Startbouw":6,"Aantal_woningen":6,"COORDS":6,"LNG":6,"LAT":6},"90":{"Postcode":1083,"Huidige_functie":"Commercieel","Gebouwnaam":0,"Bruto_vloeroppervlak":1,"Leegstand_bvo":1,"Leegstand_perc":1,"Toekomstige_functie":1,"Transformatiefase":1,"Transformatiewijze":1,"Startbouw":1,"Aantal_woningen":1,"COORDS":1,"LNG":1,"LAT":1},"91":{"Postcode":1083,"Huidige_functie":"Kantoor","Gebouwnaam":3,"Bruto_vloeroppervlak":4,"Leegstand_bvo":4,"Leegstand_perc":4,"Toekomstige_functie":4,"Transformatiefase":4,"Transformatiewijze":4,"Startbouw":4,"Aantal_woningen":4,"COORDS":4,"LNG":4,"LAT":4},"92":{"Postcode":1083,"Huidige_functie":"Maatschappelijk","Gebouwnaam":1,"Bruto_vloeroppervlak":1,"Leegstand_bvo":1,"Leegstand_perc":1,"Toekomstige_functie":1,"Transformatiefase":1,"Transformatiewijze":1,"Startbouw":1,"Aantal_woningen":1,"COORDS":1,"LNG":1,"LAT":1},"93":{"Postcode":1083,"Huidige_functie":"Onderwijs","Gebouwnaam":0,"Bruto_vloeroppervlak":1,"Leegstand_bvo":1,"Leegstand_perc":1,"Toekomstige_functie":1,"Transformatiefase":1,"Transformatiewijze":1,"Startbouw":1,"Aantal_woningen":1,"COORDS":1,"LNG":1,"LAT":1},"94":{"Postcode":1091,"Huidige_functie":"Commercieel","Gebouwnaam":1,"Bruto_vloeroppervlak":1,"Leegstand_bvo":1,"Leegstand_perc":1,"Toekomstige_functie":1,"Transformatiefase":1,"Transformatiewijze":1,"Startbouw":1,"Aantal_woningen":1,"COORDS":1,"LNG":1,"LAT":1},"95":{"Postcode":1091,"Huidige_functie":"Kantoor","Gebouwnaam":0,"Bruto_vloeroppervlak":2,"Leegstand_bvo":2,"Leegstand_perc":2,"Toekomstige_functie":2,"Transformatiefase":2,"Transformatiewijze":2,"Startbouw":2,"Aantal_woningen":2,"COORDS":2,"LNG":2,"LAT":2},"96":{"Postcode":1091,"Huidige_functie":"Onderwijs - Wonen","Gebouwnaam":1,"Bruto_vloeroppervlak":1,"Leegstand_bvo":1,"Leegstand_perc":1,"Toekomstige_functie":1,"Transformatiefase":1,"Transformatiewijze":1,"Startbouw":1,"Aantal_woningen":1,"COORDS":1,"LNG":1,"LAT":1},"97":{"Postcode":1092,"Huidige_functie":"Kantoor","Gebouwnaam":0,"Bruto_vloeroppervlak":1,"Leegstand_bvo":1,"Leegstand_perc":1,"Toekomstige_functie":1,"Transformatiefase":1,"Transformatiewijze":1,"Startbouw":1,"Aantal_woningen":1,"COORDS":1,"LNG":1,"LAT":1},"98":{"Postcode":1092,"Huidige_functie":"Kantoor - Wonen","Gebouwnaam":1,"Bruto_vloeroppervlak":1,"Leegstand_bvo":1,"Leegstand_perc":1,"Toekomstige_functie":1,"Transformatiefase":1,"Transformatiewijze":1,"Startbouw":1,"Aantal_woningen":1,"COORDS":1,"LNG":1,"LAT":1},"99":{"Postcode":1092,"Huidige_functie":"Maatschappelijk","Gebouwnaam":1,"Bruto_vloeroppervlak":1,"Leegstand_bvo":1,"Leegstand_perc":1,"Toekomstige_functie":1,"Transformatiefase":1,"Transformatiewijze":1,"Startbouw":1,"Aantal_woningen":1,"COORDS":1,"LNG":1,"LAT":1},"100":{"Postcode":1093,"Huidige_functie":"Commercieel - Kantoor - Wonen","Gebouwnaam":1,"Bruto_vloeroppervlak":1,"Leegstand_bvo":1,"Leegstand_perc":1,"Toekomstige_functie":1,"Transformatiefase":1,"Transformatiewijze":1,"Startbouw":1,"Aantal_woningen":1,"COORDS":1,"LNG":1,"LAT":1},"101":{"Postcode":1096,"Huidige_functie":"Bedrijf","Gebouwnaam":0,"Bruto_vloeroppervlak":1,"Leegstand_bvo":1,"Leegstand_perc":1,"Toekomstige_functie":1,"Transformatiefase":1,"Transformatiewijze":1,"Startbouw":1,"Aantal_woningen":1,"COORDS":1,"LNG":1,"LAT":1},"102":{"Postcode":1096,"Huidige_functie":"Kantoor","Gebouwnaam":2,"Bruto_vloeroppervlak":3,"Leegstand_bvo":3,"Leegstand_perc":3,"Toekomstige_functie":3,"Transformatiefase":3,"Transformatiewijze":3,"Startbouw":3,"Aantal_woningen":3,"COORDS":3,"LNG":3,"LAT":3},"103":{"Postcode":1096,"Huidige_functie":"Maatschappelijk","Gebouwnaam":1,"Bruto_vloeroppervlak":1,"Leegstand_bvo":1,"Leegstand_perc":1,"Toekomstige_functie":1,"Transformatiefase":1,"Transformatiewijze":1,"Startbouw":1,"Aantal_woningen":1,"COORDS":1,"LNG":1,"LAT":1},"104":{"Postcode":1097,"Huidige_functie":"Kantoor","Gebouwnaam":1,"Bruto_vloeroppervlak":5,"Leegstand_bvo":5,"Leegstand_perc":5,"Toekomstige_functie":5,"Transformatiefase":5,"Transformatiewijze":5,"Startbouw":5,"Aantal_woningen":5,"COORDS":5,"LNG":5,"LAT":5},"105":{"Postcode":1097,"Huidige_functie":"Onderwijs","Gebouwnaam":0,"Bruto_vloeroppervlak":1,"Leegstand_bvo":1,"Leegstand_perc":1,"Toekomstige_functie":1,"Transformatiefase":1,"Transformatiewijze":1,"Startbouw":1,"Aantal_woningen":1,"COORDS":1,"LNG":1,"LAT":1},"106":{"Postcode":1101,"Huidige_functie":"Bedrijf","Gebouwnaam":1,"Bruto_vloeroppervlak":3,"Leegstand_bvo":3,"Leegstand_perc":3,"Toekomstige_functie":3,"Transformatiefase":3,"Transformatiewijze":3,"Startbouw":3,"Aantal_woningen":3,"COORDS":3,"LNG":3,"LAT":3},"107":{"Postcode":1101,"Huidige_functie":"Broedplaats","Gebouwnaam":1,"Bruto_vloeroppervlak":1,"Leegstand_bvo":1,"Leegstand_perc":1,"Toekomstige_functie":1,"Transformatiefase":1,"Transformatiewijze":1,"Startbouw":1,"Aantal_woningen":1,"COORDS":1,"LNG":1,"LAT":1},"108":{"Postcode":1101,"Huidige_functie":"Kantoor","Gebouwnaam":12,"Bruto_vloeroppervlak":28,"Leegstand_bvo":28,"Leegstand_perc":28,"Toekomstige_functie":28,"Transformatiefase":28,"Transformatiewijze":28,"Startbouw":28,"Aantal_woningen":28,"COORDS":28,"LNG":28,"LAT":28},"109":{"Postcode":1102,"Huidige_functie":"Broedplaats","Gebouwnaam":0,"Bruto_vloeroppervlak":1,"Leegstand_bvo":1,"Leegstand_perc":1,"Toekomstige_functie":1,"Transformatiefase":1,"Transformatiewijze":1,"Startbouw":1,"Aantal_woningen":1,"COORDS":1,"LNG":1,"LAT":1},"110":{"Postcode":1102,"Huidige_functie":"Commercieel","Gebouwnaam":0,"Bruto_vloeroppervlak":1,"Leegstand_bvo":1,"Leegstand_perc":1,"Toekomstige_functie":1,"Transformatiefase":1,"Transformatiewijze":1,"Startbouw":1,"Aantal_woningen":1,"COORDS":1,"LNG":1,"LAT":1},"111":{"Postcode":1102,"Huidige_functie":"Commercieel - Wonen","Gebouwnaam":0,"Bruto_vloeroppervlak":1,"Leegstand_bvo":1,"Leegstand_perc":1,"Toekomstige_functie":1,"Transformatiefase":1,"Transformatiewijze":1,"Startbouw":1,"Aantal_woningen":1,"COORDS":1,"LNG":1,"LAT":1},"112":{"Postcode":1102,"Huidige_functie":"Kantoor","Gebouwnaam":2,"Bruto_vloeroppervlak":5,"Leegstand_bvo":5,"Leegstand_perc":5,"Toekomstige_functie":5,"Transformatiefase":5,"Transformatiewijze":5,"Startbouw":5,"Aantal_woningen":5,"COORDS":5,"LNG":5,"LAT":5},"113":{"Postcode":1102,"Huidige_functie":"Wonen","Gebouwnaam":0,"Bruto_vloeroppervlak":1,"Leegstand_bvo":1,"Leegstand_perc":1,"Toekomstige_functie":1,"Transformatiefase":1,"Transformatiewijze":1,"Startbouw":1,"Aantal_woningen":1,"COORDS":1,"LNG":1,"LAT":1},"114":{"Postcode":1103,"Huidige_functie":"Kantoor","Gebouwnaam":0,"Bruto_vloeroppervlak":1,"Leegstand_bvo":1,"Leegstand_perc":1,"Toekomstige_functie":1,"Transformatiefase":1,"Transformatiewijze":1,"Startbouw":1,"Aantal_woningen":1,"COORDS":1,"LNG":1,"LAT":1},"115":{"Postcode":1104,"Huidige_functie":"Kantoor","Gebouwnaam":0,"Bruto_vloeroppervlak":1,"Leegstand_bvo":1,"Leegstand_perc":1,"Toekomstige_functie":1,"Transformatiefase":1,"Transformatiewijze":1,"Startbouw":1,"Aantal_woningen":1,"COORDS":1,"LNG":1,"LAT":1},"116":{"Postcode":1105,"Huidige_functie":"Kantoor","Gebouwnaam":4,"Bruto_vloeroppervlak":12,"Leegstand_bvo":12,"Leegstand_perc":12,"Toekomstige_functie":12,"Transformatiefase":12,"Transformatiewijze":12,"Startbouw":12,"Aantal_woningen":12,"COORDS":12,"LNG":12,"LAT":12},"117":{"Postcode":1106,"Huidige_functie":"Kantoor","Gebouwnaam":0,"Bruto_vloeroppervlak":2,"Leegstand_bvo":2,"Leegstand_perc":2,"Toekomstige_functie":2,"Transformatiefase":2,"Transformatiewijze":2,"Startbouw":2,"Aantal_woningen":2,"COORDS":2,"LNG":2,"LAT":2}}